{"type": "FeatureCollection", "features": [{"type": "Feature", "geometry": {"type": "Polygon", "coordinates": [[[-3.1167095432404737, 53.3751740715757], [-3.1167001371123515, 53.374814596161926], [-3.1163995767040347, 53.374817408226455], [-3.1164089803023702, 53.37517688367685], [-3.1167095432404737, 53.3751740715757]]]}, "properties": {"kind": "max_footprint", "threshold_pct": 4.0}}, {"type": "Feature", "geometry": {"type": "Polygon", "coordinates": [[[-3.120306858064051, 53.37478079237327], [-3.1203021398974276, 53.374601054877886], [-3.1200015813616746, 53.374603876003185], [-3.1200062982634327, 53.37478361351691], [-3.120306858064051, 53.37478079237327]]]}, "properties": {"kind": "max_footprint", "threshold_pct": 4.0}}, {"type": "Feature", "geometry": {"type": "Polygon", "coordinates": [[[-3.1163995767040347, 53.374817408226455], [-3.116394874980697, 53.37463767049264], [-3.1160943157867003, 53.374640481782265], [-3.116099016245165, 53.374820219534385], [-3.1163995767040347, 53.374817408226455]]]}, "properties": {"kind": "max_footprint", "threshold_pct": 4.0}}, {"type": "Feature", "geometry": {"type": "Polygon", "coordinates": [[[-3.1058939033189104, 53.375454568908125], [-3.105875273209073, 53.37473561545612], [-3.105574712254299, 53.37473840026489], [-3.105570056116918, 53.374558661869415], [-3.1049689365869675, 53.37456422918093], [-3.1049782438522198, 53.37492370603862], [-3.1052788061720062, 53.37492092272493], [-3.105288116167248, 53.375280399523454], [-3.105588680966824, 53.37527761541689], [-3.105593337304461, 53.37545735378942], [-3.1058939033189104, 53.375454568908125]]]}, "properties": {"kind": "max_footprint", "threshold_pct": 4.0}}, {"type": "Feature", "geometry": {"type": "Polygon", "coordinates": [[[-3.089945473937337, 53.37488216771882], [-3.089940883574971, 53.37470242838718], [-3.0896403212504993, 53.37470517307786], [-3.089644910347942, 53.37488491242736], [-3.089945473937337, 53.37488216771882]]]}, "properties": {"kind": "max_footprint", "threshold_pct": 4.0}}, {"type": "Feature", "geometry": {"type": "Polygon", "coordinates": [[[-3.119696307189013, 53.374426958834015], [-3.119691591653521, 53.374247221290446], [-3.119090479387871, 53.37425285968463], [-3.119095192393686, 53.37443259726493], [-3.119696307189013, 53.374426958834015]]]}, "properties": {"kind": "max_footprint", "threshold_pct": 4.0}}, {"type": "Feature", "geometry": {"type": "Polygon", "coordinates": [[[-3.110374328813218, 53.374334276317384], [-3.110369652538322, 53.37415453820119], [-3.109768539672834, 53.37416012965086], [-3.109773213418033, 53.37433986780347], [-3.110374328813218, 53.374334276317384]]]}, "properties": {"kind": "max_footprint", "threshold_pct": 4.0}}, {"type": "Feature", "geometry": {"type": "Polygon", "coordinates": [[[-3.1188134823905176, 53.37515436568274], [-3.1187946349200035, 53.3744354153455], [-3.118494077395662, 53.3744382326695], [-3.1184799461191943, 53.373899019801314], [-3.118179392338688, 53.3739018363137], [-3.1181888106093782, 53.37426131160157], [-3.117888254248598, 53.37426412739408], [-3.1179070863381297, 53.374983077974335], [-3.1176065248672784, 53.37498589308358], [-3.117611231751318, 53.375165630732624], [-3.1188134823905176, 53.37515436568274]]]}, "properties": {"kind": "max_footprint", "threshold_pct": 4.0}}, {"type": "Feature", "geometry": {"type": "Polygon", "coordinates": [[[-3.0776087111025237, 53.37445486014317], [-3.07760417274898, 53.37427512006564], [-3.0773036122074036, 53.37427783368203], [-3.077308149296036, 53.37445757377723], [-3.0776087111025237, 53.37445486014317]]]}, "properties": {"kind": "max_footprint", "threshold_pct": 4.0}}, {"type": "Feature", "geometry": {"type": "Polygon", "coordinates": [[[-3.118780499849057, 53.37389620253234], [-3.1187757882600606, 53.37371646491649], [-3.1184752357949965, 53.3737192821671], [-3.1184799461191943, 53.373899019801314], [-3.118780499849057, 53.37389620253234]]]}, "properties": {"kind": "max_footprint", "threshold_pct": 4.0}}, {"type": "Feature", "geometry": {"type": "Polygon", "coordinates": [[[-3.08541415847089, 53.374024560849016], [-3.0854095873281975, 53.373844821221205], [-3.0851090305894866, 53.3738475544737], [-3.0851136004673134, 53.374027294119315], [-3.08541415847089, 53.374024560849016]]]}, "properties": {"kind": "max_footprint", "threshold_pct": 4.0}}, {"type": "Feature", "geometry": {"type": "Polygon", "coordinates": [[[-3.076998515842093, 53.374100806423236], [-3.0769939801159114, 53.37392106629894], [-3.0766934220065676, 53.37392377836679], [-3.0766979564678634, 53.37410351850876], [-3.076998515842093, 53.374100806423236]]]}, "properties": {"kind": "max_footprint", "threshold_pct": 4.0}}, {"type": "Feature", "geometry": {"type": "Polygon", "coordinates": [[[-3.115765562441629, 53.37356486557241], [-3.1157608636017002, 53.37338512776184], [-3.1154603131603813, 53.37338793741021], [-3.1154650107355293, 53.37356767523906], [-3.115765562441629, 53.37356486557241]]]}, "properties": {"kind": "max_footprint", "threshold_pct": 4.0}}, {"type": "Feature", "geometry": {"type": "Polygon", "coordinates": [[[-3.0857101440177606, 53.37384208721214], [-3.085705571659365, 53.37366234759641], [-3.085405016234654, 53.37366508158769], [-3.0854095873281975, 53.373844821221205], [-3.0857101440177606, 53.37384208721214]]]}, "properties": {"kind": "max_footprint", "threshold_pct": 4.0}}, {"type": "Feature", "geometry": {"type": "Polygon", "coordinates": [[[-3.085405016234654, 53.37366508158769], [-3.085400445190257, 53.37348534194843], [-3.0850998909812364, 53.37348807516532], [-3.085104460760795, 53.37366781482237], [-3.085405016234654, 53.37366508158769]]]}, "properties": {"kind": "max_footprint", "threshold_pct": 4.0}}, {"type": "Feature", "geometry": {"type": "Polygon", "coordinates": [[[-3.091420711763209, 53.37378999728783], [-3.0914161153727706, 53.37361025801131], [-3.091115560884444, 53.37361300637765], [-3.091106370781458, 53.37325352777162], [-3.090805818773363, 53.3732562753456], [-3.0908196002074755, 53.37379549329974], [-3.091420711763209, 53.37378999728783]]]}, "properties": {"kind": "max_footprint", "threshold_pct": 4.0}}, {"type": "Feature", "geometry": {"type": "Polygon", "coordinates": [[[-3.082117132336599, 53.3744140648389], [-3.0820989033220805, 53.373695105557076], [-3.0817983473084953, 53.37369783046931], [-3.0817846798565878, 53.37315861089466], [-3.081183575271482, 53.37316405834293], [-3.081192681797795, 53.37352353813605], [-3.0814932366444867, 53.37352081475472], [-3.0815160101413994, 53.37441951404874], [-3.082117132336599, 53.3744140648389]]]}, "properties": {"kind": "max_footprint", "threshold_pct": 4.0}}, {"type": "Feature", "geometry": {"type": "Polygon", "coordinates": [[[-3.077882035881626, 53.37337370530761], [-3.077877496556021, 53.37319396521347], [-3.0775769436524185, 53.373196679480415], [-3.0775814817131955, 53.37337641959224], [-3.077882035881626, 53.37337370530761]]]}, "properties": {"kind": "max_footprint", "threshold_pct": 4.0}}, {"type": "Feature", "geometry": {"type": "Polygon", "coordinates": [[[-3.09500893096625, 53.37303800138355], [-3.095004319596136, 53.37285826229925], [-3.094703770760922, 53.372861019672705], [-3.094708380866261, 53.37304075877496], [-3.09500893096625, 53.37303800138355]]]}, "properties": {"kind": "max_footprint", "threshold_pct": 4.0}}, {"type": "Feature", "geometry": {"type": "Polygon", "coordinates": [[[-3.1010199225360875, 53.37298269467778], [-3.1010106492550116, 53.37262321722373], [-3.100710102678719, 53.3726259897102], [-3.100719373430287, 53.37298546720036], [-3.1010199225360875, 53.37298269467778]]]}, "properties": {"kind": "max_footprint", "threshold_pct": 4.0}}, {"type": "Feature", "geometry": {"type": "Polygon", "coordinates": [[[-3.11213552082888, 53.37269984143302], [-3.112130837418133, 53.372520103374576], [-3.1118302926953674, 53.37252290385307], [-3.1118349748413947, 53.37270264192975], [-3.11213552082888, 53.37269984143302]]]}, "properties": {"kind": "max_footprint", "threshold_pct": 4.0}}, {"type": "Feature", "geometry": {"type": "Polygon", "coordinates": [[[-3.1019169290945796, 53.3727946339007], [-3.1019122886847303, 53.372614895225006], [-3.101611742258031, 53.372617669981146], [-3.1016163814031343, 53.3727974086749], [-3.1019169290945796, 53.3727946339007]]]}, "properties": {"kind": "max_footprint", "threshold_pct": 4.0}}, {"type": "Feature", "geometry": {"type": "Polygon", "coordinates": [[[-3.0995125461671833, 53.37281681091076], [-3.099507915875313, 53.372637072090654], [-3.0992073690499717, 53.37263984079441], [-3.099211998077091, 53.37281957963255], [-3.0995125461671833, 53.37281681091076]]]}, "properties": {"kind": "max_footprint", "threshold_pct": 4.0}}, {"type": "Feature", "geometry": {"type": "Polygon", "coordinates": [[[-3.0980098052191565, 53.37283064695412], [-3.0980051812510476, 53.37265090804392], [-3.097704634176995, 53.372653672964915], [-3.097709256880351, 53.372833411893126], [-3.0980098052191565, 53.37283064695412]]]}, "properties": {"kind": "max_footprint", "threshold_pct": 4.0}}, {"type": "Feature", "geometry": {"type": "Polygon", "coordinates": [[[-3.090227671264434, 53.374160464964305], [-3.090223079834619, 53.373980725627646], [-3.0899225226190574, 53.37398347100343], [-3.089917932503463, 53.373803731643186], [-3.089316820454004, 53.373809220089214], [-3.0893076454302095, 53.37344974128009], [-3.0890070918611596, 53.3734524843325], [-3.088988747464632, 53.37273352657411], [-3.088688198905456, 53.37273626879853], [-3.0886836141943563, 53.37255652932678], [-3.0883830668506485, 53.37255927077678], [-3.0883922337926024, 53.37291874975028], [-3.0886927836658504, 53.37291600826457], [-3.088715708207245, 53.37381470550893], [-3.0890162643552794, 53.37381196317738], [-3.089020850676307, 53.37399170259122], [-3.0893214080398863, 53.373988959485196], [-3.0893259956750967, 53.374168698875465], [-3.090227671264434, 53.374160464964305]]]}, "properties": {"kind": "max_footprint", "threshold_pct": 4.0}}, {"type": "Feature", "geometry": {"type": "Polygon", "coordinates": [[[-3.0929142844077044, 53.37341676563821], [-3.092891271824333, 53.372518069588835], [-3.0925907251719607, 53.37252082163054], [-3.092613731431432, 53.37341951776951], [-3.0929142844077044, 53.37341676563821]]]}, "properties": {"kind": "max_footprint", "threshold_pct": 4.0}}, {"type": "Feature", "geometry": {"type": "Polygon", "coordinates": [[[-3.1118302926953674, 53.37252290385307], [-3.1118256105996815, 53.37234316577066], [-3.111525067091285, 53.37234596547439], [-3.1115297479222637, 53.37252570357502], [-3.1118302926953674, 53.37252290385307]]]}, "properties": {"kind": "max_footprint", "threshold_pct": 4.0}}, {"type": "Feature", "geometry": {"type": "Polygon", "coordinates": [[[-3.1112292030988318, 53.37252850254045], [-3.111224523532561, 53.372348764421574], [-3.1109239799235264, 53.37235156261224], [-3.110928658225088, 53.37253130074933], [-3.1112292030988318, 53.37252850254045]]]}, "properties": {"kind": "max_footprint", "threshold_pct": 4.0}}, {"type": "Feature", "geometry": {"type": "Polygon", "coordinates": [[[-3.075464013693976, 53.37285617767692], [-3.075459484633112, 53.37267643742437], [-3.0751589351339765, 53.372679145585785], [-3.075163462930046, 53.37285888585596], [-3.075464013693976, 53.37285617767692]]]}, "properties": {"kind": "max_footprint", "threshold_pct": 4.0}}, {"type": "Feature", "geometry": {"type": "Polygon", "coordinates": [[[-3.1082470874479724, 53.3734551420034], [-3.1082424202779313, 53.37327540373119], [-3.1085429706628767, 53.37327261225845], [-3.108538302278246, 53.37309287399871], [-3.108838851348229, 53.373090081787566], [-3.108829512200046, 53.37273060528723], [-3.10852896565956, 53.372733397462], [-3.1085149611079665, 53.37219418261395], [-3.107913875464729, 53.37219976458479], [-3.107918541069002, 53.37237950290955], [-3.1076179969074302, 53.37238229277836], [-3.107645983997987, 53.373460722715556], [-3.1082470874479724, 53.3734551420034]]]}, "properties": {"kind": "max_footprint", "threshold_pct": 4.0}}, {"type": "Feature", "geometry": {"type": "Polygon", "coordinates": [[[-3.1049689365869675, 53.37456422918093], [-3.1049549760643513, 53.3740250138514], [-3.105255532059774, 53.37402223062833], [-3.105260186782124, 53.37420196905911], [-3.105861301152504, 53.37419640030696], [-3.1058566439004647, 53.37401666191243], [-3.106157199745705, 53.3740138764196], [-3.1061525412789095, 53.373834138037495], [-3.1058519866984993, 53.37383692351218], [-3.105847329546607, 53.373657185106204], [-3.1049456692994415, 53.37366553693642], [-3.1049317095273126, 53.37312632152095], [-3.1052322591987105, 53.37312353838848], [-3.1052182960825974, 53.37258432297582], [-3.1049177502054506, 53.372587106053906], [-3.1049130971982204, 53.37240736755345], [-3.104612552535771, 53.37241014985689], [-3.104607900843277, 53.372230411332566], [-3.104307357395525, 53.37223319286135], [-3.104312007823309, 53.37241293140378], [-3.103710918248399, 53.37241849222797], [-3.103715566196731, 53.372598230800875], [-3.1034150200695834, 53.372601010096254], [-3.103419666803147, 53.37278074868154], [-3.1031191193612986, 53.372783527238475], [-3.103114473892477, 53.37260378863508], [-3.102813927665426, 53.37260656641739], [-3.102804639407061, 53.37224708915729], [-3.1025040956595227, 53.37224986614689], [-3.102499452869938, 53.37207012749015], [-3.1021989103371856, 53.3720729037051], [-3.1022035518620656, 53.37225264237992], [-3.1019030080147054, 53.37225541785644], [-3.1019122886847303, 53.372614895225006], [-3.102212835061538, 53.372612119712365], [-3.1022221184606305, 53.37297159702186], [-3.102522667317036, 53.372968820716515], [-3.102518024327778, 53.37278908208269], [-3.102818571869505, 53.372786305038844], [-3.1028232161235185, 53.372966043654586], [-3.1031237648800682, 53.37296326583612], [-3.1031284104487837, 53.37314300442804], [-3.103428960420154, 53.37314022583491], [-3.1034336073035997, 53.37331996440301], [-3.103734158489791, 53.37331718503523], [-3.103748103234331, 53.37385640065083], [-3.1040486581649698, 53.37385362047219], [-3.104057957440903, 53.37421309748441], [-3.104358514851232, 53.37421031651296], [-3.1043631658290503, 53.37439005499236], [-3.1046637244542326, 53.37438727324622], [-3.104668376746931, 53.374567011701785], [-3.1049689365869675, 53.37456422918093]], [[-3.1049549760643513, 53.3740250138514], [-3.1046544200188957, 53.374027796317904], [-3.104649767876258, 53.37384805784516], [-3.104950322656879, 53.373845275396775], [-3.1049549760643513, 53.3740250138514]], [[-3.104325959406658, 53.372952146996695], [-3.1040254108499785, 53.37295492784139], [-3.104016112273904, 53.372595450748946], [-3.104617204278279, 53.37258988837547], [-3.1046218560708, 53.37276962688833], [-3.104321308828874, 53.372772408471455], [-3.104325959406658, 53.372952146996695]]]}, "properties": {"kind": "max_footprint", "threshold_pct": 4.0}}, {"type": "Feature", "geometry": {"type": "Polygon", "coordinates": [[[-3.1007008321264986, 53.372266512197164], [-3.100696196925144, 53.37208677343204], [-3.1003956540931754, 53.37208954510782], [-3.1004002880298245, 53.372269283890994], [-3.1007008321264986, 53.372266512197164]]]}, "properties": {"kind": "max_footprint", "threshold_pct": 4.0}}, {"type": "Feature", "geometry": {"type": "Polygon", "coordinates": [[[-3.111520386310631, 53.37216622736801], [-3.1115110249002984, 53.37180675113804], [-3.111210485135619, 53.37180955003058], [-3.1112151645509547, 53.37198928816662], [-3.1109146234712974, 53.37199208632086], [-3.110919301672263, 53.372171824469426], [-3.111520386310631, 53.37216622736801]]]}, "properties": {"kind": "max_footprint", "threshold_pct": 4.0}}, {"type": "Feature", "geometry": {"type": "Polygon", "coordinates": [[[-3.1121964097510966, 53.375036435671085], [-3.1121776737916322, 53.37431748370103], [-3.111877116421053, 53.37432028436189], [-3.111863068774734, 53.37378107026944], [-3.111562515148297, 53.37378387011902], [-3.1115531528320686, 53.37342439399225], [-3.1109520504874006, 53.37342999134879], [-3.1109380149791095, 53.372890777006326], [-3.1106374675256068, 53.37289357449508], [-3.1106234362641922, 53.372354360046366], [-3.1100223487946828, 53.37235995264503], [-3.1099989770113816, 53.371461261600416], [-3.1096984395245904, 53.37146405667395], [-3.10971245864983, 53.37200327137251], [-3.1094119173188237, 53.37200606574412], [-3.1094165891963694, 53.372185803983704], [-3.109116046550447, 53.37218859761698], [-3.109125387926816, 53.372548074115336], [-3.1094259331021514, 53.372545280445685], [-3.1094306051303886, 53.37272501866806], [-3.1097311515202195, 53.37272222422369], [-3.1097404982568855, 53.37308170061487], [-3.1100410471259603, 53.37307890537754], [-3.1100457218344295, 53.37325864354632], [-3.1103462719180115, 53.37325584753423], [-3.1103556240153054, 53.3736153238182], [-3.110656176578182, 53.37361252701314], [-3.110665531406206, 53.37397200323776], [-3.110966086448415, 53.37396920563968], [-3.110975444007284, 53.37432868180494], [-3.111276001528866, 53.37432588341384], [-3.1112853618186898, 53.374685359519724], [-3.111585921819679, 53.37468256033559], [-3.1115952848405737, 53.37504203638208], [-3.1121964097510966, 53.375036435671085]]]}, "properties": {"kind": "max_footprint", "threshold_pct": 4.0}}, {"type": "Feature", "geometry": {"type": "Polygon", "coordinates": [[[-3.1030912472975416, 53.371705095532306], [-3.103086602128385, 53.371525356894566], [-3.10218498606196, 53.371533687646334], [-3.102189627437132, 53.371713426338324], [-3.1030912472975416, 53.371705095532306]]]}, "properties": {"kind": "max_footprint", "threshold_pct": 4.0}}, {"type": "Feature", "geometry": {"type": "Polygon", "coordinates": [[[-3.1221149416085496, 53.37494358700226], [-3.1221102158019485, 53.37476384962295], [-3.1224107752471704, 53.37476102318318], [-3.122406048226523, 53.37458128581654], [-3.122706606356063, 53.374578458638574], [-3.122711334641567, 53.37475819598679], [-3.1230118939851255, 53.37475536803383], [-3.1230071644347634, 53.374575630704015], [-3.1245099540652226, 53.37456147968253], [-3.124505218241504, 53.3743817424391], [-3.1257074439700494, 53.37437040807721], [-3.125702703137952, 53.374190670901875], [-3.126904922991641, 53.37417932450864], [-3.126900177151285, 53.37399958740146], [-3.1278018377114023, 53.373991069718], [-3.1277923385950595, 53.373631595597296], [-3.128693991106879, 53.37362307121576], [-3.128684484606264, 53.37326359718312], [-3.1289850328118347, 53.37326075424652], [-3.1289755239861856, 53.37290128022795], [-3.1292760696111857, 53.37289843657182], [-3.1292713140103303, 53.37271869957243], [-3.1295718583194962, 53.37271585517833], [-3.1295671015050797, 53.372536118191704], [-3.1301681874405856, 53.37253042717094], [-3.130163428147958, 53.37235069021564], [-3.130463969774289, 53.37234784358903], [-3.130459209268168, 53.37216810664651], [-3.1307597495786545, 53.372165259281914], [-3.130745464573478, 53.371626048475555], [-3.130444928056894, 53.371628895784546], [-3.130440167755496, 53.37144915881905], [-3.1298390970980194, 53.37145485113046], [-3.129834339376988, 53.37127511412217], [-3.129233271044097, 53.37128080337055], [-3.129228515903383, 53.37110106631948], [-3.1286274498951627, 53.37110675250487], [-3.128622697334712, 53.37092701541103], [-3.1277211017329156, 53.37093553895999], [-3.1277163530172354, 53.370755801804904], [-3.1274158223124027, 53.37075864145645], [-3.127411074912322, 53.37057890427712], [-3.1268100158786454, 53.370584581273796], [-3.1268052710586716, 53.37040484405178], [-3.126204214350018, 53.370410517985604], [-3.126199472110099, 53.370230780720895], [-3.124997363139187, 53.370242119437144], [-3.124992626008294, 53.370062382092875], [-3.123189468611409, 53.37007936736269], [-3.123184739118446, 53.36989962990207], [-3.122583688774905, 53.369905285570184], [-3.1225789618617683, 53.36972554806698], [-3.120475292910745, 53.3697453189482], [-3.120470574899783, 53.36956558131055], [-3.119869528700316, 53.36957122328894], [-3.1198836752983947, 53.37011043629493], [-3.119583148329119, 53.370113256204526], [-3.1195878626986797, 53.37029299388006], [-3.1192873344141954, 53.370295813051555], [-3.1192920475699024, 53.370475550739705], [-3.118991517970209, 53.3704783691731], [-3.1190009419045173, 53.37083784456891], [-3.118700409725042, 53.37084066228251], [-3.1187051205036056, 53.371020399990165], [-3.1184045870089023, 53.37102321696562], [-3.118409296573516, 53.371202954685884], [-3.1181087617635836, 53.37120577092318], [-3.118094637015388, 53.370666557690186], [-3.1177941059485867, 53.370669373115994], [-3.1177988128827963, 53.37084911088441], [-3.117197748068251, 53.37085473950324], [-3.117202452523896, 53.371034477302544], [-3.116901918776164, 53.37103729049556], [-3.116897215585104, 53.370857552677926], [-3.1165966830513927, 53.37086036509612], [-3.116606086954892, 53.371219840762286], [-3.1160050166774527, 53.371225463402446], [-3.1160144157246745, 53.371584939118875], [-3.114511726500888, 53.371598982663464], [-3.1145164197770674, 53.37177872060452], [-3.1139153412049536, 53.37178433276334], [-3.113910650458069, 53.371604594785744], [-3.113610112361005, 53.37160739971211], [-3.1136148018432412, 53.371787137707976], [-3.113013722968575, 53.37179274532772], [-3.1130184099719056, 53.37197248335437], [-3.1127178691943147, 53.37197528604771], [-3.112722554983359, 53.372155024086865], [-3.1121214707476996, 53.37216062724048], [-3.112126154057739, 53.37234036531039], [-3.112426697465446, 53.37233756409361], [-3.1124360667660103, 53.372697040179766], [-3.1127366126527742, 53.37269423816995], [-3.1127459846842913, 53.37305371419668], [-3.1130465330501482, 53.373050911393825], [-3.1130559078127287, 53.373410387361105], [-3.1133564586577203, 53.37340758376521], [-3.1133658361514747, 53.373767059673035], [-3.1136663894756382, 53.373764255284044], [-3.1136710795629474, 53.37394399321111], [-3.1139716341014956, 53.373941188047276], [-3.1139810169570583, 53.374300663847656], [-3.1142815739748264, 53.374297857890724], [-3.114286266743122, 53.37447759576402], [-3.114887383156978, 53.374471981543834], [-3.1149014693538715, 53.375011195019695], [-3.1152020312797095, 53.37500838671986], [-3.11519263790153, 53.3746489111116], [-3.1154931972471025, 53.374646102091745], [-3.115483801541205, 53.37428662649713], [-3.1151832447253427, 53.3742894354804], [-3.115173851751142, 53.373929959826256], [-3.114572743027255, 53.37393557544991], [-3.114553967803097, 53.37321662392654], [-3.114854517131128, 53.373213816566114], [-3.1148498221864998, 53.373034078689216], [-3.114549274123224, 53.373036886031365], [-3.1145445804938134, 53.37285714813044], [-3.114244033644815, 53.37285995469776], [-3.114239341330597, 53.37268021677283], [-3.1145398869148675, 53.37267741022379], [-3.1145351933863843, 53.37249767231141], [-3.1148357376554787, 53.37249486502411], [-3.1148404324486743, 53.3726746029182], [-3.1151409779320063, 53.372671794856096], [-3.115136281874095, 53.37249205698027], [-3.1154368260422247, 53.372489248179896], [-3.115427431548489, 53.37212977244765], [-3.115126889909744, 53.37213258121143], [-3.1151221940033, 53.3719528433184], [-3.1163243551965345, 53.3719416037973], [-3.116343159360293, 53.372660555042266], [-3.116643704591036, 53.37265774319745], [-3.11664840702306, 53.37283748097604], [-3.1163478605275925, 53.37284029283916], [-3.1163525617454364, 53.37302003063031], [-3.116052013934688, 53.37302284175519], [-3.116066114097206, 53.37356205514918], [-3.11636666570225, 53.37355924396939], [-3.1163713671222824, 53.3737389817376], [-3.116671919941569, 53.37373616978294], [-3.1166766226769553, 53.373915907527106], [-3.116977176710484, 53.37391309479756], [-3.1169818807612497, 53.374092832517675], [-3.1172824360090168, 53.37409001901325], [-3.117277730693433, 53.37391028131146], [-3.118179392338688, 53.3739018363137], [-3.1181746832792894, 53.373722098661155], [-3.1184752357949965, 53.3737192821671], [-3.118470525521442, 53.37353954452716], [-3.117869422968971, 53.373545176722025], [-3.117864715275608, 53.373365439039674], [-3.118165265312384, 53.373362623338856], [-3.118151138741741, 53.37282341031237], [-3.118451684933652, 53.37282059391003], [-3.118437555024536, 53.37228138088695], [-3.1181370126267405, 53.37228419723428], [-3.118127595469864, 53.371924721820186], [-3.1184281353383168, 53.37192190550952], [-3.1184187158546464, 53.37156243010918], [-3.119019790381058, 53.3715567952917], [-3.119048064615757, 53.372635221203765], [-3.11934860939099, 53.37263240255017], [-3.1193674649530645, 53.37335135297006], [-3.11966801473656, 53.373348533486464], [-3.119672730018556, 53.37352827105874], [-3.1199732810161245, 53.37352545080024], [-3.119982714261787, 53.37388492589084], [-3.120583821163929, 53.37387928303066], [-3.1205885403924487, 53.3740590205306], [-3.1211896496212477, 53.37405337460741], [-3.1212038152002584, 53.37459258696255], [-3.1209032568167334, 53.374595410357564], [-3.1209079775130824, 53.3747751478162], [-3.1206074178139387, 53.37477797047303], [-3.120612137296167, 53.3749577079443], [-3.1221149416085496, 53.37494358700226]], [[-3.1226971499375633, 53.3742189839249], [-3.1223965943376983, 53.37422181106604], [-3.122387140652166, 53.37386233629259], [-3.1217860343592294, 53.373867988231545], [-3.1217813101222767, 53.37368825079938], [-3.121480758164403, 53.37369107561564], [-3.1214760352430235, 53.37351133815936], [-3.1211754844991475, 53.37351416220066], [-3.1211707628933123, 53.37333442472025], [-3.121471312372423, 53.37333160069736], [-3.121457144065291, 53.3727923882769], [-3.1217576896994097, 53.372789563552615], [-3.1217624136824003, 53.37296930101346], [-3.122062960530452, 53.37296647551426], [-3.1220771365784237, 53.37350568780713], [-3.1223776871699207, 53.37350286149617], [-3.122382413885633, 53.37368259889724], [-3.1226829656910873, 53.37367977181133], [-3.1226971499375633, 53.3742189839249]], [[-3.126299069856055, 53.37400526207425], [-3.1259985161319337, 53.37400809827579], [-3.125993774136987, 53.373828361107435], [-3.1262943265963115, 53.37382552492436], [-3.126299069856055, 53.37400526207425]], [[-3.1211849278631143, 53.373873637144236], [-3.1208843745388997, 53.37387646046574], [-3.1208796540963255, 53.37369672297843], [-3.121180206155747, 53.37369389967532], [-3.1211849278631143, 53.373873637144236]], [[-3.1208749337045063, 53.37351698548539], [-3.120574382859112, 53.37351980801356], [-3.12056966378281, 53.37334007049639], [-3.120870213363438, 53.37333724798659], [-3.1208749337045063, 53.37351698548539]], [[-3.1223587808152637, 53.37278391183449], [-3.122058235282739, 53.37278673807183], [-3.1220535100858275, 53.37260700062365], [-3.122354054353643, 53.372604174404714], [-3.1223587808152637, 53.37278391183449]], [[-3.114239341330597, 53.37268021677283], [-3.113938795695877, 53.372683022565326], [-3.1139294137482048, 53.37232354666173], [-3.114229956853509, 53.372320740905785], [-3.114239341330597, 53.37268021677283]], [[-3.1223493279428403, 53.37242443696921], [-3.122048784939719, 53.37242726316974], [-3.122039334799908, 53.372067788244706], [-3.1217387942753376, 53.37207061365193], [-3.121734070546289, 53.37189087616239], [-3.1214335312355876, 53.3718937007947], [-3.1214240864591196, 53.37153422576164], [-3.121123549626919, 53.37153704960066], [-3.121118828579459, 53.371357312057164], [-3.121419364147043, 53.371354488236506], [-3.121414641885737, 53.37117475070565], [-3.12171517613795, 53.371171926146914], [-3.1217246232405502, 53.37153140116613], [-3.1220251599711957, 53.37152857581411], [-3.1220346098062053, 53.37188805077357], [-3.12233514901532, 53.371885224628244], [-3.1223493279428403, 53.37242443696921]], [[-3.120522475810256, 53.3715426950092], [-3.120221938825823, 53.371545516578706], [-3.120212504369325, 53.371186041375665], [-3.1205130388245346, 53.37118321984289], [-3.120522475810256, 53.3715426950092]], [[-3.1208135732290154, 53.371180397553644], [-3.1205130388245346, 53.37118321984289], [-3.1205083204077675, 53.37100348225114], [-3.1199072539758133, 53.37100912452344], [-3.1199025381389305, 53.370829386889206], [-3.120203070115686, 53.37082656614967], [-3.120188919115583, 53.37028735326766], [-3.1204894472479716, 53.37028453182674], [-3.1204800109724307, 53.36992505658012], [-3.120780536525064, 53.36992223441952], [-3.1207852559019815, 53.37010197202731], [-3.121085782668386, 53.37009914909185], [-3.121090503360563, 53.37027888667552], [-3.1216915592701446, 53.37027323849844], [-3.121701005864923, 53.37063271357505], [-3.121400475406434, 53.37063553807861], [-3.1214051975154335, 53.37081527562669], [-3.1211046657416146, 53.37081809939215], [-3.1211093866368063, 53.37099783695289], [-3.120808853547658, 53.371000659980275], [-3.1208135732290154, 53.371180397553644]]]}, "properties": {"kind": "max_footprint", "threshold_pct": 4.0}}, {"type": "Feature", "geometry": {"type": "Polygon", "coordinates": [[[-3.1218143808476437, 53.37494641270386], [-3.121809656305915, 53.374766675306155], [-3.1221102158019485, 53.37476384962295], [-3.122096038687012, 53.37422463745061], [-3.121494927233224, 53.374230287950006], [-3.1214996503577277, 53.37441002538335], [-3.121800207374852, 53.37440720049352], [-3.121804931814986, 53.37458693790272], [-3.121504373533014, 53.37458976281093], [-3.1215138200359385, 53.374949237648856], [-3.1218143808476437, 53.37494641270386]]]}, "properties": {"kind": "max_footprint", "threshold_pct": 7.0}}, {"type": "Feature", "geometry": {"type": "Polygon", "coordinates": [[[-3.1208843745388997, 53.37387646046574], [-3.1208796540963255, 53.37369672297843], [-3.1205791019861526, 53.373699545524985], [-3.12056966378281, 53.37334007049639], [-3.1202691141514465, 53.373342892249624], [-3.1202832677382224, 53.37388210483902], [-3.1208843745388997, 53.37387646046574]]]}, "properties": {"kind": "max_footprint", "threshold_pct": 7.0}}, {"type": "Feature", "geometry": {"type": "Polygon", "coordinates": [[[-3.1202691141514465, 53.373342892249624], [-3.1202502434125496, 53.37262394205012], [-3.119949698789397, 53.372626762973326], [-3.1199685644693593, 53.37334571324634], [-3.1202691141514465, 53.373342892249624]]]}, "properties": {"kind": "max_footprint", "threshold_pct": 7.0}}, {"type": "Feature", "geometry": {"type": "Polygon", "coordinates": [[[-3.1193203275682775, 53.37155397674822], [-3.1193061873410572, 53.37101476376976], [-3.1187051205036056, 53.371020399990165], [-3.1187145422126714, 53.37137987538825], [-3.1190150781859303, 53.37137705761961], [-3.119019790381058, 53.3715567952917], [-3.1193203275682775, 53.37155397674822]]]}, "properties": {"kind": "max_footprint", "threshold_pct": 7.0}}, {"type": "Feature", "geometry": {"type": "Polygon", "coordinates": [[[-3.123908838365702, 53.37456714236086], [-3.1239041050716647, 53.37438740508057], [-3.124505218241504, 53.3743817424391], [-3.1245004824687044, 53.37420200518995], [-3.124801037712429, 53.374199172752796], [-3.1247963007257344, 53.37401943551635], [-3.125096854653716, 53.37401660234106], [-3.1251015929052204, 53.37419633955907], [-3.1254021480470655, 53.374193505608744], [-3.12539740853075, 53.3740137684092], [-3.1259985161319337, 53.37400809827579], [-3.125993774136987, 53.373828361107435], [-3.1262943265963115, 53.37382552492436], [-3.126289583387568, 53.37364578776872], [-3.1268906856236516, 53.373640113169806], [-3.126900177151285, 53.37399958740146], [-3.127200730722369, 53.373996748930196], [-3.127195983668247, 53.373817011835726], [-3.1274965359234987, 53.37381417262641], [-3.127491787655637, 53.37363443554468], [-3.1283934403206928, 53.37362591343282], [-3.128388688309595, 53.37344617640087], [-3.128689237831018, 53.37344333420231], [-3.128684484606264, 53.37326359718312], [-3.1289850328118347, 53.37326075424652], [-3.1289755239861856, 53.37290128022795], [-3.1292760696111857, 53.37289843657182], [-3.1292713140103303, 53.37271869957243], [-3.1295718583194962, 53.37271585517833], [-3.1295671015050797, 53.372536118191704], [-3.1301681874405856, 53.37253042717094], [-3.130163428147958, 53.37235069021564], [-3.130463969774289, 53.37234784358903], [-3.130459209268168, 53.37216810664651], [-3.1307597495786545, 53.372165259281914], [-3.130750226190676, 53.37180578541675], [-3.1304496884094712, 53.37180863274426], [-3.130444928056894, 53.371628895784546], [-3.1301443914891296, 53.37163174233702], [-3.1301396324523396, 53.37145200535301], [-3.1298390970980194, 53.37145485113046], [-3.129834339376988, 53.37127511412217], [-3.129233271044097, 53.37128080337055], [-3.129228515903383, 53.37110106631948], [-3.1286274498951627, 53.37110675250487], [-3.128622697334712, 53.37092701541103], [-3.1274205697635225, 53.37093837863002], [-3.127411074912322, 53.37057890427712], [-3.126208956640922, 53.370590255244586], [-3.126204214350018, 53.370410517985604], [-3.125302628904691, 53.37041902321286], [-3.1252978904583433, 53.37023928589278], [-3.1240957808761993, 53.37025061553145], [-3.124091047538845, 53.370070878131855], [-3.1225884157388606, 53.37008502306761], [-3.1225931427536358, 53.370264760559316], [-3.1234947257797443, 53.37025627581198], [-3.123504187548979, 53.37061575066769], [-3.1238047176517147, 53.370612920868794], [-3.1238094498771827, 53.37079265826961], [-3.1241099811935973, 53.37078982769581], [-3.124114714734511, 53.37096956507246], [-3.1238141821535264, 53.370972395664694], [-3.1238189144807484, 53.37115213305402], [-3.1241194483263155, 53.37114930244336], [-3.1241289156626006, 53.37150877716795], [-3.124429451986478, 53.37150594576392], [-3.124438922055596, 53.371865420428676], [-3.1247394608578243, 53.371862588231274], [-3.124767879875101, 53.37294101197714], [-3.124467333484777, 53.37294384428519], [-3.124481539886682, 53.37348305613597], [-3.1238804393648367, 53.37348871859307], [-3.123875706376138, 53.37330898127836], [-3.123575157303636, 53.373311811353666], [-3.12357042563057, 53.37313207401475], [-3.1232698777719428, 53.37313490331508], [-3.1232604171078835, 53.37277542858325], [-3.1235609624370584, 53.37277259931977], [-3.1235514994470313, 53.37241312460182], [-3.123852042195937, 53.37241029461864], [-3.1238425768800484, 53.372050819914605], [-3.123241496390052, 53.37205647905069], [-3.12323203633627, 53.37169700424998], [-3.1229314985442733, 53.371699832646435], [-3.122917312638833, 53.37116062034706], [-3.1226167785898356, 53.37116344793176], [-3.12261205132095, 53.37098371046875], [-3.1223115184857146, 53.37098653727856], [-3.1223020666295445, 53.3706270622985], [-3.1220015362726308, 53.37062988831502], [-3.122029884863301, 53.37170831329672], [-3.122330422807776, 53.3717054871698], [-3.1223398752736795, 53.37206496208097], [-3.1226404156966354, 53.37206213516074], [-3.122659326296972, 53.37278108484061], [-3.1223587808152637, 53.37278391183449], [-3.1223776871699207, 53.37350286149617], [-3.1229787882004425, 53.373497206604604], [-3.122974059006025, 53.373317469234614], [-3.123274608180261, 53.373314640672405], [-3.1232982609847686, 53.37421332737287], [-3.1235988164320827, 53.37421049796199], [-3.1236082804395964, 53.374569972565155], [-3.123908838365702, 53.37456714236086]]]}, "properties": {"kind": "max_footprint", "threshold_pct": 7.0}}, {"type": "Feature", "geometry": {"type": "Polygon", "coordinates": [[[-3.124495746746824, 53.37402226793506], [-3.1244910110758592, 53.373842530674445], [-3.124190458310831, 53.37384536231816], [-3.124185723955569, 53.37366562503335], [-3.123885172404423, 53.37366845590206], [-3.123894638636264, 53.3740279305028], [-3.124495746746824, 53.37402226793506]]]}, "properties": {"kind": "max_footprint", "threshold_pct": 10.0}}, {"type": "Feature", "geometry": {"type": "Polygon", "coordinates": [[[-3.1232651474144832, 53.37295516595206], [-3.1232556868521404, 53.37259569120874], [-3.123556230916611, 53.37259286196366], [-3.1235467680283233, 53.37223338723422], [-3.123246226493225, 53.37223621644245], [-3.1232367663377327, 53.37187674165319], [-3.122936227281099, 53.37187957006807], [-3.122926769858288, 53.37152009521904], [-3.1226262332800787, 53.371522922840576], [-3.1226404156966354, 53.37206213516074], [-3.122940956068765, 53.37205930748398], [-3.122964600769729, 53.37295799447739], [-3.1232651474144832, 53.37295516595206]]]}, "properties": {"kind": "max_footprint", "threshold_pct": 10.0}}, {"type": "Feature", "geometry": {"type": "Polygon", "coordinates": [[[-3.1256979623568277, 53.37401093372078], [-3.1256932216266753, 53.37383119653397], [-3.1262943265963115, 53.37382552492436], [-3.126289583387568, 53.37364578776872], [-3.1271912366651637, 53.373637274735515], [-3.127186489713119, 53.373457537629584], [-3.127487039438828, 53.37345469845724], [-3.12748229127307, 53.37327496136404], [-3.127782839682978, 53.373272121453624], [-3.1277875891134865, 53.37345185852833], [-3.128689237831018, 53.37344333420231], [-3.128684484606264, 53.37326359718312], [-3.1289850328118347, 53.37326075424652], [-3.128970769650037, 53.372721543210034], [-3.1295718583194962, 53.37271585517833], [-3.1295671015050797, 53.372536118191704], [-3.12986764449841, 53.37253327305958], [-3.129862886470459, 53.372353536085754], [-3.130463969774289, 53.37234784358903], [-3.130459209268168, 53.37216810664651], [-3.1307597495786545, 53.372165259281914], [-3.130750226190676, 53.37180578541675], [-3.1304496884094712, 53.37180863274426], [-3.130444928056894, 53.371628895784546], [-3.1301443914891296, 53.37163174233702], [-3.1301396324523396, 53.37145200535301], [-3.1298390970980194, 53.37145485113046], [-3.129834339376988, 53.37127511412217], [-3.129233271044097, 53.37128080337055], [-3.129228515903383, 53.37110106631948], [-3.128326916814405, 53.37110959446285], [-3.128322165518523, 53.370929857350504], [-3.1274205697635225, 53.37093837863002], [-3.127411074912322, 53.37057890427712], [-3.1259084269455757, 53.37059309109529], [-3.1259036859192086, 53.37041335381783], [-3.1250021003210113, 53.37042185677568], [-3.1250163121720616, 53.37096106875687], [-3.1253168445493986, 53.370958235138694], [-3.1253263219005976, 53.37131770972723], [-3.125025786994087, 53.371320543382275], [-3.125021049557609, 53.371140806072454], [-3.1244199821209904, 53.371146471076216], [-3.1244341869955834, 53.37168568309918], [-3.1247347245331762, 53.3716828509202], [-3.1247394608578243, 53.371862588231274], [-3.1250399996091303, 53.371859755277356], [-3.1250684262145008, 53.37293817891255], [-3.125368972502959, 53.372935345091406], [-3.125378450975067, 53.37329481955363], [-3.1250779021571367, 53.37329765341167], [-3.125082640204867, 53.37347739065263], [-3.1247820900712386, 53.373480223772575], [-3.124786826905141, 53.37365996102623], [-3.124486275455813, 53.373662793408066], [-3.1244910110758592, 53.373842530674445], [-3.1253926690653935, 53.37383403120391], [-3.12539740853075, 53.3740137684092], [-3.1256979623568277, 53.37401093372078]], [[-3.12657115714712, 53.37292400224149], [-3.126270611062557, 53.37292683908877], [-3.1262611252060215, 53.37256736471436], [-3.126561668761173, 53.37256452790401], [-3.12657115714712, 53.37292400224149]], [[-3.1265474365648016, 53.372025316354744], [-3.126246896803665, 53.37202815310966], [-3.126242154104862, 53.37184841589662], [-3.1265426926013533, 53.37184557916018], [-3.1265474365648016, 53.372025316354744]], [[-3.1259321328419927, 53.37149177739632], [-3.125631596772787, 53.37149461258284], [-3.1256268567561603, 53.37131487531565], [-3.1259273915607624, 53.3713120401476], [-3.1259321328419927, 53.37149177739632]]]}, "properties": {"kind": "max_footprint", "threshold_pct": 10.0}}]}