{"type": "FeatureCollection", "features": [{"type": "Feature", "geometry": {"type": "Polygon", "coordinates": [[[-3.108564572772294, 53.3856773310671], [-3.1085599021883246, 53.38549759318465], [-3.10825926571691, 53.385500385136886], [-3.1082639350351693, 53.38568012303753], [-3.108564572772294, 53.3856773310671]]]}, "properties": {"kind": "max_footprint", "threshold_pct": 4.0}}, {"type": "Feature", "geometry": {"type": "Polygon", "coordinates": [[[-3.10825926571691, 53.385500385136886], [-3.1082545964488633, 53.38532064723051], [-3.10795396119293, 53.385323438407674], [-3.1079586291952794, 53.385503176332236], [-3.10825926571691, 53.385500385136886]]]}, "properties": {"kind": "max_footprint", "threshold_pct": 4.0}}, {"type": "Feature", "geometry": {"type": "Polygon", "coordinates": [[[-3.1079492932407815, 53.38514370047737], [-3.107944625338834, 53.38496396254135], [-3.1076439925640496, 53.384966752925315], [-3.1076486592003283, 53.385146490879485], [-3.1079492932407815, 53.38514370047737]]]}, "properties": {"kind": "max_footprint", "threshold_pct": 4.0}}, {"type": "Feature", "geometry": {"type": "Polygon", "coordinates": [[[-3.1076393259779587, 53.38478701496539], [-3.1076299929563294, 53.38442753902832], [-3.107329363928288, 53.38443032860089], [-3.1073386944186447, 53.38478980457428], [-3.1076393259779587, 53.38478701496539]]]}, "properties": {"kind": "max_footprint", "threshold_pct": 4.0}}, {"type": "Feature", "geometry": {"type": "Polygon", "coordinates": [[[-3.112745366745086, 53.38455973815648], [-3.1127406787437777, 53.38438000049469], [-3.112440050570713, 53.38438280293391], [-3.112444737306406, 53.38456254061397], [-3.112745366745086, 53.38455973815648]]]}, "properties": {"kind": "max_footprint", "threshold_pct": 4.0}}, {"type": "Feature", "geometry": {"type": "Polygon", "coordinates": [[[-3.115150400438417, 53.38453729124957], [-3.115136306211333, 53.38399807868551], [-3.1148356809731528, 53.38400088714303], [-3.114826287605505, 53.383641412035075], [-3.114225042039891, 53.38364702660645], [-3.1142297361673443, 53.38382676419984], [-3.114530360240955, 53.3838239572743], [-3.1145397511784667, 53.384183432407355], [-3.11484037773274, 53.3841806246884], [-3.1148497714034447, 53.38454009976195], [-3.115150400438417, 53.38453729124957]]]}, "properties": {"kind": "max_footprint", "threshold_pct": 4.0}}, {"type": "Feature", "geometry": {"type": "Polygon", "coordinates": [[[-3.1166347273416317, 53.38380428760387], [-3.116625318888424, 53.3834448127041], [-3.116324697699652, 53.3834476248909], [-3.1163341036217687, 53.38380709982732], [-3.1166347273416317, 53.38380428760387]]]}, "properties": {"kind": "max_footprint", "threshold_pct": 4.0}}, {"type": "Feature", "geometry": {"type": "Polygon", "coordinates": [[[-3.114225042039891, 53.38364702660645], [-3.1142203479629154, 53.38346728900731], [-3.113919726369927, 53.38347009513946], [-3.1139244191813553, 53.383649832756866], [-3.114225042039891, 53.38364702660645]]]}, "properties": {"kind": "max_footprint", "threshold_pct": 4.0}}, {"type": "Feature", "geometry": {"type": "Polygon", "coordinates": [[[-3.114821590997442, 53.3834616744725], [-3.1148121979328365, 53.38310219933014], [-3.1142109599604053, 53.38310781379182], [-3.1142156539364207, 53.383287551402425], [-3.114516274213399, 53.38328474453173], [-3.1145209695054255, 53.38346448211833], [-3.114821590997442, 53.3834616744725]]]}, "properties": {"kind": "max_footprint", "threshold_pct": 4.0}}, {"type": "Feature", "geometry": {"type": "Polygon", "coordinates": [[[-3.1151128168433004, 53.383099390964055], [-3.1151081191212544, 53.382919653402574], [-3.114807501476293, 53.38292246175036], [-3.1148121979328365, 53.38310219933014], [-3.1151128168433004, 53.383099390964055]]]}, "properties": {"kind": "max_footprint", "threshold_pct": 4.0}}, {"type": "Feature", "geometry": {"type": "Polygon", "coordinates": [[[-3.113304412494185, 53.382936492137006], [-3.1132997224155994, 53.38275675446012], [-3.1129991057333073, 53.38275955824872], [-3.1130037945464006, 53.38293929594387], [-3.113304412494185, 53.382936492137006]]]}, "properties": {"kind": "max_footprint", "threshold_pct": 4.0}}, {"type": "Feature", "geometry": {"type": "Polygon", "coordinates": [[[-3.116315291979834, 53.383088149931524], [-3.116310589195785, 53.38290841244326], [-3.116009971752978, 53.38291122381831], [-3.1160052702849876, 53.382731486305985], [-3.115704654057107, 53.382734296905916], [-3.115699953905148, 53.382554559369545], [-3.1150987238287158, 53.3825601782624], [-3.1151081191212544, 53.382919653402574], [-3.1157093542596104, 53.38291403443654], [-3.11571405451266, 53.38309377196145], [-3.116315291979834, 53.383088149931524]]]}, "properties": {"kind": "max_footprint", "threshold_pct": 4.0}}, {"type": "Feature", "geometry": {"type": "Polygon", "coordinates": [[[-3.1129991057333073, 53.38275955824872], [-3.11298972825839, 53.38240008284125], [-3.112689114056621, 53.38240288583654], [-3.1126984890005938, 53.382762361280534], [-3.1129991057333073, 53.38275955824872]]]}, "properties": {"kind": "max_footprint", "threshold_pct": 4.0}}, {"type": "Feature", "geometry": {"type": "Polygon", "coordinates": [[[-3.1183725073758977, 53.381271075128936], [-3.1183630851548023, 53.380911600288506], [-3.1180624819858274, 53.3809144167595], [-3.118053062498018, 53.38055494185945], [-3.117752461809047, 53.38055775753702], [-3.1177336285022963, 53.37983880759471], [-3.1174330328238344, 53.379841622442214], [-3.1174565682573894, 53.38074030994743], [-3.11775717026231, 53.38073749500827], [-3.117766587320734, 53.38109696993352], [-3.1180671918056997, 53.38109415420094], [-3.118071901676221, 53.38127389163664], [-3.1183725073758977, 53.381271075128936]]]}, "properties": {"kind": "max_footprint", "threshold_pct": 4.0}}, {"type": "Feature", "geometry": {"type": "Polygon", "coordinates": [[[-3.113750818763173, 53.37699953709369], [-3.113746127818501, 53.37681979926412], [-3.1134455529906875, 53.376822603963575], [-3.1134502426703183, 53.37700234181142], [-3.113750818763173, 53.37699953709369]]]}, "properties": {"kind": "max_footprint", "threshold_pct": 4.0}}, {"type": "Feature", "geometry": {"type": "Polygon", "coordinates": [[[-3.1194193219302906, 53.37532846615143], [-3.1194146074061915, 53.37514872861818], [-3.119114044923693, 53.375151547528745], [-3.119118758182886, 53.37533128508037], [-3.1194193219302906, 53.37532846615143]]]}, "properties": {"kind": "max_footprint", "threshold_pct": 4.0}}, {"type": "Feature", "geometry": {"type": "Polygon", "coordinates": [[[-3.1197057384121, 53.374786433903985], [-3.119696307189013, 53.374426958834015], [-3.119395749816693, 53.374429778427775], [-3.119405178510064, 53.374789253534445], [-3.1197057384121, 53.374786433903985]]]}, "properties": {"kind": "max_footprint", "threshold_pct": 4.0}}, {"type": "Feature", "geometry": {"type": "Polygon", "coordinates": [[[-3.122391867469522, 53.374042073682176], [-3.122387140652166, 53.37386233629259], [-3.1217860343592294, 53.373867988231545], [-3.1217907586469744, 53.37404772565794], [-3.122391867469522, 53.374042073682176]]]}, "properties": {"kind": "max_footprint", "threshold_pct": 4.0}}, {"type": "Feature", "geometry": {"type": "Polygon", "coordinates": [[[-3.12382364685885, 53.371331870437615], [-3.1238141821535264, 53.370972395664694], [-3.1235136495216653, 53.370975225500416], [-3.123523111697807, 53.3713347003102], [-3.12382364685885, 53.371331870437615]]]}, "properties": {"kind": "max_footprint", "threshold_pct": 4.0}}, {"type": "Feature", "geometry": {"type": "Polygon", "coordinates": [[[-3.1237999854771252, 53.37043318346225], [-3.1237952533534097, 53.37025344604995], [-3.123194198155218, 53.370259104817556], [-3.123198927749874, 53.3704388422667], [-3.1237999854771252, 53.37043318346225]]]}, "properties": {"kind": "max_footprint", "threshold_pct": 4.0}}, {"type": "Feature", "geometry": {"type": "Polygon", "coordinates": [[[-3.1231658216550486, 53.3691806800022], [-3.1231563632284134, 53.368821205017845], [-3.1225553280583416, 53.368826860464985], [-3.122564781427263, 53.36918633552299], [-3.1231658216550486, 53.3691806800022]]]}, "properties": {"kind": "max_footprint", "threshold_pct": 4.0}}, {"type": "Feature", "geometry": {"type": "Polygon", "coordinates": [[[-3.1181284240731877, 53.383430740417545], [-3.1181237135948456, 53.38325100305067], [-3.118424333214363, 53.383248186341206], [-3.1184196215211712, 53.383068448986954], [-3.1190208580771692, 53.383062813334284], [-3.1190067157087227, 53.38252360134719], [-3.1193073301142507, 53.38252078244069], [-3.1193120454518364, 53.38270051975709], [-3.120213892160509, 53.38269205844165], [-3.120209173026533, 53.38251232118034], [-3.1208104013810054, 53.382506676556105], [-3.120800958203532, 53.38214720208981], [-3.120500346582559, 53.38215002474355], [-3.1204956263354044, 53.38197028748342], [-3.121698067452925, 53.381958992401174], [-3.121688616987701, 53.38159951801081], [-3.122590439699967, 53.38159103886328], [-3.122585710747446, 53.381411301714714], [-3.122886316951139, 53.38140847383708], [-3.1228815867841107, 53.38122873670119], [-3.1234827965081653, 53.38122307871242], [-3.1234780638613087, 53.38104334160762], [-3.1237786673816594, 53.381040511496515], [-3.123769199709971, 53.380681037306566], [-3.124370401536649, 53.38067537488784], [-3.124360929007391, 53.380315900748684], [-3.12466152731375, 53.3803130684411], [-3.1246567898602406, 53.380133331381344], [-3.124957386850382, 53.38013049833545], [-3.124947909565681, 53.37977102423565], [-3.1252485039743627, 53.379768190469925], [-3.1252437641432125, 53.379588453429875], [-3.125544357235692, 53.37958561892588], [-3.1255396161902906, 53.37940588189854], [-3.1258402079665717, 53.3794030466563], [-3.1258354657069476, 53.379223309641695], [-3.1261360561670313, 53.37922047366119], [-3.1261313126932095, 53.3790407366593], [-3.126732490929969, 53.37903506246515], [-3.126727744976803, 53.37885532549447], [-3.1270283327534654, 53.37885248728082], [-3.1270235855861728, 53.37867275032287], [-3.1273241720466305, 53.37866991137101], [-3.1273194236652357, 53.37849017442581], [-3.127920593902672, 53.378484494289005], [-3.1279110922325604, 53.378125020455364], [-3.1285122572051627, 53.37811933736581], [-3.1285075039165275, 53.3779396004774], [-3.1288080850610682, 53.3779367578161], [-3.128798576106967, 53.37757728405907], [-3.1290991546702234, 53.377574440678146], [-3.1290943990047966, 53.37739470380953], [-3.129394976251857, 53.37739185969046], [-3.129390219372521, 53.37721212283462], [-3.1296907953033886, 53.377209277977435], [-3.1296812791681115, 53.37684980428558], [-3.129981852517768, 53.376846958708796], [-3.1299770932618665, 53.376667221872786], [-3.130277665295348, 53.37666437555787], [-3.130268144407099, 53.376304901905684], [-3.1305687138594323, 53.376302054871246], [-3.130563952227125, 53.37612231805508], [-3.130864520363298, 53.37611947028255], [-3.1308597575172423, 53.375939733479186], [-3.131160324337258, 53.37593688496857], [-3.131155560277482, 53.37575714817802], [-3.13145612578134, 53.37575429892936], [-3.131451360507869, 53.37557456215161], [-3.131751924695575, 53.37557171216489], [-3.131737625387907, 53.375032501852864], [-3.1314370649948717, 53.37503535178389], [-3.1314322999263426, 53.374855614983176], [-3.1317328590545146, 53.3748527650707], [-3.1317233265414712, 53.37449329148913], [-3.131422769942983, 53.3744961413645], [-3.1313941812224577, 53.37341772037066], [-3.1316947302322165, 53.37341487060664], [-3.1316613702028864, 53.37215671264904], [-3.1319619103085103, 53.37215386225838], [-3.13195714353034, 53.37197412540286], [-3.1316566046893617, 53.37197697577496], [-3.131637543147608, 53.3712580282213], [-3.13133700931384, 53.37126087776266], [-3.1313274813795022, 53.37090140391426], [-3.1310269500236587, 53.37090425266202], [-3.1310221873978668, 53.37072451571067], [-3.1307216572553713, 53.37072736368342], [-3.1307168959453207, 53.37054762670777], [-3.1304163670161755, 53.37055047390551], [-3.130411607021839, 53.37037073690556], [-3.1301110793060443, 53.37037358332831], [-3.1301015619999055, 53.37001410927414], [-3.129801036761963, 53.37001695490337], [-3.1297962794501184, 53.369837217849124], [-3.1294957554255163, 53.36984006270337], [-3.1294862434841977, 53.36948058854064], [-3.1291857219373984, 53.36948343260138], [-3.1291809673078803, 53.36930369549288], [-3.128579926589843, 53.36930938130806], [-3.128584678690464, 53.36948911845357], [-3.1282841569903574, 53.369491960245], [-3.128288907877606, 53.3696716974033], [-3.1279883848619585, 53.36967453845678], [-3.127983635239173, 53.36949480128], [-3.127683113436929, 53.369497641558546], [-3.1276783651296576, 53.36931790435754], [-3.127377844540815, 53.36932074386114], [-3.127373097549027, 53.36914100663589], [-3.12707257817359, 53.369143845364604], [-3.1270678324972607, 53.36896410811512], [-3.126767314335229, 53.368966946068916], [-3.12676256997433, 53.36878720879521], [-3.126462053025707, 53.3687900459741], [-3.126457309980213, 53.36861030867619], [-3.126156794244996, 53.3686131450802], [-3.1261520525148803, 53.36843340775807], [-3.125851537993074, 53.36843624338718], [-3.1258467975783053, 53.36825650604085], [-3.124945257500294, 53.36826500833433], [-3.12494052092957, 53.368085270926905], [-3.1246400087327357, 53.36808810349348], [-3.1246447440390956, 53.368267840919344], [-3.1237432033501116, 53.36827633413591], [-3.1237479349142454, 53.368456071611334], [-3.12344741998512, 53.36845890118912], [-3.123456880737191, 53.36881837615962], [-3.1246589502636213, 53.36880705316252], [-3.1246636857736165, 53.36898679056541], [-3.1249642042924006, 53.368983957906636], [-3.1249689411177344, 53.36916369528536], [-3.1237668616794605, 53.36917502145566], [-3.1237715934979393, 53.369354758902396], [-3.1234710722467143, 53.3693575885723], [-3.1234663416926836, 53.36917785110716], [-3.1231658216550486, 53.3691806800022], [-3.1231705509446313, 53.36936041748578], [-3.1222689867333737, 53.36936889968756], [-3.1222784378782533, 53.36972837474794], [-3.1225789618617683, 53.36972554806698], [-3.1225884157388606, 53.37008502306761], [-3.122888942200552, 53.37008219559339], [-3.122879485794465, 53.369722720629575], [-3.1234805335073483, 53.369717063485396], [-3.123475802851602, 53.369537326031725], [-3.124076847832103, 53.3695316658986], [-3.1240815810167972, 53.36971140331542], [-3.1237810572875087, 53.369714233778645], [-3.123790521280568, 53.370073708631914], [-3.124091047538845, 53.370070878131855], [-3.1241005142644425, 53.3704303529253], [-3.1237999854771252, 53.37043318346225], [-3.1238047176517147, 53.370612920868794], [-3.1241052477035756, 53.37061009031342], [-3.1241099811935973, 53.37078982769581], [-3.124410512459123, 53.37078699636553], [-3.1244199821209904, 53.371146471076216], [-3.125021049557609, 53.371140806072454], [-3.1250163121720616, 53.37096106875687], [-3.1253168445493986, 53.370958235138694], [-3.1253215831995256, 53.37113797243582], [-3.125622116790496, 53.37113513804272], [-3.1256268567561603, 53.37131487531565], [-3.1265284610170303, 53.37130636754201], [-3.1265426926013533, 53.37184557916018], [-3.126843231046842, 53.371842741667216], [-3.126862212265318, 53.372561690337136], [-3.126561668761173, 53.37256452790401], [-3.1265664129286423, 53.37274426507562], [-3.126265868108793, 53.37274710190443], [-3.126270611062557, 53.37292683908877], [-3.1259700649270012, 53.37292967517953], [-3.1259795484580475, 53.37328914956791], [-3.1256789997420413, 53.37329198493905], [-3.125683740319283, 53.37347172214309], [-3.125383190287553, 53.37347455677614], [-3.1253926690653935, 53.37383403120391], [-3.1250921164531555, 53.373836865117326], [-3.125096854653716, 53.37401660234106], [-3.1247963007257344, 53.37401943551635], [-3.124801037712429, 53.374199172752796], [-3.1235988164320827, 53.37421049796199], [-3.1235940845046417, 53.37403076065182], [-3.122692421804569, 53.374039246559434], [-3.1226971499375633, 53.3742189839249], [-3.121494927233224, 53.374230287950006], [-3.1214996503577277, 53.37441002538335], [-3.1221007643411807, 53.37440437484711], [-3.1221149416085496, 53.37494358700226], [-3.1224155023186437, 53.37494076054407], [-3.1224344111128044, 53.375659709930304], [-3.122734976831694, 53.37565688264188], [-3.122744434063637, 53.376016357263744], [-3.1230450022615748, 53.376013529181876], [-3.1230544622268384, 53.37637300374396], [-3.123355032903863, 53.37637017486862], [-3.123359764227775, 53.37654991212261], [-3.1230591922857585, 53.376552741016376], [-3.1230733827676787, 53.37709195279924], [-3.123373958504755, 53.3770891238502], [-3.123397616650572, 53.37798780994808], [-3.123698198662138, 53.37798498015025], [-3.123721864405641, 53.37888366601252], [-3.1234212760683695, 53.378886495902464], [-3.123426008104574, 53.37906623307611], [-3.123125418451238, 53.3790690622278], [-3.123139611069528, 53.37960827376959], [-3.122538424018994, 53.37961392991333], [-3.1225336956258087, 53.37943419270163], [-3.1222331032894917, 53.379437019619985], [-3.1222378304174523, 53.3796167568501], [-3.1219372367650795, 53.37961958303015], [-3.1219419626786316, 53.37979932027292], [-3.122242557596244, 53.379796494074476], [-3.122256739437614, 53.38033570571315], [-3.121956140724199, 53.38033853196682], [-3.1219608668410297, 53.380518269186645], [-3.1216602668115, 53.38052109470197], [-3.121664991713843, 53.38070083193446], [-3.1213643903681954, 53.380703656711425], [-3.1213596667311627, 53.38052391946055], [-3.1210590666000297, 53.380526743462376], [-3.121044899789541, 53.37998753162014], [-3.120744303403479, 53.37999035481006], [-3.1207348616475463, 53.379630880183115], [-3.1204342677412216, 53.37963370257955], [-3.120443706966653, 53.379993177243264], [-3.1201431104790753, 53.379995998919725], [-3.1201619844777926, 53.380714948251764], [-3.119861382878308, 53.38071776924498], [-3.1198708176514387, 53.38107724391334], [-3.120171421781593, 53.38107442288341], [-3.120185578117859, 53.38161363478776], [-3.119584362214617, 53.38161927620112], [-3.1195890785640716, 53.38179901352785], [-3.119288469270972, 53.381801833117706], [-3.1192931844057337, 53.38198157045705], [-3.1186919631366146, 53.381987207403135], [-3.1186966757912318, 53.38216694477345], [-3.118095451788551, 53.382172578729055], [-3.1181095824637572, 53.382711790915685], [-3.1172077346907905, 53.3827202363381], [-3.1172124412207194, 53.38289997377718], [-3.11691182392967, 53.38290278742267], [-3.1169165292447145, 53.38308252487435], [-3.116615910637569, 53.38308533778134], [-3.1166206147377014, 53.383265075245575], [-3.1178230939246734, 53.3832538190033], [-3.117827803137493, 53.38343355638851], [-3.1181284240731877, 53.383430740417545]]]}, "properties": {"kind": "max_footprint", "threshold_pct": 4.0}}, {"type": "Feature", "geometry": {"type": "Polygon", "coordinates": [[[-3.1246567898602406, 53.380133331381344], [-3.1246473151060483, 53.37977385724464], [-3.124947909565681, 53.37977102423565], [-3.1249431709997637, 53.379591287177135], [-3.1252437641432125, 53.379588453429875], [-3.1252390243630304, 53.37940871638408], [-3.1255396161902906, 53.37940588189854], [-3.12553487519587, 53.37922614486547], [-3.1258354657069476, 53.379223309641695], [-3.1258212392340274, 53.37868409856339], [-3.1261218258985846, 53.37868126263832], [-3.1261170825777778, 53.3785015256192], [-3.126417667926182, 53.378498688955865], [-3.1264081789073255, 53.37813921493738], [-3.126708761674459, 53.37813637755434], [-3.1266992703294663, 53.37777690354984], [-3.126999850515372, 53.37777406544707], [-3.12699510365434, 53.377594328454684], [-3.1272956825241254, 53.37759148961374], [-3.12729093444907, 53.37741175263412], [-3.1278920895053375, 53.37740607271921], [-3.1279015907667844, 53.37776554659877], [-3.1282021707484406, 53.37776270546932], [-3.1281926669568567, 53.37740323162677], [-3.1284932443572835, 53.37740038977769], [-3.128483738239996, 53.37704091594919], [-3.128183163369652, 53.37704375776128], [-3.1281784116526894, 53.37686402081988], [-3.128478985258012, 53.376861179026314], [-3.128474232327136, 53.376681442097706], [-3.1287748046163455, 53.376678599565984], [-3.1287700504715805, 53.376498862650145], [-3.12907062144468, 53.376496019380305], [-3.1290753768544364, 53.37667575627765], [-3.129676521177212, 53.37667006743103], [-3.1296574897252074, 53.37595111995545], [-3.1308597575172423, 53.375939733479186], [-3.130854994722397, 53.37575999667007], [-3.131155560277482, 53.37575714817802], [-3.131150796268928, 53.37557741138172], [-3.131451360507869, 53.37557456215161], [-3.1314370649948717, 53.37503535178389], [-3.1311365045506028, 53.37503820095834], [-3.131131740746937, 53.37485846413908], [-3.1314322999263426, 53.374855614983176], [-3.1313894166150047, 53.37323798351824], [-3.131689964360022, 53.373235133772766], [-3.131637543147608, 53.3712580282213], [-3.13133700931384, 53.37126087776266], [-3.1313274813795022, 53.37090140391426], [-3.1310269500236587, 53.37090425266202], [-3.1310221873978668, 53.37072451571067], [-3.1307216572553713, 53.37072736368342], [-3.1307168959453207, 53.37054762670777], [-3.1304163670161755, 53.37055047390551], [-3.130411607021839, 53.37037073690556], [-3.1301110793060443, 53.37037358332831], [-3.1301063206273936, 53.3701938463041], [-3.129805794124951, 53.37019669195184], [-3.1297962794501184, 53.369837217849124], [-3.1288947072229316, 53.36984575014252], [-3.1289042143107983, 53.37020522435633], [-3.1283031608458116, 53.370210908843674], [-3.1282984098053332, 53.37003117170264], [-3.12799788426072, 53.37003401279313], [-3.127993134535807, 53.36985427562784], [-3.127692610204621, 53.36985711594337], [-3.127683113436929, 53.369497641558546], [-3.1273825915836357, 53.36950048108066], [-3.127377844540815, 53.36932074386114], [-3.127077323900939, 53.369323582608324], [-3.12707257817359, 53.369143845364604], [-3.126772058747133, 53.369146683336865], [-3.126767314335229, 53.368966946068916], [-3.12526472276026, 53.3689811244914], [-3.125269460850025, 53.36916086185169], [-3.1249689411177344, 53.36916369528536], [-3.1249736779939927, 53.369343432658326], [-3.124372635847763, 53.369349097293245], [-3.124391573746233, 53.37006804687531], [-3.124992626008294, 53.370062382092875], [-3.124997363139187, 53.370242119437144], [-3.1255984177265557, 53.370236451591936], [-3.125603157437429, 53.3704161888936], [-3.1259036859192086, 53.37041335381783], [-3.1259084269455757, 53.37059309109529], [-3.126208956640922, 53.370590255244586], [-3.126223183819543, 53.37112946698705], [-3.126523717257593, 53.37112663032448], [-3.1265332048274685, 53.37148610475381], [-3.1268337407437103, 53.37148326729779], [-3.126847976274933, 53.37202247884331], [-3.1271485159340466, 53.37201964057535], [-3.127158009072611, 53.37237911487337], [-3.127458551210019, 53.37237627581193], [-3.127463299120533, 53.37255601293384], [-3.1271627557184414, 53.37255885201375], [-3.127167502415307, 53.372738589148405], [-3.1268669576974846, 53.37274142749028], [-3.126871703180674, 53.37292116463768], [-3.12657115714712, 53.37292400224149], [-3.126575901416605, 53.37310373940161], [-3.1262753540673165, 53.373106576267354], [-3.126308556528537, 53.37436473635681], [-3.126008000274787, 53.374367572595304], [-3.126003258177867, 53.37418783543843], [-3.1254021480470655, 53.374193505608744], [-3.1254163669017654, 53.37473271717295], [-3.12451468993986, 53.37474121692019], [-3.124524161841897, 53.37510069137831], [-3.124223600222989, 53.3751035231511], [-3.12423306979891, 53.37546299762314], [-3.124533633947621, 53.37546016581348], [-3.1245525787701536, 53.37617911461493], [-3.1242520095616766, 53.37618194649834], [-3.124275685410673, 53.37708063246324], [-3.1245762609441656, 53.37707780048759], [-3.1245952076001067, 53.3777967490824], [-3.1242946270063583, 53.37779958113181], [-3.124304098109714, 53.378159055431674], [-3.1246046812336727, 53.37815622334538], [-3.124633103356814, 53.37923464599655], [-3.1243325126419013, 53.379237478193495], [-3.124337248575499, 53.37941721530037], [-3.1240366565444524, 53.37942004675903], [-3.1240461260339702, 53.37977952099247], [-3.1237455314215543, 53.37978235173128], [-3.123750264977435, 53.37996208885782], [-3.1240508608551005, 53.37995925810056], [-3.124055595727143, 53.380138995202934], [-3.1246567898602406, 53.380133331381344]], [[-3.130554429116104, 53.37576284440553], [-3.1299532977499402, 53.37576853760658], [-3.129948538801067, 53.37558880073612], [-3.1302491032448194, 53.375585954532426], [-3.130244343082206, 53.37540621767475], [-3.1308454692863386, 53.37540052303464], [-3.130850231978763, 53.375580259855234], [-3.1305496676373887, 53.37558310757212], [-3.130554429116104, 53.37576284440553]]]}, "properties": {"kind": "max_footprint", "threshold_pct": 7.0}}, {"type": "Feature", "geometry": {"type": "Polygon", "coordinates": [[[-3.12581649717837, 53.37850436152581], [-3.1258117551737032, 53.3783246244825], [-3.125511170988442, 53.37832745961396], [-3.1255159117279736, 53.37850719667575], [-3.12581649717837, 53.37850436152581]]]}, "properties": {"kind": "max_footprint", "threshold_pct": 10.0}}, {"type": "Feature", "geometry": {"type": "Polygon", "coordinates": [[[-3.126098109804585, 53.37778257748535], [-3.1260933667387913, 53.37760284043755], [-3.1254922085400687, 53.37760851130945], [-3.1254969490757007, 53.37778824839418], [-3.126098109804585, 53.37778257748535]]]}, "properties": {"kind": "max_footprint", "threshold_pct": 10.0}}, {"type": "Feature", "geometry": {"type": "Polygon", "coordinates": [[[-3.1271912366651637, 53.373637274735515], [-3.127186489713119, 53.373457537629584], [-3.1268859399363724, 53.37346037604541], [-3.1268906856236516, 53.373640113169806], [-3.1271912366651637, 53.373637274735515]]]}, "properties": {"kind": "max_footprint", "threshold_pct": 10.0}}, {"type": "Feature", "geometry": {"type": "Polygon", "coordinates": [[[-3.125293152062937, 53.37005954856695], [-3.125288413718474, 53.36987981123537], [-3.1249878889283282, 53.36988264474285], [-3.124992626008294, 53.370062382092875], [-3.125293152062937, 53.37005954856695]]]}, "properties": {"kind": "max_footprint", "threshold_pct": 10.0}}, {"type": "Feature", "geometry": {"type": "Polygon", "coordinates": [[[-3.1263892014817976, 53.37742026683151], [-3.126384457252949, 53.37724052979068], [-3.1272861864250663, 53.37723201564873], [-3.1272814384521177, 53.37705227865762], [-3.1275820134757, 53.377049439115474], [-3.1275772642887807, 53.37686970213712], [-3.1281784116526894, 53.37686402081988], [-3.1281736599868175, 53.37668428387277], [-3.1287748046163455, 53.376678599565984], [-3.128765296377932, 53.376319125728564], [-3.1293664357430475, 53.3763134384693], [-3.1293569226492726, 53.37595396468297], [-3.1296574897252074, 53.37595111995545], [-3.1296527319900997, 53.37577138307221], [-3.1299532977499402, 53.37576853760658], [-3.1299437799033614, 53.37540906385991], [-3.130244343082206, 53.37540621767475], [-3.1302395829707756, 53.37522648081133], [-3.1305401448335446, 53.37522363388811], [-3.130535383508415, 53.37504389703749], [-3.1308359440551126, 53.375041049376215], [-3.1308454692863386, 53.37540052303464], [-3.131146032311598, 53.37539767457967], [-3.131131740746937, 53.37485846413908], [-3.1314322999263426, 53.374855614983176], [-3.1313894166150047, 53.37323798351824], [-3.131689964360022, 53.373235133772766], [-3.131637543147608, 53.3712580282213], [-3.13133700931384, 53.37126087776266], [-3.1313274813795022, 53.37090140391426], [-3.1310269500236587, 53.37090425266202], [-3.1310221873978668, 53.37072451571067], [-3.1304211270616857, 53.3707302108997], [-3.130411607021839, 53.37037073690556], [-3.1301110793060443, 53.37037358332831], [-3.1301063206273936, 53.3701938463041], [-3.1295052675713624, 53.37019953684313], [-3.1295005114728744, 53.37001979977613], [-3.129199986132653, 53.37002264389244], [-3.1292094958517467, 53.370382118057755], [-3.1289089679313893, 53.370384961454626], [-3.1289137216030873, 53.37056469854719], [-3.1283126630800075, 53.37057038310858], [-3.12830791193737, 53.37039064597899], [-3.1280073838637343, 53.37039348710648], [-3.12799788426072, 53.37003401279313], [-3.1276973586650407, 53.37003685312716], [-3.127687861795251, 53.369677378753835], [-3.1273873386774915, 53.36968021829442], [-3.1273825915836357, 53.36950048108066], [-3.127082069679308, 53.36950331984632], [-3.127077323900939, 53.369323582608324], [-3.1264762824681394, 53.369329257833385], [-3.12648576901806, 53.36968873237753], [-3.1261852456962402, 53.36969156889233], [-3.126199472110099, 53.370230780720895], [-3.1258989449438115, 53.370233616534655], [-3.1259036859192086, 53.37041335381783], [-3.126204214350018, 53.370410517985604], [-3.126208956640922, 53.370590255244586], [-3.1265094862852827, 53.37058741863743], [-3.1265189735491568, 53.3709468931012], [-3.126819505671631, 53.37094405570063], [-3.1268337407437103, 53.37148326729779], [-3.127134276608937, 53.3714804290853], [-3.1271485159340466, 53.37201964057535], [-3.127449055542129, 53.3720168015509], [-3.1274538033505515, 53.37219653868429], [-3.127754344172243, 53.37219369888483], [-3.1277733409751525, 53.37291264728699], [-3.1274727950947043, 53.37291548716042], [-3.127477543158361, 53.37309522426509], [-3.1277780903035333, 53.37309238437319], [-3.1277875891134865, 53.37345185852833], [-3.1280881387370796, 53.37344901784287], [-3.128097640280832, 53.37380849193806], [-3.1274965359234987, 53.37381417262641], [-3.127501284242412, 53.373993909702364], [-3.126900177151285, 53.37399958740146], [-3.126909668883024, 53.37435906161009], [-3.126609112731287, 53.374361899361745], [-3.1266186021374547, 53.374721373584414], [-3.1263180434050217, 53.374724210616414], [-3.1263227869197667, 53.374903947737614], [-3.126022226871468, 53.37490678403149], [-3.126026969172339, 53.37508652116543], [-3.1257264078081755, 53.37508935672119], [-3.1257690794261372, 53.376706990834336], [-3.125468506626487, 53.376709825799644], [-3.125473246907262, 53.37688956291309], [-3.126074394985606, 53.376883892188886], [-3.1260791378474053, 53.377063629259666], [-3.1257785625686982, 53.37706646501856], [-3.1257833042164545, 53.37724620210206], [-3.125482727621722, 53.37724903712274], [-3.1254874680554097, 53.37742877421897], [-3.1263892014817976, 53.37742026683151]]]}, "properties": {"kind": "max_footprint", "threshold_pct": 10.0}}, {"type": "Feature", "geometry": {"type": "Polygon", "coordinates": [[[-3.1252836754249516, 53.36970007389807], [-3.125274198990728, 53.36934059920622], [-3.1249736779939927, 53.369343432658326], [-3.1249831518992903, 53.36970290738709], [-3.1252836754249516, 53.36970007389807]]]}, "properties": {"kind": "max_footprint", "threshold_pct": 10.0}}]}