{"type": "FeatureCollection", "features": [{"type": "Feature", "geometry": {"type": "Polygon", "coordinates": [[[-3.1157939665486474, 53.3861493090073], [-3.11578456437434, 53.38578983414674], [-3.116385839809771, 53.38578421156762], [-3.116381136267045, 53.38560447416535], [-3.114877953627848, 53.38561852484494], [-3.11488265084205, 53.385798262338724], [-3.115483926580782, 53.38579264430098], [-3.115493326223639, 53.386152119198115], [-3.1157939665486474, 53.3861493090073]]]}, "properties": {"kind": "max_footprint", "threshold_pct": 4.0}}, {"type": "Feature", "geometry": {"type": "Polygon", "coordinates": [[[-3.082978247246028, 53.384653770403474], [-3.082973684593367, 53.38447403095307], [-3.0823724208820007, 53.38447948517799], [-3.0823769810033106, 53.384659224663935], [-3.082978247246028, 53.384653770403474]]]}, "properties": {"kind": "max_footprint", "threshold_pct": 4.0}}, {"type": "Feature", "geometry": {"type": "Polygon", "coordinates": [[[-3.0823724208820007, 53.38447948517799], [-3.0823678608097294, 53.384299745686334], [-3.0820672301461403, 53.38430247164571], [-3.08207178895275, 53.38448221115514], [-3.0823724208820007, 53.38447948517799]]]}, "properties": {"kind": "max_footprint", "threshold_pct": 4.0}}, {"type": "Feature", "geometry": {"type": "Polygon", "coordinates": [[[-3.0820672301461403, 53.38430247164571], [-3.0820626713885577, 53.384122732130564], [-3.0817620419415923, 53.38412545731532], [-3.0817665994335255, 53.38430519684821], [-3.0820672301461403, 53.38430247164571]]]}, "properties": {"kind": "max_footprint", "threshold_pct": 4.0}}, {"type": "Feature", "geometry": {"type": "Polygon", "coordinates": [[[-3.0832743163754555, 53.38447130270528], [-3.0832697525062027, 53.38429156326689], [-3.083570382973551, 53.38428883428], [-3.0835658178877337, 53.384109094853684], [-3.0832651886860307, 53.3841118238228], [-3.0832560611929254, 53.38375234491747], [-3.0826548077048006, 53.38375780051402], [-3.0826593688955746, 53.3839375400051], [-3.082959996929789, 53.38393481256749], [-3.082973684593367, 53.38447403095307], [-3.0832743163754555, 53.38447130270528]]]}, "properties": {"kind": "max_footprint", "threshold_pct": 4.0}}, {"type": "Feature", "geometry": {"type": "Polygon", "coordinates": [[[-3.0988932121928734, 53.38378917530205], [-3.0988885826596357, 53.383609436777185], [-3.098587958510226, 53.383612204310424], [-3.0985925867778814, 53.383791942853314], [-3.0988932121928734, 53.38378917530205]]]}, "properties": {"kind": "max_footprint", "threshold_pct": 4.0}}, {"type": "Feature", "geometry": {"type": "Polygon", "coordinates": [[[-3.076346168867001, 53.38399464135797], [-3.0763370996905883, 53.3836351616264], [-3.076036473111629, 53.383637872377534], [-3.076045539756784, 53.383997352144405], [-3.076346168867001, 53.38399464135797]]]}, "properties": {"kind": "max_footprint", "threshold_pct": 4.0}}, {"type": "Feature", "geometry": {"type": "Polygon", "coordinates": [[[-3.0826502465630785, 53.38357806101725], [-3.082645685470407, 53.38339832151476], [-3.0823450611839625, 53.38340104814224], [-3.0823496210110393, 53.38358078766249], [-3.0826502465630785, 53.38357806101725]]]}, "properties": {"kind": "max_footprint", "threshold_pct": 4.0}}, {"type": "Feature", "geometry": {"type": "Polygon", "coordinates": [[[-3.0811471183126504, 53.383591686674826], [-3.081142563547954, 53.3834119470836], [-3.0808419390164627, 53.38341466992681], [-3.080837385566331, 53.38323493031213], [-3.0805367622514574, 53.38323765238075], [-3.0805458666695054, 53.383597131639846], [-3.0811471183126504, 53.383591686674826]]]}, "properties": {"kind": "max_footprint", "threshold_pct": 4.0}}, {"type": "Feature", "geometry": {"type": "Polygon", "coordinates": [[[-3.0745242856917265, 53.3832919348141], [-3.0745197588676945, 53.383112194822466], [-3.073918512670095, 53.383117606379756], [-3.0739230369629555, 53.38329734640662], [-3.0745242856917265, 53.3832919348141]]]}, "properties": {"kind": "max_footprint", "threshold_pct": 4.0}}, {"type": "Feature", "geometry": {"type": "Polygon", "coordinates": [[[-3.0931721098854417, 53.383482151615], [-3.093158293870021, 53.38294293496412], [-3.0928576738395117, 53.382945688045446], [-3.0928484659412314, 53.382586210213745], [-3.092247230793782, 53.382591714034234], [-3.092256433629974, 53.382951191937636], [-3.0925570537594917, 53.38294844036996], [-3.09257086218158, 53.3834876571284], [-3.0931721098854417, 53.383482151615]]]}, "properties": {"kind": "max_footprint", "threshold_pct": 4.0}}, {"type": "Feature", "geometry": {"type": "Polygon", "coordinates": [[[-3.085670220924268, 53.384089970877376], [-3.085661073181195, 53.38373049225667], [-3.0862623256866604, 53.38372502152286], [-3.086257749357708, 53.383545282239545], [-3.0859571243951733, 53.38354801796705], [-3.085947974416065, 53.38318853934765], [-3.0862485968474425, 53.38318580365575], [-3.0862348684511343, 53.382646585737184], [-3.0856336311324486, 53.38265205625725], [-3.0856427782852904, 53.3830115349466], [-3.0853421570210884, 53.38301426910698], [-3.0853467294057273, 53.38319400846089], [-3.0850461068267943, 53.383196741882244], [-3.08505067799503, 53.38337648124822], [-3.0853513018395375, 53.38337374780908], [-3.0853558743225196, 53.38355348715153], [-3.085055249212425, 53.38355622060848], [-3.085064391794694, 53.38391569931186], [-3.0853650194360025, 53.3839129658193], [-3.0853695920665056, 53.384092705144596], [-3.085670220924268, 53.384089970877376]]]}, "properties": {"kind": "max_footprint", "threshold_pct": 4.0}}, {"type": "Feature", "geometry": {"type": "Polygon", "coordinates": [[[-3.096761109943629, 53.382730100275516], [-3.096756489567615, 53.38255036159026], [-3.0964558726633222, 53.38255312371761], [-3.0964604917738305, 53.382732862420866], [-3.096761109943629, 53.382730100275516]]]}, "properties": {"kind": "max_footprint", "threshold_pct": 4.0}}, {"type": "Feature", "geometry": {"type": "Polygon", "coordinates": [[[-3.089846879494984, 53.382793438140894], [-3.0898422882257806, 53.38261369904315], [-3.089541670182457, 53.382616443763546], [-3.0895462601861374, 53.38279618287916], [-3.089846879494984, 53.382793438140894]]]}, "properties": {"kind": "max_footprint", "threshold_pct": 4.0}}, {"type": "Feature", "geometry": {"type": "Polygon", "coordinates": [[[-3.0721057396570974, 53.38277434260509], [-3.0721012231034823, 53.38259460245545], [-3.071800603436749, 53.38259730250495], [-3.0718051187248134, 53.382777042672146], [-3.0721057396570974, 53.38277434260509]]]}, "properties": {"kind": "max_footprint", "threshold_pct": 4.0}}, {"type": "Feature", "geometry": {"type": "Polygon", "coordinates": [[[-3.0754125667035455, 53.38274459191555], [-3.0754035058030245, 53.382385111998076], [-3.075102887936841, 53.382387820355135], [-3.075111946306291, 53.38274730030789], [-3.0754125667035455, 53.38274459191555]]]}, "properties": {"kind": "max_footprint", "threshold_pct": 4.0}}, {"type": "Feature", "geometry": {"type": "Polygon", "coordinates": [[[-3.103666015192939, 53.38230688550312], [-3.103661365810491, 53.382127147221496], [-3.103360752583362, 53.38212992671946], [-3.1033654007003473, 53.3823096650192], [-3.103666015192939, 53.38230688550312]]]}, "properties": {"kind": "max_footprint", "threshold_pct": 4.0}}, {"type": "Feature", "geometry": {"type": "Polygon", "coordinates": [[[-3.0901383137343923, 53.38243121448033], [-3.0901337212984417, 53.38225147538903], [-3.0898331058354924, 53.38225422083049], [-3.0898376970059496, 53.38243395993969], [-3.0901383137343923, 53.38243121448033]]]}, "properties": {"kind": "max_footprint", "threshold_pct": 4.0}}, {"type": "Feature", "geometry": {"type": "Polygon", "coordinates": [[[-3.103360752583362, 53.38212992671946], [-3.1033561045163593, 53.38195018841399], [-3.1030554925046956, 53.38195296713705], [-3.1030601393062494, 53.382132705460606], [-3.103360752583362, 53.38212992671946]]]}, "properties": {"kind": "max_footprint", "threshold_pct": 4.0}}, {"type": "Feature", "geometry": {"type": "Polygon", "coordinates": [[[-3.074802270021952, 53.3823905279554], [-3.074797742175801, 53.382210787952815], [-3.0744971254777367, 53.3822134947786], [-3.07450165205837, 53.382393234798805], [-3.074802270021952, 53.3823905279554]]]}, "properties": {"kind": "max_footprint", "threshold_pct": 4.0}}, {"type": "Feature", "geometry": {"type": "Polygon", "coordinates": [[[-3.0730121225613423, 53.382945977953895], [-3.0730076021624684, 53.38276623786276], [-3.0736088435896805, 53.382760830917015], [-3.073604320708326, 53.38258109085539], [-3.073303701284579, 53.382583794689076], [-3.0732991797173956, 53.38240405460412], [-3.0729985615105586, 53.38240675766337], [-3.072989521053091, 53.382047277441124], [-3.0723882895556565, 53.382052681218745], [-3.0723837719308236, 53.381872941063854], [-3.0720831573747227, 53.38187564179983], [-3.072092190141965, 53.38223512213907], [-3.072392807229071, 53.38223242136792], [-3.072397324951067, 53.38241216151137], [-3.072697943255111, 53.382409459965785], [-3.0727115005092496, 53.382948680309106], [-3.0730121225613423, 53.382945977953895]]]}, "properties": {"kind": "max_footprint", "threshold_pct": 4.0}}, {"type": "Feature", "geometry": {"type": "Polygon", "coordinates": [[[-3.0720831573747227, 53.38187564179983], [-3.072078641063953, 53.38169590162166], [-3.071477414337027, 53.38170130078801], [-3.071481928116831, 53.38188104100134], [-3.0720831573747227, 53.38187564179983]]]}, "properties": {"kind": "max_footprint", "threshold_pct": 4.0}}, {"type": "Feature", "geometry": {"type": "Polygon", "coordinates": [[[-3.1039526778418356, 53.38176489042245], [-3.1039387264982294, 53.38122567556308], [-3.1036381196482004, 53.381228455727346], [-3.103652067195586, 53.381767670641025], [-3.1039526778418356, 53.38176489042245]]]}, "properties": {"kind": "max_footprint", "threshold_pct": 4.0}}, {"type": "Feature", "geometry": {"type": "Polygon", "coordinates": [[[-3.0889174973245437, 53.38172323509127], [-3.0889083230205743, 53.38136375671421], [-3.0886077136875, 53.3813664990391], [-3.088616885460598, 53.381725977451886], [-3.0889174973245437, 53.38172323509127]]]}, "properties": {"kind": "max_footprint", "threshold_pct": 4.0}}, {"type": "Feature", "geometry": {"type": "Polygon", "coordinates": [[[-3.099129010906091, 53.38127006737723], [-3.099124380804398, 53.38109032879023], [-3.0985231679887995, 53.38109586410888], [-3.098527795559709, 53.38127560273192], [-3.099129010906091, 53.38127006737723]]]}, "properties": {"kind": "max_footprint", "threshold_pct": 4.0}}, {"type": "Feature", "geometry": {"type": "Polygon", "coordinates": [[[-3.0723747368269034, 53.38151346073696], [-3.072356667202009, 53.38079450001456], [-3.071755453226613, 53.38079990051871], [-3.0717735127280323, 53.38151886138176], [-3.0723747368269034, 53.38151346073696]]]}, "properties": {"kind": "max_footprint", "threshold_pct": 4.0}}, {"type": "Feature", "geometry": {"type": "Polygon", "coordinates": [[[-3.0765651595830783, 53.380756611725396], [-3.0765606245827737, 53.38057687177726], [-3.0762600195660617, 53.38057958298508], [-3.0762645533009763, 53.38075932295089], [-3.0765651595830783, 53.380756611725396]]]}, "properties": {"kind": "max_footprint", "threshold_pct": 4.0}}, {"type": "Feature", "geometry": {"type": "Polygon", "coordinates": [[[-3.0933944272893465, 53.38042383632514], [-3.093389821477857, 53.380244097367886], [-3.093089220478352, 53.38024685093708], [-3.0930938250245044, 53.380426589912254], [-3.0933944272893465, 53.38042383632514]]]}, "properties": {"kind": "max_footprint", "threshold_pct": 4.0}}, {"type": "Feature", "geometry": {"type": "Polygon", "coordinates": [[[-3.08742359935844, 53.38209641785899], [-3.0874144375117987, 53.38173693932631], [-3.0871138254014117, 53.3817396779029], [-3.087104666282692, 53.381380199311664], [-3.086804056653938, 53.381382937095786], [-3.0867949002630293, 53.381023458446016], [-3.0864942931158703, 53.38102619543769], [-3.086489716259657, 53.38084645608641], [-3.0852872922405603, 53.380857396414044], [-3.085282720495087, 53.38067765698576], [-3.084982115632757, 53.380680390157934], [-3.0849684044873777, 53.380141171785446], [-3.084367202207428, 53.380146635752666], [-3.0843763378604656, 53.38050611474452], [-3.0837751303226333, 53.38051157575582], [-3.0837888265782807, 53.38105079430745], [-3.0834882189395585, 53.38105352373125], [-3.0834927831908816, 53.38123326325479], [-3.0837933920950187, 53.3812305338132], [-3.083802523275783, 53.38159001280757], [-3.084103134661691, 53.38158728257365], [-3.084116835597472, 53.38212650096897], [-3.08471806581474, 53.38212103812395], [-3.084708926746547, 53.38176155927059], [-3.0850095392505335, 53.38175882674847], [-3.0850141100255257, 53.38193856616021], [-3.0856153374169564, 53.381933098809895], [-3.0856199107720568, 53.38211283818031], [-3.08622114049772, 53.382107367767134], [-3.0862028372487456, 53.381388410393654], [-3.0865034469759514, 53.38138567412312], [-3.0865126010329083, 53.381745152785655], [-3.0868132132417765, 53.38174241572268], [-3.0868177916095463, 53.381922155027546], [-3.087118405034642, 53.38191941718994], [-3.0871229847171207, 53.382099156471256], [-3.08742359935844, 53.38209641785899]], [[-3.0859113764675237, 53.38175062464119], [-3.0853101517053676, 53.381756093469505], [-3.0853055797140776, 53.381576354069864], [-3.0850049685246943, 53.381579087331], [-3.084995827220469, 53.38121960847893], [-3.0846952185127976, 53.381222340947694], [-3.084690649199822, 53.381042601495274], [-3.0852918640351934, 53.381037135836564], [-3.0852964358789916, 53.38121687525337], [-3.085597044488349, 53.381214141271066], [-3.0856061908542936, 53.3815736200519], [-3.0859068019453333, 53.38157088527717], [-3.0859113764675237, 53.38175062464119]]]}, "properties": {"kind": "max_footprint", "threshold_pct": 4.0}}, {"type": "Feature", "geometry": {"type": "Polygon", "coordinates": [[[-3.076551554728464, 53.380217391863816], [-3.076547019874457, 53.380037651898526], [-3.0762464186538323, 53.380040363053375], [-3.076250952242491, 53.380220103036336], [-3.076551554728464, 53.380217391863816]]]}, "properties": {"kind": "max_footprint", "threshold_pct": 4.0}}, {"type": "Feature", "geometry": {"type": "Polygon", "coordinates": [[[-3.081434076116861, 53.383049744319386], [-3.0814295202335527, 53.38287000472874], [-3.0817301408703606, 53.38286728042505], [-3.0817164697178074, 53.38232806167203], [-3.0814158528775835, 53.3823307859225], [-3.081406741551895, 53.381971306689756], [-3.0811061271936677, 53.38197403014791], [-3.081092464368938, 53.3814348112027], [-3.0807918537581185, 53.381437533850864], [-3.0807781951704163, 53.38089831480099], [-3.081078801984977, 53.38089559220602], [-3.0810833560639903, 53.3810753318773], [-3.08168457207699, 53.38106988438151], [-3.0816891287358157, 53.38124962401161], [-3.0819897379342414, 53.381246899110806], [-3.0819942959075, 53.381426638717414], [-3.0822949063223417, 53.38142391304205], [-3.0822994656100597, 53.38160365262521], [-3.082600077241316, 53.38160092617529], [-3.082604637843521, 53.381780665734965], [-3.082905250691193, 53.38177793851048], [-3.082900688823532, 53.38159819896857], [-3.08320130035669, 53.381595471005035], [-3.083173922588431, 53.38051703374003], [-3.0825727146579633, 53.380522488697125], [-3.0825818353229195, 53.38088196787939], [-3.0822812287533563, 53.380884694258285], [-3.0822766696617485, 53.38070495465225], [-3.0819760643085496, 53.38070768025662], [-3.0819715065313433, 53.380527940627125], [-3.081069693973862, 53.38053611284631], [-3.081060586158631, 53.38017663346373], [-3.080759984405563, 53.380179355987785], [-3.0807645370233416, 53.38035909569966], [-3.0804639339559645, 53.38036181748467], [-3.080459382603539, 53.38018207775507], [-3.0801587807525723, 53.38018479876559], [-3.0801633308396448, 53.38036453851291], [-3.079862727674397, 53.38036725878437], [-3.079867276545029, 53.38054699854368], [-3.0792660675370604, 53.38055243685171], [-3.0792706139258437, 53.38073217664073], [-3.0795712197196625, 53.380729457847394], [-3.0795803151747063, 53.38108893737287], [-3.0789790984765664, 53.38109437427354], [-3.078956372859563, 53.380195675239975], [-3.07925697490616, 53.38019295725652], [-3.07924788247081, 53.379833477638485], [-3.078646683390086, 53.3798389127778], [-3.078669402191553, 53.38073761195703], [-3.0783687962511066, 53.38074032848], [-3.078377881582915, 53.381099808147056], [-3.078077273062807, 53.38110252394862], [-3.078072731637892, 53.380922784100264], [-3.077772124334361, 53.38092549912735], [-3.0777675842236807, 53.3807457592556], [-3.0774669781367288, 53.38074847350822], [-3.077462439340258, 53.380568733613075], [-3.0771618344698872, 53.38057144709125], [-3.077152759554102, 53.38021196724847], [-3.076551554728464, 53.380217391863816], [-3.0765606245827737, 53.38057687177726], [-3.07686122955072, 53.380574159812646], [-3.0768703021308887, 53.380933639667894], [-3.07656969463215, 53.38093635166782], [-3.0765787648765994, 53.38129583153553], [-3.0762781547982447, 53.38129854281399], [-3.0762826887281784, 53.38147828275692], [-3.075681465894324, 53.381483703078736], [-3.0756588093863915, 53.38058500313039], [-3.07535820422346, 53.380587712067864], [-3.075367264149653, 53.38094719209964], [-3.0750666564072118, 53.38094990031561], [-3.0750757139974043, 53.38130938035979], [-3.074474493304721, 53.38131479459188], [-3.0744699670161437, 53.381135054537395], [-3.0741693578622216, 53.38113776050062], [-3.0741603079619177, 53.38077828033926], [-3.073859701290166, 53.38078098551044], [-3.073868748659637, 53.381140465707034], [-3.0735681394084073, 53.38114317015666], [-3.0735590945697693, 53.38078368992485], [-3.0732584878007425, 53.38078639358246], [-3.073253966719767, 53.380606653440374], [-3.07295336116752, 53.38060935632359], [-3.0729669207600643, 53.38114857678553], [-3.073267530108546, 53.38114587384948], [-3.0732720513353757, 53.38132561397445], [-3.0735726619006765, 53.381322910264004], [-3.0735862296692824, 53.38186213055173], [-3.0732856153075874, 53.381864834314975], [-3.0732991797173956, 53.38240405460412], [-3.0735997978756098, 53.38240135078805], [-3.073604320708326, 53.38258109085539], [-3.074205559409891, 53.3825756809175], [-3.074191983464543, 53.38203646080403], [-3.074492598945781, 53.38203375475268], [-3.074488072462503, 53.38185401472106], [-3.075089300747958, 53.381848600383194], [-3.0750847717824046, 53.38166886038111], [-3.075385384586608, 53.381666152094596], [-3.0753899148176367, 53.38184589207903], [-3.0759911428108286, 53.38184047320026], [-3.0759956756215483, 53.3820202131437], [-3.0765969059507348, 53.38201479120237], [-3.076605976780433, 53.38237427100149], [-3.076906594402884, 53.38237155886026], [-3.0768929844350006, 53.381832339205985], [-3.077193598212174, 53.38182962636093], [-3.077198136084832, 53.38200936623373], [-3.077799366023733, 53.38200393823785], [-3.0777812047021884, 53.38128497885372], [-3.07808181453656, 53.38128226379127], [-3.07808635605915, 53.3814620036282], [-3.078386967110124, 53.38145928779125], [-3.078391509947005, 53.38163902760477], [-3.078692122214582, 53.38163631099334], [-3.07870121056585, 53.38199579056785], [-3.079001825315507, 53.381993073164224], [-3.079010916393245, 53.38235255268047], [-3.079311533625019, 53.38234983448463], [-3.079293346603122, 53.38163087550006], [-3.07959395872406, 53.3816281566182], [-3.079589410825369, 53.381448416875465], [-3.0798900216319494, 53.38144569725451], [-3.0798945707960907, 53.381625436979554], [-3.080195182819201, 53.381622716584076], [-3.080204283825184, 53.38198219598153], [-3.0805048983302985, 53.381979474793795], [-3.0805094501721833, 53.382159214466235], [-3.080810065893837, 53.38215649250395], [-3.0808146190501744, 53.382336232152944], [-3.0811152359883676, 53.382333509416135], [-3.0811334541655047, 53.38305246788397], [-3.081434076116861, 53.383049744319386]], [[-3.0768929844350006, 53.381832339205985], [-3.076291756734315, 53.38183776262564], [-3.076287222706868, 53.38165802269414], [-3.076888447876611, 53.3816525993098], [-3.0768929844350006, 53.381832339205985]], [[-3.0816800154671644, 53.38089014474571], [-3.081078801984977, 53.38089559220602], [-3.081074247954933, 53.38071585252902], [-3.0816754589063384, 53.3807104051042], [-3.0816800154671644, 53.38089014474571]], [[-3.0801769813944375, 53.38090375772056], [-3.0798763744330446, 53.38090647804516], [-3.079867276545029, 53.38054699854368], [-3.0801678809756456, 53.38054427825451], [-3.0801769813944375, 53.38090375772056]]]}, "properties": {"kind": "max_footprint", "threshold_pct": 4.0}}, {"type": "Feature", "geometry": {"type": "Polygon", "coordinates": [[[-3.0981809269952953, 53.37948098260576], [-3.098176301187233, 53.379301243907435], [-3.0978757073082184, 53.37930400949469], [-3.0978803318510253, 53.37948374821103], [-3.0981809269952953, 53.37948098260576]]]}, "properties": {"kind": "max_footprint", "threshold_pct": 4.0}}, {"type": "Feature", "geometry": {"type": "Polygon", "coordinates": [[[-3.073531961220982, 53.37970524909225], [-3.073527439166383, 53.37952550893348], [-3.0732268412548507, 53.379528212467854], [-3.073231362044134, 53.37970795264423], [-3.073531961220982, 53.37970524909225]]]}, "properties": {"kind": "max_footprint", "threshold_pct": 4.0}}, {"type": "Feature", "geometry": {"type": "Polygon", "coordinates": [[[-3.1053579475135655, 53.37797647478185], [-3.1053532917400655, 53.37779673647139], [-3.1050527091800286, 53.3777995200751], [-3.1050573636883976, 53.37797925840368], [-3.1053579475135655, 53.37797647478185]]]}, "properties": {"kind": "max_footprint", "threshold_pct": 4.0}}, {"type": "Feature", "geometry": {"type": "Polygon", "coordinates": [[[-3.1222000148169893, 53.37817885884855], [-3.1221952880956554, 53.37799912157252], [-3.1224958703106553, 53.377996294801434], [-3.122486414490265, 53.377636820269], [-3.122185834805457, 53.377639647003285], [-3.122176381718554, 53.37728017241107], [-3.1218758045130626, 53.377282998351895], [-3.121885255069827, 53.3776424729809], [-3.12128409544615, 53.37764812266612], [-3.121288818270563, 53.3778278600088], [-3.1215893993728914, 53.377825035526136], [-3.121594123513192, 53.37800477284469], [-3.12189470582983, 53.37800194758695], [-3.1218994312860477, 53.37818168488137], [-3.1222000148169893, 53.37817885884855]]]}, "properties": {"kind": "max_footprint", "threshold_pct": 4.0}}, {"type": "Feature", "geometry": {"type": "Polygon", "coordinates": [[[-3.1098433256267, 53.37703593940463], [-3.109838651127642, 53.37685620133801], [-3.109237500112828, 53.37686179030725], [-3.1092421720817818, 53.377041528410274], [-3.1098433256267, 53.37703593940463]]]}, "properties": {"kind": "max_footprint", "threshold_pct": 4.0}}, {"type": "Feature", "geometry": {"type": "Polygon", "coordinates": [[[-3.110435124962535, 53.37667087130621], [-3.1104304480339535, 53.37649113326455], [-3.1101298751822686, 53.376493929604386], [-3.110134550845828, 53.376673667664264], [-3.110435124962535, 53.37667087130621]]]}, "properties": {"kind": "max_footprint", "threshold_pct": 4.0}}, {"type": "Feature", "geometry": {"type": "Polygon", "coordinates": [[[-3.112219830833615, 53.37593512550463], [-3.1122151465163785, 53.37575538754939], [-3.1125157139558226, 53.37575258598601], [-3.1125110284240014, 53.37557284804328], [-3.113112160621836, 53.37556724268315], [-3.113107472610524, 53.37538750477118], [-3.113408037368903, 53.37538470097446], [-3.1134033481430756, 53.37520496307501], [-3.113703911586114, 53.37520215853992], [-3.1136945307559154, 53.37484268276037], [-3.1130934088790214, 53.37484829100088], [-3.113098096739117, 53.37502802893004], [-3.112797534460163, 53.37503083193366], [-3.1128022211057558, 53.37521056987534], [-3.112201093866869, 53.375216173649264], [-3.1122104622495104, 53.375575649588406], [-3.1116093297494403, 53.37558125040882], [-3.1116140114864046, 53.37576098840628], [-3.111313443895903, 53.37576378769978], [-3.111318124418241, 53.375943525709715], [-3.112219830833615, 53.37593512550463]]]}, "properties": {"kind": "max_footprint", "threshold_pct": 4.0}}, {"type": "Feature", "geometry": {"type": "Polygon", "coordinates": [[[-3.11218704167064, 53.374676959697524], [-3.1121776737916322, 53.37431748370103], [-3.111877116421053, 53.37432028436189], [-3.1118724338219335, 53.3741405463368], [-3.111271321459433, 53.37414614535231], [-3.111280681648617, 53.37450562146963], [-3.111881799070518, 53.37450002238123], [-3.111886481770333, 53.37467976039485], [-3.11218704167064, 53.374676959697524]]]}, "properties": {"kind": "max_footprint", "threshold_pct": 4.0}}, {"type": "Feature", "geometry": {"type": "Polygon", "coordinates": [[[-3.118127595469864, 53.371924721820186], [-3.1181228869673623, 53.37174498410456], [-3.117822348312936, 53.37174779964035], [-3.117827055550787, 53.37192753737433], [-3.118127595469864, 53.371924721820186]]]}, "properties": {"kind": "max_footprint", "threshold_pct": 4.0}}, {"type": "Feature", "geometry": {"type": "Polygon", "coordinates": [[[-3.119559577241552, 53.36921456774074], [-3.1195548631760834, 53.36903483003076], [-3.119254343742991, 53.369037649073775], [-3.1192590565440166, 53.3692173868021], [-3.119559577241552, 53.36921456774074]]]}, "properties": {"kind": "max_footprint", "threshold_pct": 4.0}}, {"type": "Feature", "geometry": {"type": "Polygon", "coordinates": [[[-3.1004937031222077, 53.387549831998044], [-3.100489066213972, 53.38737009368365], [-3.101090367025058, 53.38736454801977], [-3.10108572763499, 53.387184809735764], [-3.101386376699846, 53.387182035786466], [-3.10138173609384, 53.3870022975148], [-3.1016823838429533, 53.38699952282661], [-3.101687025714794, 53.38717926108023], [-3.10198767467982, 53.38717648561704], [-3.1019830315421437, 53.38699674738151], [-3.1025843267907063, 53.38699119422048], [-3.102579681171331, 53.386811456015394], [-3.103481619871968, 53.386803120651074], [-3.1034862692887955, 53.386982858801886], [-3.1037869166881698, 53.38698007881513], [-3.1037822660055263, 53.386800340682434], [-3.1040829120890683, 53.386797559956875], [-3.104078260190641, 53.38661782183656], [-3.1049801943436304, 53.3866094751726], [-3.104975538697873, 53.38642973710091], [-3.105276182049631, 53.38642695338387], [-3.105271525188172, 53.38624721532459], [-3.105572167224075, 53.38624443086876], [-3.1055768253513043, 53.38642416890992], [-3.1058774686028814, 53.38642138367904], [-3.105872809209883, 53.38624164565602], [-3.106173451145579, 53.38623885968636], [-3.1061781118043488, 53.38641859769124], [-3.106779398056896, 53.38641302344485], [-3.1067747348665917, 53.38623328547629], [-3.107075376651879, 53.38623049723587], [-3.1070613835846497, 53.38569128335026], [-3.1076626594102885, 53.385685704707704], [-3.1076673262473182, 53.385865442638966], [-3.1079679653505847, 53.385862652164164], [-3.1079726335035422, 53.386042390071545], [-3.108273273822342, 53.386039598821654], [-3.1082779432912533, 53.38621933670512], [-3.1085785848255845, 53.38621654468013], [-3.108583255610479, 53.38639628253968], [-3.108883898360341, 53.3863934897396], [-3.108888570461242, 53.38657322757523], [-3.1091892144266327, 53.386570434000035], [-3.1091798677435376, 53.38621095835945], [-3.1088792263096856, 53.38621375189824], [-3.108865210459188, 53.38567453833978], [-3.1091658480958375, 53.38567174485557], [-3.1091705212614804, 53.38585148269591], [-3.109771798915434, 53.38584589342036], [-3.109776474662803, 53.386025631218615], [-3.1100771146800916, 53.38602283542726], [-3.110081791743491, 53.386202573201544], [-3.1103824329762246, 53.386199776635095], [-3.110377754647081, 53.38602003887904], [-3.111279674246121, 53.386011644692864], [-3.111270310144431, 53.38565216927284], [-3.1109696728598664, 53.38565496805535], [-3.1109649921502522, 53.38547523031851], [-3.110664356081051, 53.3854780283259], [-3.110654997344202, 53.385118552798595], [-3.1103543637560436, 53.38512135001267], [-3.1103496857287665, 53.38494161222219], [-3.1106503180512637, 53.38493881502635], [-3.1106456388086445, 53.38475907724837], [-3.110946269815171, 53.384756279313876], [-3.1109509503234376, 53.384936017073635], [-3.1112515825452762, 53.38493321836404], [-3.1112562643695383, 53.385112956099825], [-3.111556897806687, 53.38511015661512], [-3.111566264137627, 53.38546963203307], [-3.111866900055774, 53.385466831755004], [-3.111862215599435, 53.38528709406713], [-3.112162850201516, 53.38528429305042], [-3.1121815933919756, 53.38600324369453], [-3.1136847909603285, 53.38598922689257], [-3.113680098758499, 53.385809489331436], [-3.113379460611423, 53.38581229418737], [-3.1133700788905534, 53.38545281901134], [-3.1130694432244366, 53.38545562307385], [-3.113060064236708, 53.38509614783836], [-3.1127594310515128, 53.38509895110747], [-3.1127406787437777, 53.38438000049469], [-3.113341934938646, 53.38437439334567], [-3.113356006687599, 53.3849136062043], [-3.1139572702744656, 53.38490799591821], [-3.1139619634896487, 53.38508773348977], [-3.1142625964730346, 53.38508492719313], [-3.1142719855861682, 53.38544440228249], [-3.115173891827395, 53.385435978741604], [-3.1151644951202244, 53.38507650376199], [-3.1148638622883364, 53.38507931232923], [-3.1148497714034447, 53.38454009976195], [-3.115150400438417, 53.38453729124957], [-3.1151457023121987, 53.384357553733935], [-3.1154463300310358, 53.384354744482984], [-3.1154510294228643, 53.3845344819803], [-3.116052287240132, 53.3845288611712], [-3.116056989213745, 53.38470859862617], [-3.116357619312158, 53.38470578706803], [-3.116367025942368, 53.38506526192417], [-3.1175695559552112, 53.38505400797632], [-3.1175648475522277, 53.38487427062442], [-3.1178654786632376, 53.3848714552636], [-3.117860769045256, 53.3846917179243], [-3.1181613988399874, 53.38468890182495], [-3.118156688007037, 53.38450916449823], [-3.1184573164854896, 53.38450634766038], [-3.1184526044375973, 53.38432661034628], [-3.1190538587112604, 53.384320974436655], [-3.1190444297051703, 53.38396149986466], [-3.11964567871371, 53.383955861001084], [-3.119640961755595, 53.38377612374321], [-3.11934033854224, 53.383778943535035], [-3.1193309073092634, 53.383419468965336], [-3.1205333897339678, 53.38340818540388], [-3.1205239485797507, 53.38304871095819], [-3.121125184425533, 53.38304306471003], [-3.1211204613935934, 53.38286332751534], [-3.121421077974818, 53.38286050327443], [-3.1214163537281956, 53.38268076609242], [-3.1217169689931437, 53.38267794111307], [-3.121712243531866, 53.3824982039437], [-3.1220128574805392, 53.382495378225975], [-3.122008130804633, 53.38231564106926], [-3.1223087434370322, 53.38231281461314], [-3.1223040155465247, 53.382133077469106], [-3.1226046268626515, 53.3821302502746], [-3.1225998977575693, 53.38195051314322], [-3.1232011177064156, 53.381944856520654], [-3.1231963861213856, 53.38176511942039], [-3.123797603335906, 53.381759459807554], [-3.1237928692709835, 53.381579722738394], [-3.124093476536503, 53.38157689181522], [-3.124088741257117, 53.38139715475877], [-3.124990558951984, 53.38138865750396], [-3.1249858199274487, 53.3812089204971], [-3.1252864244584786, 53.38120608658376], [-3.1252769440316213, 53.38084661258974], [-3.125577545981009, 53.38084377795654], [-3.125572804578726, 53.38066404096938], [-3.125873405211815, 53.38066120559789], [-3.1258686625952183, 53.38048146862346], [-3.1261692619120107, 53.3804786325137], [-3.126164518081126, 53.38029889555198], [-3.126465116081623, 53.38029605870394], [-3.1264603710364796, 53.38011632175495], [-3.1267609677206827, 53.38011348416867], [-3.1267514752529686, 53.379754010290455], [-3.127352663407254, 53.3797483329216], [-3.1273479147194956, 53.379568596010856], [-3.127949100139076, 53.37956291565208], [-3.127939597855923, 53.37920344188737], [-3.128240187958676, 53.379200600609906], [-3.1282306833495213, 53.37884112685922], [-3.128531270870818, 53.37883828486206], [-3.1285217639357645, 53.378478811125426], [-3.1288223488756497, 53.3784759684086], [-3.1288128396148034, 53.37811649468602], [-3.1291134219733214, 53.378113651249535], [-3.1291086661544845, 53.377933914398156], [-3.129409247196764, 53.37793107022354], [-3.129399733182343, 53.37757159654056], [-3.130000890053121, 53.377565905995425], [-3.129996130592519, 53.37738616918238], [-3.1302967076860937, 53.37738332279334], [-3.1302871863883435, 53.3770238491871], [-3.1308883353617665, 53.377018154213225], [-3.1308835722596444, 53.37683841743856], [-3.1311841454045264, 53.37683556883522], [-3.1311793810886193, 53.37665583207337], [-3.131479952917274, 53.37665298273193], [-3.13145612578134, 53.37575429892936], [-3.131756691233963, 53.37575144892407], [-3.131751924695575, 53.37557171216489], [-3.132052488832029, 53.37556886142155], [-3.132047721079988, 53.37538912467518], [-3.1317471582084355, 53.37539197539994], [-3.1317185603618185, 53.37431355468974], [-3.132019115644238, 53.37431070407636], [-3.1319762109505205, 53.37269307279041], [-3.1322767547989074, 53.372690221587554], [-3.13226721845696, 53.37233074794241], [-3.132567759724728, 53.37232789602016], [-3.1325534518023557, 53.37178868556505], [-3.132252914328518, 53.3717915374316], [-3.132238610661434, 53.3712523268691], [-3.131938076930143, 53.37125517792343], [-3.1319285439375246, 53.370895704149255], [-3.1316280126841294, 53.370898554410005], [-3.1316184824255737, 53.370539080575725], [-3.131317953650034, 53.370541930042876], [-3.131313189862125, 53.370362193098565], [-3.131012662299892, 53.37036504179069], [-3.1310078998277087, 53.370185304822094], [-3.130707373478786, 53.37018815273923], [-3.1307026123223007, 53.37000841574635], [-3.130402087186688, 53.37001126288846], [-3.1303925675562323, 53.369651788848394], [-3.1300920448984053, 53.369654635196994], [-3.130082528001536, 53.36929516109688], [-3.1297820078214555, 53.36929800665199], [-3.129762979699234, 53.368579058308725], [-3.12946246452566, 53.36858190303331], [-3.1294577088873337, 53.36840216591461], [-3.1291571949270116, 53.36840500986425], [-3.1291524406041757, 53.3682252727213], [-3.1282509022096936, 53.368233799976245], [-3.1282699046350624, 53.3689527487357], [-3.1279693866771883, 53.3689555897152], [-3.1279598878911643, 53.368596115309956], [-3.1276593724110366, 53.36859895549605], [-3.127654624358995, 53.36841921826631], [-3.1279551385747397, 53.36841637809872], [-3.1279408909318103, 53.36787716643057], [-3.12733987003541, 53.36788284589839], [-3.12732563043787, 53.36734363406762], [-3.1270251237060687, 53.36734647261149], [-3.127029868923253, 53.36752620991265], [-3.1264288527780204, 53.36753188476818], [-3.1264241100894443, 53.36735214743007], [-3.1261236032046456, 53.367354983704786], [-3.1261330861041623, 53.36771445841217], [-3.1246305382727355, 53.36772862862453], [-3.124625803119094, 53.367548891181436], [-3.124325294664362, 53.367551722936284], [-3.1243300285536812, 53.36773146039779], [-3.1240295187837344, 53.36773429141469], [-3.1240342514596073, 53.36791402888892], [-3.1234332292384175, 53.367919688690364], [-3.1234379594364654, 53.368099426195684], [-3.123137446985233, 53.36810225498023], [-3.123146905005142, 53.36846173001051], [-3.1216443293429164, 53.36847586277113], [-3.1216396066294534, 53.36829612516682], [-3.121339092609023, 53.36829894943131], [-3.1213438140581014, 53.368478687054], [-3.1210432987225265, 53.36848151058045], [-3.1210385785378323, 53.36830177293939], [-3.120738064415898, 53.368304595691036], [-3.120742783336206, 53.3684843333505], [-3.1198412368729116, 53.36849279712208], [-3.119864813269015, 53.36939148560881], [-3.1195642913577024, 53.36939430544496], [-3.1195784340102404, 53.36993351852325], [-3.119878959715005, 53.369930698632], [-3.1198931066172637, 53.37046991160353], [-3.119592577118927, 53.37047273154987], [-3.1196020061114758, 53.37083220687225], [-3.1193014740333336, 53.37083502609884], [-3.1193061873410572, 53.37101476376976], [-3.119005653947662, 53.37101758225821], [-3.1190150781859303, 53.37137705761961], [-3.1187145422126714, 53.37137987538825], [-3.1187192531431767, 53.37155961307869], [-3.1184187158546464, 53.37156243010918], [-3.1184281353383168, 53.37192190550952], [-3.118127595469864, 53.371924721820186], [-3.1181323040229896, 53.37210445953011], [-3.117831762839248, 53.372107275102564], [-3.1178364701783208, 53.37228701282509], [-3.1175359276792896, 53.37228982765938], [-3.1175406338042784, 53.37246956539446], [-3.1166390022095727, 53.372478005413136], [-3.11664840702306, 53.37283748097604], [-3.1160473139815794, 53.37284310394572], [-3.116052013934688, 53.37302284175519], [-3.1157514660734056, 53.37302565212352], [-3.115756164812292, 53.37320538994554], [-3.1154556156357396, 53.37320819957563], [-3.1154603131603813, 53.37338793741021], [-3.114558661533437, 53.37339636181599], [-3.114568049145515, 53.37375583757766], [-3.1142674959726713, 53.37375864423636], [-3.1142768812569863, 53.37411812001166], [-3.1139763255040562, 53.37412092595032], [-3.1139669427493755, 53.37376145013849], [-3.1136663894756382, 53.373764255284044], [-3.1136945307559154, 53.37484268276037], [-3.1145962131929896, 53.374834264725095], [-3.1145915190589024, 53.37465452688152], [-3.1148920785054575, 53.37465171937486], [-3.1148826878589824, 53.37429224370708], [-3.1151832447253427, 53.3742894354804], [-3.1151785482129943, 53.37410969765619], [-3.1157796592645424, 53.37410407896966], [-3.115774960273049, 53.37392434117633], [-3.1163760685928645, 53.37391871950008], [-3.1163713671222824, 53.3737389817376], [-3.116671919941569, 53.37373616978294], [-3.1166672172567442, 53.373556432033034], [-3.117568871616805, 53.373547991684624], [-3.117564165188215, 53.373368253983934], [-3.117864715275608, 53.373365439039674], [-3.1178600076328578, 53.37318570135158], [-3.118461105126262, 53.37318006923005], [-3.118456395004637, 53.373000331572925], [-3.118756942410638, 53.37299751439569], [-3.1187522310749216, 53.37281777675114], [-3.119653869194753, 53.372809320735236], [-3.1196444390870233, 53.37244984553906], [-3.120245525854629, 53.37244420448588], [-3.1202408083474293, 53.37226446691593], [-3.1205413503904715, 53.372261645272914], [-3.1205271943792128, 53.37172243258373], [-3.122029884863301, 53.37170831329672], [-3.1220109855996676, 53.37098936333187], [-3.1223115184857146, 53.37098653727856], [-3.1223162444900123, 53.37116627475998], [-3.122917312638833, 53.37116062034706], [-3.1229220412231418, 53.37134035778592], [-3.123523111697807, 53.3713347003102], [-3.1235136495216653, 53.370975225500416], [-3.1238141821535264, 53.370972395664694], [-3.1238189144807484, 53.37115213305402], [-3.1241194483263155, 53.37114930244336], [-3.124124181969011, 53.371329039808515], [-3.124424717028281, 53.37132620842294], [-3.124429451986478, 53.37150594576392], [-3.1247299882594497, 53.37150311360341], [-3.1247252520366438, 53.371323376280856], [-3.125025786994087, 53.371320543382275], [-3.1250399996091303, 53.371859755277356], [-3.1253405383094996, 53.37185692156695], [-3.125345277214366, 53.37203665883537], [-3.1256458171284347, 53.372033824349984], [-3.12565055734891, 53.37221356159421], [-3.125951098476673, 53.37221072633385], [-3.1259558400127867, 53.37239046355386], [-3.1256552976203498, 53.372393298832705], [-3.125664778316126, 53.37275277329246], [-3.1253642333433365, 53.37275560785167], [-3.1253737117135345, 53.373115082325384], [-3.1244720689011647, 53.37312358157451], [-3.124486275455813, 53.373662793408066], [-3.124185723955569, 53.37366562503335], [-3.124190458310831, 53.37384536231816], [-3.1238899054948983, 53.37384819320529], [-3.123885172404423, 53.37366845590206], [-3.1235846208023883, 53.37367128601421], [-3.123579889027575, 53.373491548686815], [-3.1229787882004425, 53.373497206604604], [-3.122983517445707, 53.37367694396884], [-3.1226829656910873, 53.37367977181133], [-3.1226782377105997, 53.373500034428666], [-3.1223776871699207, 53.37350286149617], [-3.122382413885633, 53.37368259889724], [-3.1199779976135984, 53.373705188348396], [-3.119982714261787, 53.37388492589084], [-3.1193816071567926, 53.37389056572473], [-3.119395749816693, 53.374429778427775], [-3.119095192393686, 53.37443259726493], [-3.1190857664327294, 53.374073122098594], [-3.1178835463527643, 53.37408438973467], [-3.117888254248598, 53.37426412739408], [-3.1175876978371977, 53.374266942430005], [-3.117597111251024, 53.37462641776825], [-3.117296552259319, 53.37462923208423], [-3.1172918467919577, 53.374449494399634], [-3.1166907311864978, 53.37445512072521], [-3.1166954341241406, 53.374634858446434], [-3.116394874980697, 53.37463767049264], [-3.1163995767040347, 53.374817408226455], [-3.1157984557357548, 53.374823030085714], [-3.115807854274515, 53.37518250560933], [-3.1149061648538074, 53.37519093283351], [-3.1149108604042297, 53.37537067064159], [-3.114610295898086, 53.3753734782214], [-3.1146196846205183, 53.37573295385692], [-3.1140185503970637, 53.37573856681977], [-3.1140232423040746, 53.37591830466549], [-3.1137226738517074, 53.37592111003026], [-3.1137273645441925, 53.37610084788849], [-3.112825655089606, 53.376109259497774], [-3.11283034203756, 53.376288997405055], [-3.1122291996191884, 53.37629460139791], [-3.1122338840875288, 53.376474339335964], [-3.1119333115377765, 53.37647714021568], [-3.1119379947914676, 53.37665687816622], [-3.11163742092634, 53.37665967830751], [-3.111642102965353, 53.37683941627056], [-3.110740377272861, 53.37684781220924], [-3.110745055567072, 53.37702755022124], [-3.110143902323773, 53.37703314376683], [-3.1101485781381584, 53.37721288180951], [-3.1098480001760223, 53.37721567746553], [-3.109852674775608, 53.377395415520674], [-3.1095520954981275, 53.37739821043823], [-3.1095567688828827, 53.37757794850586], [-3.1086550269537088, 53.37758632877304], [-3.1086596965933917, 53.37776606688951], [-3.108359114584784, 53.37776885881672], [-3.108368451484527, 53.378128335068816], [-3.107767282256207, 53.37813391672591], [-3.107757950416989, 53.37777444040113], [-3.1071567860485105, 53.37778001895879], [-3.107166112827197, 53.37813949535624], [-3.1065649431976095, 53.37814507095978], [-3.106569604131861, 53.378324809186225], [-3.1056678455161615, 53.37833316697078], [-3.105672502705023, 53.37851290524591], [-3.105371915134445, 53.378515689678835], [-3.1053858832059076, 53.37905490452423], [-3.1047847003233717, 53.37906047122871], [-3.104775393286491, 53.378700994598326], [-3.1044748043005708, 53.37870377677925], [-3.1044701521223748, 53.37852403843735], [-3.1032678007393417, 53.378535159521526], [-3.1032724478567832, 53.378714897935836], [-3.102971858620875, 53.37871767633322], [-3.102981150475247, 53.37907715318084], [-3.1020793748765656, 53.37908548394117], [-3.102074732720058, 53.37890574546596], [-3.100872369617255, 53.37891684248003], [-3.1008770067128757, 53.379096581027504], [-3.1002758223317977, 53.37910212503033], [-3.100280456946806, 53.379281863608185], [-3.099679269835906, 53.379287404620186], [-3.0996839019702445, 53.3794671432284], [-3.0993833070748216, 53.37946991261733], [-3.0993786762057356, 53.3792901739911], [-3.098777488796021, 53.37929571046272], [-3.0987821171345975, 53.379475449125025], [-3.0984815220898243, 53.379478216243754], [-3.0984861492129, 53.37965795491834], [-3.0969831669166146, 53.37967177925103], [-3.0969877877630205, 53.37985151800991], [-3.096687189889356, 53.37985428062421], [-3.0966825703082383, 53.37967454184735], [-3.0963819736501867, 53.37967730368691], [-3.096386591966017, 53.379857042481774], [-3.096085993993015, 53.37985980358257], [-3.0960906110932056, 53.38003954238969], [-3.09639121033151, 53.38003678127092], [-3.096395828746666, 53.380216520054326], [-3.096095228243046, 53.38021928119108], [-3.096099845442534, 53.38039901998674], [-3.0951980398378383, 53.38040729891043], [-3.0952072667936608, 53.3807667765924], [-3.094906662295485, 53.380769534756034], [-3.0949020500581277, 53.380589795899915], [-3.094300843443718, 53.38059530992094], [-3.0942916241791556, 53.38023583211978], [-3.094592224980471, 53.38023307552357], [-3.094587614157222, 53.38005333663234], [-3.0936858154005495, 53.38006160409689], [-3.093699636631032, 53.38060082091488], [-3.092497222411257, 53.38061183382153], [-3.0925064266896536, 53.38097131181501], [-3.0919052142212906, 53.38097681379938], [-3.091900614588108, 53.380797074769674], [-3.090998799310776, 53.380805322016634], [-3.0909942035231586, 53.38062558292749], [-3.0912948073996733, 53.38062283461985], [-3.091281016537315, 53.38008361737178], [-3.0909804164568255, 53.38008636562573], [-3.090989607784962, 53.380445843832625], [-3.0903884024144, 53.38045133814183], [-3.0904021821850307, 53.38099055551658], [-3.0901015756295425, 53.380993301589676], [-3.0900969835886563, 53.380813562452616], [-3.089796378249172, 53.380816307751054], [-3.08978719684627, 53.380456829423956], [-3.0894865939881497, 53.38045957392987], [-3.0894820046260927, 53.38027983473987], [-3.0891814029839684, 53.38028257847114], [-3.089176814936594, 53.38010283925756], [-3.0888762145104653, 53.380105582214206], [-3.0888853881238707, 53.380465060671376], [-3.089185991080679, 53.380462317679005], [-3.0891905792267287, 53.38064205688116], [-3.0882887664122625, 53.38065028364155], [-3.088293350811526, 53.380830022891544], [-3.0876921394912866, 53.38083550365029], [-3.087687557622774, 53.38065576436459], [-3.086485139452659, 53.380666716729394], [-3.086489716259657, 53.38084645608641], [-3.087090927973959, 53.3808409813819], [-3.087095507360958, 53.38102072069755], [-3.0879973283592204, 53.38101250291141], [-3.088006494873424, 53.38137198141852], [-3.08770588539245, 53.38137472147304], [-3.0877104674580487, 53.38155446073582], [-3.0883116889015754, 53.38154897983432], [-3.0883071043051125, 53.38136924060721], [-3.0886077136875, 53.3813664990391], [-3.0886031278749226, 53.38118675982412], [-3.0889037359425813, 53.381184017517086], [-3.0889083230205743, 53.38136375671421], [-3.089509541538725, 53.381358269794035], [-3.089518720904435, 53.381717748099625], [-3.0898193326203502, 53.381715003468614], [-3.0898239236426934, 53.381894742594966], [-3.0907257622905298, 53.38188650410742], [-3.090739547043104, 53.38242572129118], [-3.0910401636233478, 53.38242297356139], [-3.091049356236489, 53.3827824516195], [-3.091650594310724, 53.38277695381782], [-3.0916459954484043, 53.38259721482743], [-3.0913453777015247, 53.382599964088776], [-3.0913361826562418, 53.38224048605502], [-3.091035567390917, 53.382243234523735], [-3.0910217789901844, 53.3817040173765], [-3.0913223904591165, 53.38170126896145], [-3.091313195908225, 53.381341790870486], [-3.0916138047968604, 53.38133904173444], [-3.0916184033130087, 53.38151878076489], [-3.091919013417617, 53.38151603085416], [-3.0919282131291554, 53.38187550886209], [-3.092529438251726, 53.38187000669856], [-3.0925248358403286, 53.381690267733305], [-3.0931260582340347, 53.38168476257842], [-3.0931306631763262, 53.38186450150783], [-3.093731887902843, 53.38185899328989], [-3.0937364954255724, 53.382038732177705], [-3.093135268168136, 53.38204424043152], [-3.0931398732094686, 53.382223979349504], [-3.092538643223001, 53.38222948461193], [-3.0925432457828794, 53.38240922356002], [-3.092843862066355, 53.382406471289286], [-3.0928484659412314, 53.382586210213745], [-3.0937503182910513, 53.382577948806826], [-3.0937549260119774, 53.382757687671756], [-3.094055544628346, 53.382754932337846], [-3.0940509356419073, 53.38257519349086], [-3.0943515529432, 53.38257243741808], [-3.094360773496678, 53.38293191507043], [-3.094661393279428, 53.38292915820492], [-3.094656781712377, 53.382749419399566], [-3.0949574001800118, 53.3827466617952], [-3.094966625894769, 53.38310613936427], [-3.0952672468438567, 53.38310338096713], [-3.095271861041196, 53.38328311972511], [-3.0961737273873298, 53.38327483993876], [-3.0961783454309755, 53.383454578637085], [-3.0964789687126086, 53.383451817176656], [-3.0964604917738305, 53.382732862420866], [-3.096159873554359, 53.38273562380939], [-3.0961552557093572, 53.382555885088166], [-3.0964558726633222, 53.38255312371761], [-3.096442015629829, 53.38201390757349], [-3.0961414024723024, 53.382016668890095], [-3.096136784825932, 53.381836930145944], [-3.096738008560412, 53.381831406791946], [-3.096728768354916, 53.38147192935843], [-3.0973299868289446, 53.38146640304918], [-3.0973346094376972, 53.38164614173282], [-3.097635219865576, 53.38164337742501], [-3.0976305959914012, 53.381463638759385], [-3.0979312051041354, 53.38146087371279], [-3.0979358302437308, 53.381640612360414], [-3.098537050850817, 53.381635079960816], [-3.098527795559709, 53.38127560273192], [-3.0982271878118666, 53.38127836927407], [-3.098217935250581, 53.380918891986205], [-3.098518540467652, 53.380916125480084], [-3.0985139129962653, 53.38073638684559], [-3.09881451689821, 53.38073361960071], [-3.0988191456349603, 53.380913358217164], [-3.099720960838182, 53.38090505188783], [-3.099716328305342, 53.38072531332544], [-3.1003175356610444, 53.38071977202476], [-3.1003129006473236, 53.380540033492736], [-3.1006135029850714, 53.38053726172529], [-3.1006088667558585, 53.380357523205575], [-3.1009094677784192, 53.380354750699425], [-3.1009001929389344, 53.379995273678944], [-3.1018019881154886, 53.379986951728306], [-3.1018112705468366, 53.380346428640394], [-3.1030136735392717, 53.380335321967145], [-3.103018319891122, 53.38051506034225], [-3.1036195236182675, 53.380509502428886], [-3.1036241725507616, 53.38068924076209], [-3.104225378608618, 53.38068367978546], [-3.1042207271454463, 53.38050394148846], [-3.104521328834016, 53.38050115988313], [-3.1045120235270938, 53.38014168330819], [-3.1048126226349986, 53.380138900982324], [-3.1048219304725535, 53.38049837752103], [-3.1051225320610447, 53.38049559440216], [-3.1051271873202264, 53.3806753326448], [-3.1054277901239935, 53.38067254875104], [-3.1054324466985825, 53.38085228696981], [-3.106033654686579, 53.380846716875745], [-3.106038313841965, 53.38102645505251], [-3.1063389190261783, 53.38102366885219], [-3.106343579497041, 53.381203407005096], [-3.106644185896512, 53.381200620029844], [-3.106653509519374, 53.38156009628213], [-3.106352900589118, 53.3815628832937], [-3.106348240018021, 53.381383145152256], [-3.106047632303047, 53.38138593138887], [-3.1060569509645424, 53.381745407702304], [-3.106357561210333, 53.381742621429396], [-3.106366882603118, 53.38210209768362], [-3.1066674953296567, 53.38209931061761], [-3.106686143778577, 53.38281826298471], [-3.1069867615168802, 53.382815475089274], [-3.106991425019958, 53.382995213148575], [-3.106390186962198, 53.383000788218894], [-3.106385525990137, 53.3828210501233], [-3.105784290262902, 53.38282662213004], [-3.105774973531109, 53.3824671458491], [-3.105474358123323, 53.38246993068094], [-3.1054603871977093, 53.381930716162145], [-3.1051597755362135, 53.381933500182804], [-3.105155119926598, 53.38175376198027], [-3.1048545094804707, 53.38175654522601], [-3.1048498551863353, 53.381576806999625], [-3.1045492459555737, 53.38157958947044], [-3.1045538989842907, 53.38175932771495], [-3.1039526778418356, 53.38176489042245], [-3.1039573283897233, 53.381944628697454], [-3.1042579402513955, 53.381941847703985], [-3.1042672440281103, 53.38230132420057], [-3.103666015192939, 53.38230688550312], [-3.1036706646253855, 53.382486623779066], [-3.103971280333452, 53.38248384348807], [-3.103980581879334, 53.38284331998651], [-3.103379345351219, 53.382848879884065], [-3.10338399366815, 53.38302861816089], [-3.103083374063588, 53.38303139699254], [-3.1030601393062494, 53.382132705460606], [-3.1024589126021254, 53.38213826067252], [-3.1024635569227224, 53.38231799902654], [-3.102162942230274, 53.38232077551536], [-3.1021675853353368, 53.38250051388175], [-3.10186696932748, 53.382503289631835], [-3.1018623274878965, 53.382323551247374], [-3.1015617126956, 53.38232632622258], [-3.101570993893711, 53.38268580302191], [-3.101270376520538, 53.38268857727643], [-3.101279655387238, 53.383048054088974], [-3.1006784154291696, 53.38305360039978], [-3.1006737785019176, 53.382873861960256], [-3.0997719219874322, 53.3828821756961], [-3.099762655875547, 53.382522698691595], [-3.0991614230121027, 53.382528237325886], [-3.099166053512137, 53.38270797586708], [-3.0988654357402163, 53.38271074406701], [-3.098860806505682, 53.3825310055078], [-3.09856018994948, 53.38253377293291], [-3.0985555620302145, 53.38235403434994], [-3.0979543312994955, 53.38235956689364], [-3.0979450806721367, 53.382000089638474], [-3.097644467763097, 53.382002854739085], [-3.097653715859519, 53.38236233203026], [-3.0973531003698156, 53.38236509641007], [-3.0973623461341497, 53.382724573714356], [-3.09706172806374, 53.38272733737335], [-3.09706634975496, 53.3829070760349], [-3.097366969090888, 53.382904312357915], [-3.09737621515351, 53.38326378962786], [-3.097977458738356, 53.38325825993134], [-3.097972833151099, 53.38307852133526], [-3.0988746943586314, 53.383070221168246], [-3.098879323742515, 53.3832499597103], [-3.0991799453110165, 53.38324719145629], [-3.099184576010239, 53.38342692997456], [-3.099485198794497, 53.38342416094566], [-3.0994944628734853, 53.38378363792898], [-3.099795088139078, 53.383780868107166], [-3.099804354948521, 53.38414034503149], [-3.099503727151729, 53.3841431148894], [-3.099512991629234, 53.3845025918269], [-3.099813621957283, 53.38449982193292], [-3.099818255536407, 53.384679560375055], [-3.1001188870802734, 53.38467678970616], [-3.1001420620518205, 53.385575481740666], [-3.100442699874277, 53.38557271022466], [-3.1004566092526034, 53.386111925322474], [-3.1001559676329205, 53.38611469689265], [-3.1001698736626744, 53.38665391199307], [-3.0995685826790664, 53.38665945297089], [-3.0995824815625475, 53.38719866812806], [-3.0998831308767443, 53.38719589796351], [-3.0998877652034107, 53.38737563631971], [-3.1001884157336184, 53.38737286538015], [-3.1001930513759914, 53.38755260371261], [-3.1004937031222077, 53.387549831998044]], [[-3.1061454882455353, 53.385160431536775], [-3.1058448539041654, 53.38516321739759], [-3.1058401948619183, 53.38498347933446], [-3.105539561736119, 53.38498626442024], [-3.1055302463332466, 53.384626788240524], [-3.1058308769277376, 53.384624003191036], [-3.105835535869776, 53.384803741265614], [-3.106136167679813, 53.3848009554411], [-3.1061454882455353, 53.385160431536775]], [[-3.1109415893572403, 53.38457654154837], [-3.11064095961635, 53.38457933946465], [-3.1106362804743752, 53.384399601675206], [-3.1103356519487857, 53.3844023988164], [-3.1103309741227383, 53.38422266100301], [-3.11093222859238, 53.38421706600018], [-3.1109415893572403, 53.38457654154837]], [[-3.106131507472128, 53.38462121738466], [-3.1058308769277376, 53.384624003191036], [-3.1058262180358023, 53.3844442651107], [-3.105224959327997, 53.384449834416564], [-3.1052203030174055, 53.38427009629425], [-3.104318418377033, 53.38427844452217], [-3.104327723454519, 53.38463792086981], [-3.1034258307700577, 53.384646262394604], [-3.1034118846195, 53.38410704770159], [-3.10311125742155, 53.38410982664184], [-3.10310196276899, 53.38375035011498], [-3.104304461136055, 53.383739229957754], [-3.104295156558894, 53.38337975355284], [-3.1045957784944918, 53.38337697165765], [-3.104591125015416, 53.38319723346472], [-3.105192366205387, 53.38319166744005], [-3.105197022215545, 53.38337140559675], [-3.1054976440009705, 53.38336862143104], [-3.105506958702617, 53.383728097690984], [-3.1058075829690774, 53.38372531273217], [-3.105816900402238, 53.38408478893288], [-3.106418153847186, 53.38407921667215], [-3.1064274765431987, 53.384438692777394], [-3.1061268473145587, 53.38444147932248], [-3.106131507472128, 53.38462121738466]], [[-3.115136306211333, 53.38399807868551], [-3.1148356809731528, 53.38400088714303], [-3.1148309842640747, 53.38382114959192], [-3.1151316082366836, 53.383818341152676], [-3.115136306211333, 53.38399807868551]], [[-3.1130319284838617, 53.384017721994326], [-3.112731302892405, 53.38402052515391], [-3.112721927242686, 53.38366104979017], [-3.1130225503030067, 53.38365824666711], [-3.1130319284838617, 53.384017721994326]], [[-3.1100163174328896, 53.383686243839925], [-3.1097156938690587, 53.383689039394575], [-3.1097110187753407, 53.38350930152183], [-3.110011641073615, 53.383506505985395], [-3.1100163174328896, 53.383686243839925]], [[-3.10310196276899, 53.38375035011498], [-3.101899463602293, 53.38376145816258], [-3.1018901792741724, 53.383401981468154], [-3.1015895568887935, 53.38340475655178], [-3.101580275291441, 53.383045279798296], [-3.1018808951457366, 53.383042504750804], [-3.101876253156398, 53.382862766383546], [-3.102176871695255, 53.3828599905973], [-3.102186158254904, 53.38321946728995], [-3.102787400244909, 53.38321391337465], [-3.1027920461307263, 53.383393651676215], [-3.103092668316337, 53.38339087356521], [-3.10310196276899, 53.38375035011498]], [[-3.1121113105849236, 53.38330717830613], [-3.1118106899044955, 53.3833099791222], [-3.111806006052646, 53.383130241365535], [-3.11210662546755, 53.38312744056771], [-3.1121113105849236, 53.38330717830613]], [[-3.1073013736612842, 53.383351900543225], [-3.107000752176567, 53.38335468924996], [-3.106996088573187, 53.38317495120212], [-3.1072967087923673, 53.38317216251356], [-3.1073013736612842, 53.383351900543225]], [[-3.111806006052646, 53.383130241365535], [-3.111505386587371, 53.38313304140655], [-3.1115007040514, 53.382953303625904], [-3.11120008580128, 53.38295610289185], [-3.1111860422919473, 53.38241688946086], [-3.1108854277879394, 53.38241968791531], [-3.1108713885279893, 53.38188047437807], [-3.1102701669616817, 53.38188606890724], [-3.1102608127683107, 53.381526593114216], [-3.1099602044405295, 53.38152938920719], [-3.109950852979107, 53.38116991335483], [-3.1096502471318157, 53.38117270865462], [-3.10962687568483, 53.38027401883237], [-3.109025676492852, 53.38027960697966], [-3.1090303481510984, 53.38045934499197], [-3.1087297472144355, 53.380462137948676], [-3.10873908815097, 53.38082161399246], [-3.1090396916182974, 53.380818820999366], [-3.1090490352864477, 53.38117829698388], [-3.1093496412342576, 53.38117550319763], [-3.1093543144090714, 53.38135524116309], [-3.1090537071958813, 53.38135803496751], [-3.1090770674966546, 53.382256724799774], [-3.10937768103695, 53.38225393090436], [-3.109401048921251, 53.38315262050236], [-3.109100429053512, 53.383155414488726], [-3.1090957566416493, 53.382975676562396], [-3.1087951379891803, 53.382978469773754], [-3.108785795847187, 53.38261899386752], [-3.108184563453555, 53.382624577947034], [-3.1081798949888584, 53.38244483994896], [-3.108480509945306, 53.38244204830578], [-3.108475840265349, 53.38226231032014], [-3.108175226574366, 53.382265101945144], [-3.108170558210077, 53.3820853639356], [-3.1078699457343424, 53.3820881547856], [-3.1078606116872276, 53.381728678712975], [-3.1075600016921676, 53.38173146876985], [-3.107550670376609, 53.38137199263796], [-3.1072500628621857, 53.3813747819017], [-3.107240734278069, 53.381015305710555], [-3.1069401292442445, 53.38101809418121], [-3.1069354662927786, 53.38083835605888], [-3.1063342586054326, 53.38084393069358], [-3.106320277643878, 53.38030471618329], [-3.1060196775210267, 53.38030750231105], [-3.1060103596611546, 53.37994802590595], [-3.1066115547955535, 53.37994245296626], [-3.106616216231024, 53.3801221911354], [-3.1078186109593746, 53.380111036102484], [-3.107813944462745, 53.379931298006], [-3.108415138995318, 53.3799257159854], [-3.1084058010915294, 53.37956623984795], [-3.1090069903622157, 53.37956065487313], [-3.1090116618195243, 53.37974039290836], [-3.1093122576447825, 53.37973759926767], [-3.109316930417596, 53.37991733727898], [-3.1096175274578783, 53.37991454286335], [-3.1096128534197938, 53.37973480487024], [-3.1099134491445457, 53.37973200971608], [-3.1099040986886584, 53.37937253374905], [-3.1102046918326387, 53.37936973787459], [-3.110200015414877, 53.3791899999007], [-3.1105006072433428, 53.379187203287685], [-3.110495929610651, 53.379007465326275], [-3.110195339047399, 53.37901026192106], [-3.1101906627302056, 53.3788305239357], [-3.1107918412760127, 53.378824930025836], [-3.1107965201236056, 53.379004667974776], [-3.1110971105862477, 53.37900186986656], [-3.111087750410989, 53.378642393999414], [-3.1116889261245206, 53.378636795585756], [-3.1116842435820353, 53.37845705768004], [-3.1122854165638225, 53.37845145627604], [-3.1122807315413774, 53.378271718401066], [-3.113182486840732, 53.37826331067458], [-3.1131777980732416, 53.37808357284862], [-3.1134783818070724, 53.378080768778005], [-3.1134736918248738, 53.37790103096459], [-3.114074856610978, 53.37789542058983], [-3.1140654717374563, 53.37753594501881], [-3.115267790583263, 53.3775247153354], [-3.1152583957909687, 53.377165239887724], [-3.1158595498505774, 53.377159620579164], [-3.11585485000009, 53.3769798828833], [-3.116756576915304, 53.37697144830045], [-3.1167518733202426, 53.37679171065378], [-3.1170524475924783, 53.37678889763118], [-3.1170430380240517, 53.37642942235728], [-3.1176441813566913, 53.376423794115404], [-3.1176394741183717, 53.3762440565065], [-3.117940044443785, 53.37624124126896], [-3.1179353359911026, 53.37606150367263], [-3.11823590500091, 53.37605868769678], [-3.1182311953338897, 53.37587895011309], [-3.118832330671649, 53.37587331592818], [-3.1188229064297524, 53.375513840816915], [-3.1191234714927565, 53.375511022626256], [-3.119118758182886, 53.37533128508037], [-3.1194193219302906, 53.37532846615143], [-3.119424036505081, 53.37550820367894], [-3.1197246014667153, 53.37550538397503], [-3.119734033298254, 53.37586485897615], [-3.12003460073906, 53.3758620384789], [-3.1200110152159097, 53.374963351024924], [-3.120311576281404, 53.3749605298629], [-3.120306858064051, 53.37478079237327], [-3.1206074178139387, 53.37477797047303], [-3.1205932596717094, 53.37423875802482], [-3.1208938155763053, 53.37423593542314], [-3.120898536171142, 53.37441567289324], [-3.12119909328982, 53.374412849516574], [-3.1212038152002584, 53.37459258696255], [-3.121504373533014, 53.37458976281093], [-3.1215138200359385, 53.374949237648856], [-3.1218143808476437, 53.37494641270386], [-3.1218238300834984, 53.37530588748207], [-3.121523266742004, 53.375308712463855], [-3.1215279901712174, 53.37548844986274], [-3.1218285547776246, 53.37548562486257], [-3.1218332795225514, 53.37566536223732], [-3.1224344111128044, 53.375659709930304], [-3.1224533207202265, 53.376378659224734], [-3.122753891498954, 53.37637583186267], [-3.1227775359770575, 53.37727451825949], [-3.123078113030041, 53.3772716900487], [-3.1230923041223084, 53.37781090176267], [-3.1227917232741014, 53.37781373002871], [-3.122796452474818, 53.37799346727367], [-3.1230970345881275, 53.3779906389892], [-3.1231064956723604, 53.378350113425014], [-3.1228059110288062, 53.378352941746314], [-3.1228200992411934, 53.37889215341227], [-3.123120687680217, 53.378889325035715], [-3.123125418451238, 53.3790690622278], [-3.1228248287470315, 53.37907189062274], [-3.1228295583037267, 53.37925162782751], [-3.1219277850904295, 53.37926010852738], [-3.1219325109023464, 53.37943984578165], [-3.1216319184643826, 53.37944267118658], [-3.1216366430618887, 53.379622408453464], [-3.121336049307894, 53.37962523312009], [-3.121331325975615, 53.37944549583478], [-3.1210307334360587, 53.379448319726265], [-3.121044899789541, 53.37998753162014], [-3.120443706966653, 53.379993177243264], [-3.1204484266554955, 53.3801729145665], [-3.120147828902646, 53.38017573626134], [-3.1201525473769554, 53.38035547359723], [-3.1198519483080824, 53.380358294553695], [-3.11984251394076, 53.37999881983943], [-3.1195419173517194, 53.380001640002426], [-3.119551349188483, 53.38036111475341], [-3.119250750018172, 53.38036393419639], [-3.119255464747319, 53.38054367158163], [-3.118954864261009, 53.38054649028619], [-3.1189501507971635, 53.38036675288261], [-3.118348952203103, 53.38037238798482], [-3.1183583741202434, 53.380731862859676], [-3.1186589759732293, 53.38072904565025], [-3.118668400623679, 53.381088520465475], [-3.1180671918056997, 53.38109415420094], [-3.1180483528300815, 53.380375204400806], [-3.1174471539321176, 53.38038083496255], [-3.117451861069445, 53.38056057245785], [-3.1171512602792246, 53.38056338662193], [-3.117146554407204, 53.38038364910829], [-3.1165453552055813, 53.380389275129545], [-3.1165406519147507, 53.38020953757354], [-3.1168412502755625, 53.3802067249596], [-3.1168318413150793, 53.379847249867034], [-3.1165312454848135, 53.37985006244433], [-3.11651713621921, 53.3793108497075], [-3.116216544134093, 53.379313661473134], [-3.1162212459068277, 53.37949339907612], [-3.115920652505924, 53.37949621010335], [-3.115939455041414, 53.38021516053117], [-3.1156388565289155, 53.38021797087488], [-3.1156529551653556, 53.38075718369044], [-3.1153523528063927, 53.3807599933323], [-3.115357051187607, 53.38093973094432], [-3.115056447512783, 53.380942539847695], [-3.11506114467917, 53.38112227747228], [-3.115361749619347, 53.3811194685506], [-3.115371146634397, 53.38147894374595], [-3.1150705391634763, 53.38148175270422], [-3.115065841896067, 53.38130201509111], [-3.1141640229764267, 53.38131043737035], [-3.114168716447693, 53.381490175038316], [-3.113868108774805, 53.38149298096944], [-3.1138634165689196, 53.38131324328324], [-3.1132622036025484, 53.38131885283864], [-3.113266893277666, 53.38149859056139], [-3.1135675010514583, 53.38149578614382], [-3.113586265317919, 53.38221473690444], [-3.1132856524824564, 53.382217541395065], [-3.1132715830032165, 53.38167832827841], [-3.1129709739135976, 53.38168113195748], [-3.1129615970437112, 53.38132165648119], [-3.1126609904344567, 53.38132445936695], [-3.112651616296966, 53.38096498383122], [-3.1123510121680398, 53.380967785923715], [-3.1123416407628306, 53.38060831032856], [-3.1117404374151856, 53.380613912170304], [-3.1117451205619315, 53.38079365000723], [-3.1120457235262733, 53.3807908494465], [-3.1120550925015533, 53.38115032506667], [-3.1123556979462257, 53.3811475237127], [-3.1123744415628627, 53.38186647481128], [-3.111773220499992, 53.381872076908365], [-3.111763853652523, 53.38151260129758], [-3.1114632455763522, 53.38151540117448], [-3.1114585634935485, 53.38133566334225], [-3.1111579566324163, 53.381338462444134], [-3.1111673183175794, 53.3816979381393], [-3.111467927709502, 53.381695139000975], [-3.1114819744110593, 53.38223435244606], [-3.111782587548918, 53.38223155249623], [-3.111791954799308, 53.38259102806116], [-3.112092570417724, 53.38258822731806], [-3.1121019404005597, 53.38294770282355], [-3.1118013222511642, 53.38295050360314], [-3.111806006052646, 53.383130241365535]], [[-3.116310589195785, 53.38290841244326], [-3.116009971752978, 53.38291122381831], [-3.1160005688675563, 53.38255174878791], [-3.116301183779405, 53.38254893744948], [-3.116296481147073, 53.38236919994397], [-3.1165970947428954, 53.38236638786705], [-3.1166065025890597, 53.38272586283566], [-3.1163058864623103, 53.38272867494924], [-3.116310589195785, 53.38290841244326]], [[-3.1138962630697575, 53.38257140696637], [-3.1135956477538294, 53.38257421225033], [-3.1135909565106497, 53.38239447458026], [-3.113891570561114, 53.38239166931456], [-3.1138962630697575, 53.38257140696637]], [[-3.102472845713748, 53.38267747571739], [-3.10217222849033, 53.382680252242395], [-3.1021675853353368, 53.38250051388175], [-3.102468201293262, 53.38249773737482], [-3.102472845713748, 53.38267747571739]], [[-3.110279521356238, 53.38224554467733], [-3.1099789079667555, 53.38224834084315], [-3.1099742320097747, 53.382068602942766], [-3.1102748441338113, 53.38206580679514], [-3.110279521356238, 53.38224554467733]], [[-3.1051690869056423, 53.382292976570646], [-3.1048684726631794, 53.38229575987078], [-3.104859163824655, 53.38193628344666], [-3.1051597755362135, 53.381933500182804], [-3.1051690869056423, 53.382292976570646]], [[-3.094647558727048, 53.3823899417717], [-3.0943469427408283, 53.38239269858334], [-3.0943331124311717, 53.38185348204472], [-3.094633724620981, 53.38185072528693], [-3.0946291133514685, 53.38167098644722], [-3.094929724226249, 53.38166822895059], [-3.094938949345757, 53.38202770658837], [-3.0946383359400804, 53.382030464120916], [-3.094647558727048, 53.3823899417717]], [[-3.0952211075994813, 53.38130599307245], [-3.0946198909612086, 53.38131150875067], [-3.0946106687692927, 53.380952031031185], [-3.095211880345989, 53.38094651542482], [-3.0952211075994813, 53.38130599307245]], [[-3.1008909182989157, 53.37963579663556], [-3.100590322337549, 53.37963856906949], [-3.100585686357603, 53.37945883052115], [-3.1008862810537043, 53.37945605810526], [-3.1008909182989157, 53.37963579663556]], [[-3.1188087704468956, 53.37497462810703], [-3.1185082091279517, 53.37497744548606], [-3.118503498499874, 53.37479770788629], [-3.118804058553937, 53.3747948905256], [-3.1188087704468956, 53.37497462810703]], [[-3.124114714734511, 53.37096956507246], [-3.1238141821535264, 53.370972395664694], [-3.1238094498771827, 53.37079265826961], [-3.1241099811935973, 53.37078982769581], [-3.124114714734511, 53.37096956507246]]]}, "properties": {"kind": "max_footprint", "threshold_pct": 4.0}}, {"type": "Feature", "geometry": {"type": "Polygon", "coordinates": [[[-3.1276261371186442, 53.367340794767365], [-3.127621389423896, 53.36716105749746], [-3.1273208840074087, 53.36716389677922], [-3.12732563043787, 53.36734363406762], [-3.1276261371186442, 53.367340794767365]]]}, "properties": {"kind": "max_footprint", "threshold_pct": 4.0}}, {"type": "Feature", "geometry": {"type": "Polygon", "coordinates": [[[-3.1181331346021826, 53.38361047777866], [-3.1181284240731877, 53.383430740417545], [-3.117827803137493, 53.38343355638851], [-3.1178325124009527, 53.38361329376798], [-3.1181331346021826, 53.38361047777866]]]}, "properties": {"kind": "max_footprint", "threshold_pct": 7.0}}, {"type": "Feature", "geometry": {"type": "Polygon", "coordinates": [[[-3.117827803137493, 53.38343355638851], [-3.1178183847624994, 53.38307408161238], [-3.117517766307195, 53.383076896789845], [-3.117527182151156, 53.38343637160265], [-3.117827803137493, 53.38343355638851]]]}, "properties": {"kind": "max_footprint", "threshold_pct": 7.0}}, {"type": "Feature", "geometry": {"type": "Polygon", "coordinates": [[[-3.117517766307195, 53.383076896789845], [-3.117513058461156, 53.382897159374856], [-3.1172124412207194, 53.38289997377718], [-3.1172171478012625, 53.38307971121051], [-3.117517766307195, 53.383076896789845]]]}, "properties": {"kind": "max_footprint", "threshold_pct": 7.0}}, {"type": "Feature", "geometry": {"type": "Polygon", "coordinates": [[[-3.1199132766416815, 53.38269487963695], [-3.1199038409553905, 53.382335405071856], [-3.119603227916741, 53.38233822547361], [-3.119612661072119, 53.38269770007542], [-3.1199132766416815, 53.38269487963695]]]}, "properties": {"kind": "max_footprint", "threshold_pct": 7.0}}, {"type": "Feature", "geometry": {"type": "Polygon", "coordinates": [[[-3.1192978995911993, 53.38216130779065], [-3.119288469270972, 53.381801833117706], [-3.118987859927169, 53.38180465195078], [-3.118997287716562, 53.38216412666047], [-3.1192978995911993, 53.38216130779065]]]}, "properties": {"kind": "max_footprint", "threshold_pct": 7.0}}, {"type": "Feature", "geometry": {"type": "Polygon", "coordinates": [[[-3.0771663720009688, 53.38075118700408], [-3.077157296987597, 53.38039170717271], [-3.0768566933338066, 53.38039441987645], [-3.0768657658164145, 53.38075389974313], [-3.0771663720009688, 53.38075118700408]]]}, "properties": {"kind": "max_footprint", "threshold_pct": 7.0}}, {"type": "Feature", "geometry": {"type": "Polygon", "coordinates": [[[-3.122912584105363, 53.370980882902465], [-3.122903127190933, 53.37062140799604], [-3.1226025969356486, 53.37062423552551], [-3.12261205132095, 53.37098371046875], [-3.122912584105363, 53.370980882902465]]]}, "properties": {"kind": "max_footprint", "threshold_pct": 7.0}}, {"type": "Feature", "geometry": {"type": "Polygon", "coordinates": [[[-3.121118828579459, 53.371357312057164], [-3.1210952241034944, 53.37045862425349], [-3.121395753348202, 53.37045580052478], [-3.1213910313407385, 53.37027606296524], [-3.1219920871487736, 53.37027041327521], [-3.1219826382280886, 53.36991093821245], [-3.1210810620269607, 53.36991941150244], [-3.1210763414362845, 53.36973967390726], [-3.120475292910745, 53.3697453189482], [-3.120498883726417, 53.37064400705042], [-3.120198353064939, 53.370646828528066], [-3.120207787217148, 53.37100630376552], [-3.120808853547658, 53.371000659980275], [-3.1208182929611157, 53.37136013512128], [-3.121118828579459, 53.371357312057164]]]}, "properties": {"kind": "max_footprint", "threshold_pct": 7.0}}, {"type": "Feature", "geometry": {"type": "Polygon", "coordinates": [[[-3.1222945599180325, 53.38177360316382], [-3.1222898321800474, 53.38159386600257], [-3.122590439699967, 53.38159103886328], [-3.122585710747446, 53.381411301714714], [-3.122886316951139, 53.38140847383708], [-3.1228910471690345, 53.381588210967216], [-3.1231916545872354, 53.381585382314384], [-3.1231869231039666, 53.38140564520265], [-3.123487529205915, 53.38140281581147], [-3.1234827965081653, 53.38122307871242], [-3.124084006028651, 53.38121741769659], [-3.124079270851105, 53.38103768062866], [-3.1243798742696325, 53.38103484900405], [-3.1243751378776756, 53.38085511194882], [-3.1246757399799403, 53.38085227958588], [-3.1246710023735993, 53.38067254254335], [-3.124971603159604, 53.38066970944212], [-3.1249668643389064, 53.38048997241231], [-3.1252674638086524, 53.38048713857276], [-3.1252627237736244, 53.38030740155567], [-3.1258639200296185, 53.380301731643286], [-3.1258591775150175, 53.38012199465736], [-3.1261597743012546, 53.38011915858452], [-3.126155030572392, 53.37993942161134], [-3.126455626042361, 53.379936584800255], [-3.126450881099265, 53.3797568478398], [-3.127052069355636, 53.37975117198438], [-3.127042574561624, 53.37939169812018], [-3.1273431660828006, 53.37938885909437], [-3.1273384174971666, 53.37920912217215], [-3.127939597855923, 53.37920344188737], [-3.127925344814353, 53.37866423119719], [-3.1282259311215936, 53.37866138997526], [-3.128221178944768, 53.37848165308556], [-3.1285217639357645, 53.378478811125426], [-3.1285122572051627, 53.37811933736581], [-3.1288128396148034, 53.37811649468602], [-3.1288080850610682, 53.3779367578161], [-3.1291086661544845, 53.377933914398156], [-3.1291039103867844, 53.377754177541014], [-3.1294044901639775, 53.377751333384914], [-3.129394976251857, 53.37739185969046], [-3.129996130592519, 53.37738616918238], [-3.1299866118248443, 53.377026695539065], [-3.1302871863883435, 53.3770238491871], [-3.130277665295348, 53.37666437555787], [-3.1305782372776436, 53.37666152848635], [-3.1305687138594323, 53.376302054871246], [-3.1308692832605662, 53.376299207080166], [-3.130864520363298, 53.37611947028255], [-3.1311650884482596, 53.37611662175339], [-3.131160324337258, 53.37593688496857], [-3.13146089110605, 53.37593403570135], [-3.13145612578134, 53.37575429892936], [-3.131756691233963, 53.37575144892407], [-3.1317090281562465, 53.37395408107372], [-3.1320095809090653, 53.37395123049747], [-3.1319762109505205, 53.37269307279041], [-3.1322767547989074, 53.372690221587554], [-3.132262450362883, 53.372151011111214], [-3.1325629903659937, 53.37214815920753], [-3.1325582210585363, 53.37196842238917], [-3.1322576823200685, 53.37197127427427], [-3.1322433784992008, 53.37143206372901], [-3.1319428435033214, 53.37143491480191], [-3.1319333104082117, 53.371075441039224], [-3.131632777890253, 53.37107829131852], [-3.1316184824255737, 53.370539080575725], [-3.131317953650034, 53.370541930042876], [-3.131313189862125, 53.370362193098565], [-3.131012662299892, 53.37036504179069], [-3.1310078998277087, 53.370185304822094], [-3.1304068470786763, 53.37019099989988], [-3.130397327345874, 53.3698315258713], [-3.1300968034235757, 53.369834372238444], [-3.1300872864243927, 53.36947489814982], [-3.129786764979866, 53.369477743723436], [-3.1297724936580615, 53.36893853249184], [-3.129471975955691, 53.36894137725346], [-3.129467220215111, 53.36876164014625], [-3.1291667037260185, 53.36876448413294], [-3.1291714582021912, 53.368944221258666], [-3.1288709403975767, 53.36894706450743], [-3.1288756936604445, 53.36912680164594], [-3.128575174540308, 53.3691296441568], [-3.128584678690464, 53.36948911845357], [-3.1282841569903574, 53.369491960245], [-3.128288907877606, 53.3696716974033], [-3.1279883848619585, 53.36967453845678], [-3.127983635239173, 53.36949480128], [-3.127683113436929, 53.369497641558546], [-3.127673616873432, 53.36913816715077], [-3.127373097549027, 53.36914100663589], [-3.1273636037185524, 53.36878153216817], [-3.1270630868719507, 53.3687843708599], [-3.127053595774386, 53.36842489633226], [-3.1267530814055484, 53.3684277342306], [-3.1267435930407794, 53.368068259643046], [-3.126443081149669, 53.36807109674801], [-3.126438338308132, 53.36789135942714], [-3.1261378276303797, 53.36789419575726], [-3.1261425692075715, 53.36807393309661], [-3.12494052092957, 53.368085270926905], [-3.124945257500294, 53.36826500833433], [-3.1246447440390956, 53.368267840919344], [-3.1246494793963615, 53.36844757833946], [-3.12434896461988, 53.368450410186504], [-3.1243584329583443, 53.36880988504642], [-3.1225553280583416, 53.368826860464985], [-3.1225600547173946, 53.369006597996865], [-3.122259535791708, 53.3690094246042], [-3.122254810397078, 53.368829687053925], [-3.1219542926850137, 53.368832512886435], [-3.121959016815219, 53.369012250455114], [-3.1216584977879434, 53.36901507554957], [-3.121667943671831, 53.369374550706524], [-3.1219684652279986, 53.36937172557526], [-3.1219826382280886, 53.36991093821245], [-3.1222831635269004, 53.369908112269535], [-3.1222878892263513, 53.3700878497854], [-3.1225884157388606, 53.37008502306761], [-3.1225978698192316, 53.370444498045295], [-3.1228983988099714, 53.37044167053423], [-3.122903127190933, 53.37062140799604], [-3.123203657395381, 53.370618579710104], [-3.123198927749874, 53.3704388422667], [-3.123499456638931, 53.37043601324271], [-3.1234947257797443, 53.37025627581198], [-3.1240957808761993, 53.37025061553145], [-3.1241005142644425, 53.3704303529253], [-3.124701571686399, 53.37042468958202], [-3.1247063076546135, 53.37060442693327], [-3.1250068375537636, 53.3706015941085], [-3.1250115748374463, 53.37078133143553], [-3.125312105950218, 53.370778497835815], [-3.1253215831995256, 53.37113797243582], [-3.125622116790496, 53.37113513804272], [-3.125631596772787, 53.37149461258284], [-3.1259321328419927, 53.37149177739632], [-3.1259463569915384, 53.37203098910808], [-3.126246896803665, 53.37202815310966], [-3.126251639553459, 53.37220789031697], [-3.126552180579252, 53.37220505354357], [-3.126561668761173, 53.37256452790401], [-3.125960581599878, 53.37257020076816], [-3.1259653232379487, 53.37274993797671], [-3.126265868108793, 53.37274710190443], [-3.126270611062557, 53.37292683908877], [-3.1259700649270012, 53.37292967517953], [-3.1259748066670334, 53.373109412376586], [-3.125674259215769, 53.37311224772925], [-3.125688480947495, 53.373651459341396], [-3.1253879296509948, 53.373654293992885], [-3.1253926690653935, 53.37383403120391], [-3.1247915637899726, 53.37383969827416], [-3.1247963007257344, 53.37401943551635], [-3.1232935303221407, 53.37403359004425], [-3.1232887997103793, 53.373853852709914], [-3.122687693722411, 53.37385950918826], [-3.122692421804569, 53.374039246559434], [-3.122391867469522, 53.374042073682176], [-3.1223965943376983, 53.37422181106604], [-3.122096038687012, 53.37422463745061], [-3.122091313083652, 53.37404490004835], [-3.1214902041595023, 53.374050550510965], [-3.121494927233224, 53.374230287950006], [-3.1217954829855152, 53.3742274630786], [-3.121800207374852, 53.37440720049352], [-3.1221007643411807, 53.37440437484711], [-3.1221054900461596, 53.374584112237926], [-3.122406048226523, 53.37458128581654], [-3.1224344111128044, 53.375659709930304], [-3.122734976831694, 53.37565688264188], [-3.122744434063637, 53.376016357263744], [-3.123345570408656, 53.37601070034337], [-3.1233503016308233, 53.376190437608855], [-3.123650870991999, 53.37618760799533], [-3.1236603361189195, 53.37654708247223], [-3.123359764227775, 53.37654991212261], [-3.1233644956025595, 53.37672964937089], [-3.123063922395538, 53.37673247828307], [-3.1230733827676787, 53.37709195279924], [-3.123373958504755, 53.3770891238502], [-3.123383421610449, 53.37744859830658], [-3.123683999826755, 53.37744576856405], [-3.1236887327209906, 53.37762550576519], [-3.1239893121514783, 53.37762267524755], [-3.123994046361691, 53.377802412424536], [-3.1242946270063583, 53.37779958113181], [-3.124308833737773, 53.37833879257299], [-3.124008249297767, 53.37834162392103], [-3.124017718176357, 53.378701098223324], [-3.1243183051466543, 53.37869826683841], [-3.124323040927479, 53.3788780039625], [-3.1240224526920146, 53.378880835365855], [-3.1240271872585836, 53.37906057250266], [-3.1237265977070274, 53.37906340316775], [-3.1237313310593118, 53.379243140317236], [-3.1234307401916634, 53.37924597024404], [-3.1234354723296365, 53.37942570740623], [-3.123134880145894, 53.37942853659475], [-3.123144342044035, 53.37978801093874], [-3.122543152463024, 53.379793667119294], [-3.122552609503623, 53.380153141513986], [-3.1237549985842152, 53.3801418259786], [-3.123759732241899, 53.38032156309369], [-3.121956140724199, 53.38033853196682], [-3.1219608668410297, 53.380518269186645], [-3.1216602668115, 53.38052109470197], [-3.121664991713843, 53.38070083193446], [-3.1213643903681954, 53.380703656711425], [-3.1213880093153032, 53.38160234287976], [-3.121087401592106, 53.38160516699193], [-3.121092124268529, 53.38178490422677], [-3.1222945599180325, 53.38177360316382]], [[-3.123674534190954, 53.37708629414453], [-3.123373958504755, 53.3770891238502], [-3.1233692270282205, 53.37690938661342], [-3.123669801449388, 53.376906556926166], [-3.123674534190954, 53.37708629414453]], [[-3.1230118939851255, 53.37475536803383], [-3.122711334641567, 53.37475819598679], [-3.122706606356063, 53.374578458638574], [-3.1230071644347634, 53.374575630704015], [-3.1230118939851255, 53.37475536803383]]]}, "properties": {"kind": "max_footprint", "threshold_pct": 7.0}}, {"type": "Feature", "geometry": {"type": "Polygon", "coordinates": [[[-3.1246757399799403, 53.38085227958588], [-3.12466152731375, 53.3803130684411], [-3.1252627237736244, 53.38030740155567], [-3.125257983789568, 53.38012766453283], [-3.1255585806777844, 53.380124829973454], [-3.125553839479439, 53.37994509296335], [-3.126155030572392, 53.37993942161134], [-3.126145543267696, 53.37957994764775], [-3.1267467290956663, 53.37957427334274], [-3.1267419829894, 53.379394536389285], [-3.1264413913661397, 53.379397373901675], [-3.126436646576109, 53.37921763692399], [-3.1270378272411907, 53.37921196117946], [-3.1270283327534654, 53.37885248728082], [-3.12762950815364, 53.378846808583404], [-3.1276200088094894, 53.378487334735745], [-3.128221178944768, 53.37848165308556], [-3.1282116747444086, 53.37812217928892], [-3.1285122572051627, 53.37811933736581], [-3.128502750679003, 53.377759863583236], [-3.1291039103867844, 53.377754177541014], [-3.1290991546702234, 53.377574440678146], [-3.129399733182343, 53.37757159654056], [-3.129394976251857, 53.37739185969046], [-3.12969555344777, 53.377389014814746], [-3.1296907953033886, 53.377209277977435], [-3.129991371183094, 53.377206432363565], [-3.1299770932618665, 53.376667221872786], [-3.130277665295348, 53.37666437555787], [-3.130268144407099, 53.376304901905684], [-3.1308692832605662, 53.376299207080166], [-3.1308597575172423, 53.375939733479186], [-3.131160324337258, 53.37593688496857], [-3.131150796268928, 53.37557741138172], [-3.131451360507869, 53.37557456215161], [-3.1314275349090472, 53.37467587817671], [-3.131728092772369, 53.374673028282785], [-3.1317090281562465, 53.37395408107372], [-3.1320095809090653, 53.37395123049747], [-3.131971444018599, 53.37251333595214], [-3.132271986602301, 53.372510484767844], [-3.1322433784992008, 53.37143206372901], [-3.1319428435033214, 53.37143491480191], [-3.1319333104082117, 53.371075441039224], [-3.131632777890253, 53.37107829131852], [-3.131623247529236, 53.37071881749573], [-3.13132271748916, 53.37072166698144], [-3.131313189862125, 53.370362193098565], [-3.131012662299892, 53.37036504179069], [-3.1310078998277087, 53.370185304822094], [-3.1304068470786763, 53.37019099989988], [-3.130402087186688, 53.37001126288846], [-3.1301015619999055, 53.37001410927414], [-3.1300920448984053, 53.369654635196994], [-3.1297915221894206, 53.36965748078916], [-3.1297820078214555, 53.36929800665199], [-3.1291809673078803, 53.36930369549288], [-3.1291857219373984, 53.36948343260138], [-3.128584678690464, 53.36948911845357], [-3.128594183044977, 53.369848592727394], [-3.127993134535807, 53.36985427562784], [-3.1279883848619585, 53.36967453845678], [-3.127687861795251, 53.369677378753835], [-3.1276783651296576, 53.36931790435754], [-3.127377844540815, 53.36932074386114], [-3.127368350608274, 53.36896126940491], [-3.1270678324972607, 53.36896410811512], [-3.1270630868719507, 53.3687843708599], [-3.12676256997433, 53.36878720879521], [-3.1267530814055484, 53.3684277342306], [-3.1252505087965874, 53.36844191237615], [-3.125255246733542, 53.36862164975364], [-3.1249547307945016, 53.36862448313197], [-3.124959467517988, 53.368804220522165], [-3.1246589502636213, 53.36880705316252], [-3.1246684213345195, 53.36916652796259], [-3.1243679015003942, 53.36916935988337], [-3.124372635847763, 53.369349097293245], [-3.1234710722467143, 53.3693575885723], [-3.123475802851602, 53.369537326031725], [-3.1237763253672877, 53.36953449634338], [-3.1237810572875087, 53.369714233778645], [-3.1243821046951994, 53.36970857209576], [-3.124391573746233, 53.37006804687531], [-3.124992626008294, 53.370062382092875], [-3.124997363139187, 53.370242119437144], [-3.1252978904583433, 53.37023928589278], [-3.125307367401983, 53.37059876052722], [-3.1259084269455757, 53.37059309109529], [-3.1259179091512226, 53.37095256563291], [-3.1262184413756837, 53.370949729745305], [-3.1262279263143897, 53.37130920422305], [-3.1265284610170303, 53.37130636754201], [-3.1265426926013533, 53.37184557916018], [-3.126843231046842, 53.371842741667216], [-3.126871703180674, 53.37292116463768], [-3.126270611062557, 53.37292683908877], [-3.1262943265963115, 53.37382552492436], [-3.125993774136987, 53.373828361107435], [-3.1259985161319337, 53.37400809827579], [-3.1256979623568277, 53.37401093372078], [-3.125702703137952, 53.374190670901875], [-3.1251015929052204, 53.37419633955907], [-3.125096854653716, 53.37401660234106], [-3.1247963007257344, 53.37401943551635], [-3.124801037712429, 53.374199172752796], [-3.1238993718285184, 53.37420766779456], [-3.1239041050716647, 53.37438740508057], [-3.1236035484104003, 53.37439023526646], [-3.1236082804395964, 53.374569972565155], [-3.123908838365702, 53.37456714236086], [-3.123923038553172, 53.37510635416728], [-3.123622476832461, 53.37510918442687], [-3.1236366736832553, 53.375648396236926], [-3.1245383700768663, 53.375639903022446], [-3.124543106257038, 53.37581964022567], [-3.123941972848993, 53.37582530316215], [-3.1239514403022866, 53.37618477762515], [-3.123650870991999, 53.37618760799533], [-3.123669801449388, 53.376906556926166], [-3.123970375819666, 53.376903726482276], [-3.1239798438837663, 53.3772632008764], [-3.1245809975317536, 53.37725753764491], [-3.1245857341702723, 53.377437274796485], [-3.12428515610668, 53.377440106809], [-3.12428989153106, 53.377619843973264], [-3.124590470859724, 53.377617011942306], [-3.124599944391423, 53.37797648621677], [-3.1249005261993363, 53.37797365339225], [-3.124905264306695, 53.37815339050241], [-3.1252058473287723, 53.378150556902774], [-3.125220065751956, 53.37868976814349], [-3.1246188920660285, 53.37869543469679], [-3.124633103356814, 53.37923464599655], [-3.1249336940207897, 53.37923181304291], [-3.1249431709997637, 53.379591287177135], [-3.1246425778053637, 53.37959412016769], [-3.1246473151060483, 53.37977385724464], [-3.1243467205954722, 53.37977668949692], [-3.1243656652465543, 53.380495637821134], [-3.124065065623977, 53.380498469390446], [-3.12406980064877, 53.3806782064756], [-3.123769199709971, 53.380681037306566], [-3.1237739335203627, 53.38086077440441], [-3.1246757399799403, 53.38085227958588]]]}, "properties": {"kind": "max_footprint", "threshold_pct": 10.0}}]}