{"type": "FeatureCollection", "features": [{"type": "Feature", "geometry": {"type": "Polygon", "coordinates": [[[-3.0807144609202166, 53.37838195855455], [-3.080705356810552, 53.378022478999306], [-3.0804047701917034, 53.37802520055391], [-3.0804138717709746, 53.3783846801446], [-3.0807144609202166, 53.37838195855455]]]}, "properties": {"kind": "max_footprint", "threshold_pct": 4.0}}, {"type": "Feature", "geometry": {"type": "Polygon", "coordinates": [[[-3.0849089946349997, 53.37780455824316], [-3.0849044249903312, 53.37762481869988], [-3.0846038415882986, 53.3776275508128], [-3.0846084099678133, 53.37780729037386], [-3.0849089946349997, 53.37780455824316]]]}, "properties": {"kind": "max_footprint", "threshold_pct": 4.0}}, {"type": "Feature", "geometry": {"type": "Polygon", "coordinates": [[[-3.095133456703049, 53.377890954495406], [-3.095115006164498, 53.377171998742185], [-3.0942132684350625, 53.37718026988541], [-3.094222486014488, 53.3775397478812], [-3.094523067837427, 53.37753699155424], [-3.0945276779666053, 53.37771673052559], [-3.094828261005102, 53.377713973424], [-3.0948328724489955, 53.377893712371666], [-3.095133456703049, 53.377890954495406]]]}, "properties": {"kind": "max_footprint", "threshold_pct": 4.0}}, {"type": "Feature", "geometry": {"type": "Polygon", "coordinates": [[[-3.0972190591299924, 53.37715267292437], [-3.097214437763756, 53.37697293409758], [-3.0966132825520356, 53.3769784595072], [-3.0966179013881074, 53.377158198369955], [-3.0972190591299924, 53.37715267292437]]]}, "properties": {"kind": "max_footprint", "threshold_pct": 4.0}}, {"type": "Feature", "geometry": {"type": "Polygon", "coordinates": [[[-3.077676792261706, 53.377150960620185], [-3.0776722531761327, 53.37697122062839], [-3.0773716736594583, 53.37697393450987], [-3.0773762114799155, 53.37715367451933], [-3.077676792261706, 53.377150960620185]]]}, "properties": {"kind": "max_footprint", "threshold_pct": 4.0}}, {"type": "Feature", "geometry": {"type": "Polygon", "coordinates": [[[-3.0999288993089174, 53.37730750962278], [-3.099919633755205, 53.376948032299275], [-3.099619056621895, 53.37695080219241], [-3.099614425184822, 53.37677106350403], [-3.0993138492667742, 53.37677383262248], [-3.0993092191445504, 53.37659409391033], [-3.0987080696892173, 53.37659962984121], [-3.0987173249232187, 53.37695910733184], [-3.0981161702086157, 53.37696464030815], [-3.0981254205813102, 53.377324117847955], [-3.0999288993089174, 53.37730750962278]]]}, "properties": {"kind": "max_footprint", "threshold_pct": 4.0}}, {"type": "Feature", "geometry": {"type": "Polygon", "coordinates": [[[-3.083988977383826, 53.37709379394425], [-3.0839798461272565, 53.376734314699476], [-3.0836792689034667, 53.3767370444534], [-3.083688397629848, 53.37709652373373], [-3.083988977383826, 53.37709379394425]]]}, "properties": {"kind": "max_footprint", "threshold_pct": 4.0}}, {"type": "Feature", "geometry": {"type": "Polygon", "coordinates": [[[-3.0981115450968666, 53.376784901529646], [-3.098106920034849, 53.37660516274544], [-3.0978063451330637, 53.376607928062576], [-3.097801721385816, 53.37642818925462], [-3.0975011476993544, 53.3764309537971], [-3.0975057701815603, 53.37661069262304], [-3.0972051951803534, 53.376613456426874], [-3.0972098164472097, 53.37679319526508], [-3.0981115450968666, 53.376784901529646]]]}, "properties": {"kind": "max_footprint", "threshold_pct": 4.0}}, {"type": "Feature", "geometry": {"type": "Polygon", "coordinates": [[[-3.0966040450288865, 53.37661898176453], [-3.096599426341805, 53.37643924288459], [-3.096298852456613, 53.37644200440044], [-3.0963034698786513, 53.37662174329838], [-3.0966040450288865, 53.37661898176453]]]}, "properties": {"kind": "max_footprint", "threshold_pct": 4.0}}, {"type": "Feature", "geometry": {"type": "Polygon", "coordinates": [[[-3.081575226963516, 53.376756131544134], [-3.0815661161444177, 53.376396651992366], [-3.081265541058529, 53.37639937565746], [-3.081274649347483, 53.37675885524471], [-3.081575226963516, 53.376756131544134]]]}, "properties": {"kind": "max_footprint", "threshold_pct": 4.0}}, {"type": "Feature", "geometry": {"type": "Polygon", "coordinates": [[[-3.0984028686095795, 53.37642265789972], [-3.098393616204157, 53.376063180338676], [-3.0980930451471775, 53.37606594635844], [-3.0981022950225627, 53.37642542395549], [-3.0984028686095795, 53.37642265789972]]]}, "properties": {"kind": "max_footprint", "threshold_pct": 4.0}}, {"type": "Feature", "geometry": {"type": "Polygon", "coordinates": [[[-3.0836701403733966, 53.37637756515021], [-3.083661012039635, 53.37601808582415], [-3.0833604398269823, 53.37602081475031], [-3.083369565630664, 53.37638029411193], [-3.0836701403733966, 53.37637756515021]]]}, "properties": {"kind": "max_footprint", "threshold_pct": 4.0}}, {"type": "Feature", "geometry": {"type": "Polygon", "coordinates": [[[-3.0938850451341677, 53.37610459118739], [-3.093880437981119, 53.37592485212861], [-3.0935798674446504, 53.37592760678077], [-3.0935844733326894, 53.37610734585748], [-3.0938850451341677, 53.37610459118739]]]}, "properties": {"kind": "max_footprint", "threshold_pct": 4.0}}, {"type": "Feature", "geometry": {"type": "Polygon", "coordinates": [[[-3.0830735525492416, 53.376562762006984], [-3.0830598675652663, 53.37602354291985], [-3.0827592952545033, 53.37602627033272], [-3.0827501747071233, 53.375666790877176], [-3.082449604877356, 53.37566951749789], [-3.08244504594221, 53.37548977774379], [-3.082144477328419, 53.37549250359011], [-3.082153592717726, 53.3758519831281], [-3.0824541638615215, 53.37584925724628], [-3.0824678411081403, 53.37638847645712], [-3.082768415998021, 53.376385749765376], [-3.0827729764433345, 53.376565489473144], [-3.0830735525492416, 53.376562762006984]]]}, "properties": {"kind": "max_footprint", "threshold_pct": 4.0}}, {"type": "Feature", "geometry": {"type": "Polygon", "coordinates": [[[-3.0842530231201937, 53.375653146424], [-3.084234757314383, 53.37493418779968], [-3.083934192789799, 53.37493691813248], [-3.0839524535357277, 53.375655876827906], [-3.0842530231201937, 53.375653146424]]]}, "properties": {"kind": "max_footprint", "threshold_pct": 4.0}}, {"type": "Feature", "geometry": {"type": "Polygon", "coordinates": [[[-3.083032498921594, 53.37494510459116], [-3.0830279376526395, 53.374765364849694], [-3.0827273741967374, 53.374768092138254], [-3.0827319342007544, 53.37494783189748], [-3.083032498921594, 53.37494510459116]]]}, "properties": {"kind": "max_footprint", "threshold_pct": 4.0}}, {"type": "Feature", "geometry": {"type": "Polygon", "coordinates": [[[-3.0764245972469313, 53.375184670675324], [-3.0764064635839246, 53.37446571013975], [-3.076105901582384, 53.374468420747355], [-3.076110433660092, 53.37464816090746], [-3.075809870344895, 53.37465087077614], [-3.07581440120639, 53.37483061094818], [-3.076114965786529, 53.37482790106188], [-3.076124030185598, 53.37518738135354], [-3.0764245972469313, 53.375184670675324]]]}, "properties": {"kind": "max_footprint", "threshold_pct": 4.0}}, {"type": "Feature", "geometry": {"type": "Polygon", "coordinates": [[[-3.0761013695534043, 53.37428868058153], [-3.0760923056416303, 53.37392920023272], [-3.075791747386065, 53.37393191003077], [-3.075787216768144, 53.37375216983017], [-3.0754866597287402, 53.37375487885398], [-3.075491189081787, 53.37393461907225], [-3.075190630728809, 53.37393732735712], [-3.075199687051211, 53.374296807811774], [-3.0761013695534043, 53.37428868058153]]]}, "properties": {"kind": "max_footprint", "threshold_pct": 4.0}}, {"type": "Feature", "geometry": {"type": "Polygon", "coordinates": [[[-3.0718709432578786, 53.37342784724916], [-3.07186642922899, 53.37324810680246], [-3.072166983057317, 53.37324540691052], [-3.0721579526154956, 53.372885926035124], [-3.0718574013168136, 53.37288862589189], [-3.0718619152486357, 53.373068366350026], [-3.0715613626366043, 53.373071065467805], [-3.071570388116175, 53.37343054640208], [-3.0718709432578786, 53.37342784724916]]]}, "properties": {"kind": "max_footprint", "threshold_pct": 4.0}}, {"type": "Feature", "geometry": {"type": "Polygon", "coordinates": [[[-3.086270085027238, 53.37221896049731], [-3.0862655105818115, 53.37203922086571], [-3.0859649666384747, 53.37204195620986], [-3.085969539819174, 53.37222169585926], [-3.086270085027238, 53.37221896049731]]]}, "properties": {"kind": "max_footprint", "threshold_pct": 4.0}}, {"type": "Feature", "geometry": {"type": "Polygon", "coordinates": [[[-3.0749353432372053, 53.37573743710638], [-3.074921761453083, 53.37519821650008], [-3.0755228959167504, 53.375192800440075], [-3.0755274256594154, 53.37537254061263], [-3.0758279940831823, 53.37536983143003], [-3.0758189321166025, 53.375010351114504], [-3.0755183662227887, 53.37501306026181], [-3.075509306980981, 53.374653579888154], [-3.075208743568364, 53.37465628824356], [-3.075204215285443, 53.37447654803052], [-3.074903653089069, 53.37447925561168], [-3.0749127071737243, 53.374838736067304], [-3.0752132718999734, 53.37483602845088], [-3.0752178002802726, 53.37501576865251], [-3.0746166682491816, 53.37502118316399], [-3.074594039483885, 53.374122481922484], [-3.074894599199112, 53.37411977513318], [-3.0748900723271446, 53.37394003488537], [-3.075190630728809, 53.37393732735712], [-3.075172518668232, 53.37321836637921], [-3.0754730719617895, 53.37321565816489], [-3.075459484633112, 53.37267643742437], [-3.0751589351339765, 53.372679145585785], [-3.075154407386588, 53.37249940530989], [-3.074853859103553, 53.37250211269709], [-3.074858385586161, 53.37268185299064], [-3.0745578359896775, 53.37268455963892], [-3.074562361256157, 53.37286429994436], [-3.074261810346223, 53.372867005853706], [-3.074266334396548, 53.37304674617106], [-3.0736652299011484, 53.373052155755275], [-3.073656186908356, 53.3726926750444], [-3.073355637117339, 53.372695378666435], [-3.0733511169586474, 53.37251563828481], [-3.073050568383814, 53.37251834113267], [-3.073046049538494, 53.37233860072774], [-3.072745502179848, 53.37234130280145], [-3.0727500197603965, 53.37252104322397], [-3.072449471088407, 53.37252374455869], [-3.0724449547726316, 53.37234400411858], [-3.0721444073168582, 53.37234670467918], [-3.0721353773604876, 53.37198722374665], [-3.071534287362339, 53.37199262252785], [-3.0715433122596925, 53.37235210353068], [-3.0718438598125397, 53.3723494044832], [-3.0718528874335242, 53.37270888542804], [-3.072153437467405, 53.372706185588875], [-3.0721579526154956, 53.372885926035124], [-3.072458503865631, 53.37288322542178], [-3.072463020327083, 53.37306296584475], [-3.0727635727934746, 53.37306026445725], [-3.0727680905683137, 53.37324000485691], [-3.0733691978850124, 53.37323459977698], [-3.0733918001365144, 53.374133301513595], [-3.0730912401781256, 53.37413600451987], [-3.0731047983175195, 53.37467522554606], [-3.0734053620706745, 53.37467252248702], [-3.07341440360315, 53.37503200310737], [-3.0737149698376043, 53.37502929925646], [-3.0737240140944797, 53.375388779818756], [-3.0743251514774315, 53.37538336977661], [-3.074334200988832, 53.37574285024559], [-3.0749353432372053, 53.37573743710638]]]}, "properties": {"kind": "max_footprint", "threshold_pct": 4.0}}, {"type": "Feature", "geometry": {"type": "Polygon", "coordinates": [[[-3.087472265367532, 53.372208011484055], [-3.0874631064081064, 53.371848532357745], [-3.087162563926291, 53.37185127071022], [-3.0871717203562796, 53.37221074987218], [-3.087472265367532, 53.372208011484055]]]}, "properties": {"kind": "max_footprint", "threshold_pct": 4.0}}, {"type": "Feature", "geometry": {"type": "Polygon", "coordinates": [[[-3.0791524237045524, 53.37605894026834], [-3.0791478785866526, 53.37587920033068], [-3.079448450219902, 53.37587648201534], [-3.0794302651770207, 53.37515752227837], [-3.0797308317014065, 53.37515480327722], [-3.07972628429793, 53.374975063346376], [-3.08002684950846, 53.374972343606295], [-3.0800359468942418, 53.37533182342681], [-3.080336514585796, 53.37532910289469], [-3.0803410646170364, 53.37550884277864], [-3.080942202383338, 53.37550339940903], [-3.080946754993499, 53.375683139251834], [-3.081547895093992, 53.37567769282019], [-3.081543339953835, 53.37549795301285], [-3.082144477328419, 53.37549250359011], [-3.0821308046119955, 53.374953284240235], [-3.0818302397441046, 53.37495600927669], [-3.0818256835349125, 53.37477626946422], [-3.0815251198829747, 53.374778993726316], [-3.0815160101413994, 53.37441951404874], [-3.0818165712634933, 53.37441678982212], [-3.0818029032237666, 53.37387757031609], [-3.0821034605022115, 53.3738748453861], [-3.082108017731341, 53.37405458520943], [-3.082408576225661, 53.37405185950511], [-3.082385784245764, 53.37315316042006], [-3.082085232075674, 53.37315588603565], [-3.0820715612702307, 53.37261666646276], [-3.0823721096459464, 53.37261394090041], [-3.0823629934911065, 53.37225446119206], [-3.082062447644905, 53.3722571867189], [-3.082048777574359, 53.371717967060235], [-3.0817482354733365, 53.371720691777305], [-3.0817436801458333, 53.3715409518619], [-3.0814431392605326, 53.371543675804695], [-3.0814750187284248, 53.37280185521658], [-3.0817755684668944, 53.37279913114963], [-3.0817983473084953, 53.37369783046931], [-3.081497791245926, 53.37370055462496], [-3.081484127588519, 53.37316133499709], [-3.0808830229054878, 53.37316678093223], [-3.0808875748793465, 53.373346520849374], [-3.0802864674709056, 53.373351963793674], [-3.0802773686313945, 53.3729924838828], [-3.079075163346182, 53.37300336055075], [-3.079070619058988, 53.37282362051591], [-3.079371169188815, 53.372820902501466], [-3.0793666236856936, 53.37264116247862], [-3.07906607482065, 53.37264388047535], [-3.079056986490551, 53.372284400377104], [-3.07875644010618, 53.37228711758189], [-3.0787428117716455, 53.37174789733854], [-3.079343896903145, 53.371742462278576], [-3.079334806532207, 53.37138298215854], [-3.078733726459496, 53.37138841714771], [-3.0787382690911502, 53.371568157245996], [-3.0784377277168375, 53.37157087362346], [-3.0784422691326285, 53.37175061373371], [-3.0781417264447843, 53.37175332937235], [-3.07816442793243, 53.372652029926215], [-3.077563329762841, 53.37265745911063], [-3.077545178593127, 53.37193849853757], [-3.077244634494161, 53.37194121192425], [-3.0772400980884234, 53.37176147174903], [-3.076639012273629, 53.37176689621746], [-3.07665261404875, 53.37230611683195], [-3.0763520672740152, 53.37230882798431], [-3.0763792645516785, 53.373387269164915], [-3.076679818915199, 53.373384557906626], [-3.0766934220065676, 53.37392377836679], [-3.0769939801159114, 53.37392106629894], [-3.077003051617043, 53.374280546541804], [-3.076702490977915, 53.37428325864499], [-3.076725164259518, 53.37518195924047], [-3.077025731223347, 53.375179247048976], [-3.0770211952045443, 53.37499950695898], [-3.077321760854632, 53.374996794028526], [-3.077299075167554, 53.374098093581104], [-3.0775996344442333, 53.37409537998239], [-3.0775950961882814, 53.37391563989342], [-3.0778956541512827, 53.37391292555577], [-3.077891114679257, 53.373733185478784], [-3.0781916713285784, 53.373730470402194], [-3.0781871306405044, 53.37355073033714], [-3.0787882412629624, 53.37354529794961], [-3.0787927844807457, 53.37372503797929], [-3.079093340983563, 53.37372232063294], [-3.079102430095425, 53.374081800639736], [-3.0788018710628586, 53.37408451802147], [-3.0788064144271883, 53.374264258033975], [-3.078505854080879, 53.37426697467683], [-3.0785512777613944, 53.376064374664466], [-3.0791524237045524, 53.37605894026834]]]}, "properties": {"kind": "max_footprint", "threshold_pct": 4.0}}, {"type": "Feature", "geometry": {"type": "Polygon", "coordinates": [[[-3.073032493294037, 53.37179937947869], [-3.0730234560406466, 53.371439898617425], [-3.0727229150056607, 53.37144260060314], [-3.072731949729628, 53.3718020814996], [-3.073032493294037, 53.37179937947869]]]}, "properties": {"kind": "max_footprint", "threshold_pct": 4.0}}, {"type": "Feature", "geometry": {"type": "Polygon", "coordinates": [[[-3.0907690704555404, 53.371818360549426], [-3.0907598838699517, 53.37145888179317], [-3.0910604232306773, 53.3714561343981], [-3.091055828747297, 53.371276395029255], [-3.0913563667939647, 53.37127364689556], [-3.0913517710953315, 53.371093907538906], [-3.090450160601096, 53.37110214961679], [-3.0904685285160647, 53.37182110722377], [-3.0907690704555404, 53.371818360549426]]]}, "properties": {"kind": "max_footprint", "threshold_pct": 4.0}}, {"type": "Feature", "geometry": {"type": "Polygon", "coordinates": [[[-3.0961649688116455, 53.37122957387043], [-3.0961557369954753, 53.37087009572535], [-3.0958552022702586, 53.37087285592732], [-3.0958598168889075, 53.371052595020686], [-3.095559280849454, 53.37105535448412], [-3.0955638942530808, 53.37123509358975], [-3.0961649688116455, 53.37122957387043]]]}, "properties": {"kind": "max_footprint", "threshold_pct": 4.0}}, {"type": "Feature", "geometry": {"type": "Polygon", "coordinates": [[[-3.083852029151217, 53.37170160287063], [-3.0838429008395543, 53.371342123282716], [-3.084143440067988, 53.37133939330547], [-3.08413430942329, 53.37097991373021], [-3.083533235975984, 53.37098537285709], [-3.08354236156205, 53.37134485250344], [-3.083241822235488, 53.371347580967644], [-3.0832463838374244, 53.371527320800006], [-3.083546924428667, 53.37152459231803], [-3.083551487344341, 53.371704332126896], [-3.083852029151217, 53.37170160287063]]]}, "properties": {"kind": "max_footprint", "threshold_pct": 4.0}}, {"type": "Feature", "geometry": {"type": "Polygon", "coordinates": [[[-3.111760066545363, 53.36982683201484], [-3.11175538520469, 53.36964709384642], [-3.111454860665274, 53.369649893276694], [-3.111450180639418, 53.369470155084336], [-3.1111496573141775, 53.36947295373993], [-3.1111590148872077, 53.36983243015539], [-3.111760066545363, 53.36982683201484]]]}, "properties": {"kind": "max_footprint", "threshold_pct": 4.0}}, {"type": "Feature", "geometry": {"type": "Polygon", "coordinates": [[[-3.114446025932211, 53.36908265088649], [-3.1144413334128362, 53.36890291285941], [-3.1141408143847165, 53.3689057190247], [-3.114145505639648, 53.36908545707004], [-3.114446025932211, 53.36908265088649]]]}, "properties": {"kind": "max_footprint", "threshold_pct": 4.0}}, {"type": "Feature", "geometry": {"type": "Polygon", "coordinates": [[[-3.1113508894837976, 53.37720169161882], [-3.11133684701087, 53.37666247769217], [-3.1122385686062386, 53.37665407726829], [-3.112243253175319, 53.37683381519485], [-3.1125438282047515, 53.37683101352202], [-3.112534456586911, 53.376471537699615], [-3.1122338840875288, 53.376474339335964], [-3.112219830833615, 53.37593512550463], [-3.112520399538022, 53.37593232392301], [-3.1125110284240014, 53.37557284804328], [-3.112811594548116, 53.37557004574152], [-3.112816281344886, 53.375749783666016], [-3.113116848683555, 53.3757469805894], [-3.1131215367956813, 53.375926718489886], [-3.1134221053489055, 53.37592391463838], [-3.1134267947764154, 53.376103652514885], [-3.114027934261534, 53.376098042505454], [-3.1140326262694433, 53.37627778033969], [-3.1146337680827356, 53.376272167267196], [-3.1146243790574473, 53.37591269166608], [-3.1149249473584275, 53.37590988403144], [-3.1149202516565397, 53.375730146240564], [-3.1158219524616144, 53.37572171885175], [-3.1158313515056615, 53.37608119431802], [-3.1152302126262654, 53.37608681340703], [-3.115234909694118, 53.376266551168136], [-3.114934338913673, 53.37626935959598], [-3.1149437306708827, 53.376628835137595], [-3.1152443039813393, 53.37662602667317], [-3.1152490012007092, 53.37680576441709], [-3.116150724624058, 53.37679733442905], [-3.1161460236096157, 53.37661759674003], [-3.1167471697757554, 53.37661197300139], [-3.1167518733202426, 53.37679171065378], [-3.1170524475924783, 53.37678889763118], [-3.1170430380240517, 53.37642942235728], [-3.118245324486874, 53.37641816284699], [-3.11823590500091, 53.37605868769678], [-3.1185364739600794, 53.37605587096431], [-3.118541184942718, 53.37623560852392], [-3.1191423252390327, 53.37622997275237], [-3.1191376117264435, 53.37605023522945], [-3.11943818053361, 53.37604741622709], [-3.1194428953111757, 53.37622715373166], [-3.12004403530336, 53.37622151342031], [-3.1200393179958485, 53.37604177595248], [-3.1209410238087623, 53.37603330986586], [-3.1209363027570984, 53.37585357244742], [-3.1215374371820053, 53.3758479246433], [-3.121532713651217, 53.375668187255904], [-3.122734976831694, 53.37565688264188], [-3.1227302482919876, 53.37547714532234], [-3.1233313770473767, 53.37547148851249], [-3.123326646028689, 53.37529175122405], [-3.1248294607021774, 53.37527759605094], [-3.124819986168524, 53.374918121641166], [-3.1251205464206966, 53.37491528837366], [-3.1251158079654062, 53.37473555117861], [-3.1254163669017654, 53.37473271717295], [-3.125411627232572, 53.37455297999061], [-3.126313299941279, 53.374544473489486], [-3.126308556528537, 53.37436473635681], [-3.126609112731287, 53.374361899361745], [-3.1266043681047253, 53.374182162241794], [-3.127205477827531, 53.37417648601892], [-3.127200730722369, 53.373996748930196], [-3.127501284242412, 53.373993909702364], [-3.1274965359234987, 53.37381417262641], [-3.128097640280832, 53.37380849193806], [-3.128092889483416, 53.373628754893325], [-3.128693991106879, 53.37362307121576], [-3.128689237831018, 53.37344333420231], [-3.1289897873013364, 53.37344049124722], [-3.1289850328118347, 53.37326075424652], [-3.1295861290696076, 53.37325506610371], [-3.12958137210176, 53.37307532913432], [-3.1298819188892035, 53.37307248394663], [-3.1298771607077818, 53.37289274699003], [-3.130177706179351, 53.37288990106433], [-3.130172946784383, 53.372710164120505], [-3.1304734909400773, 53.37270731745681], [-3.1304687303315917, 53.3725275805258], [-3.1307692731714134, 53.37252473312411], [-3.1307597495786545, 53.372165259281914], [-3.1310602898379445, 53.3721624111608], [-3.131046001038868, 53.37162320041007], [-3.130745464573478, 53.371626048475555], [-3.1307359414926603, 53.37126657457593], [-3.130134873466715, 53.371272268363235], [-3.1301253556489574, 53.3709127943665], [-3.1298248240883804, 53.370915640088356], [-3.1298200665208005, 53.37073590306285], [-3.129219005775321, 53.37074159220009], [-3.129214250787974, 53.370561855131804], [-3.1286131923670952, 53.37056754120613], [-3.1286084399599265, 53.370387804095046], [-3.1280073838637343, 53.37039348710648], [-3.1280026340366938, 53.37021374995267], [-3.1274015802652775, 53.370219429901255], [-3.127396833018313, 53.37003969270474], [-3.1267957815717584, 53.370045369590514], [-3.126791036904816, 53.36986563235127], [-3.1264905123695113, 53.36986846964099], [-3.12648576901806, 53.36968873237753], [-3.1258847223234394, 53.36969440465069], [-3.1258799815519196, 53.369514667344546], [-3.1246778926090615, 53.36952600273969], [-3.1246731569463333, 53.36934626535401], [-3.124072114698294, 53.369351928476036], [-3.1240673816153675, 53.36917219104773], [-3.1237668616794605, 53.36917502145566], [-3.1237621299118534, 53.368995284003184], [-3.1225600547173946, 53.369006597996865], [-3.1225553280583416, 53.368826860464985], [-3.1213532571085345, 53.36883816228214], [-3.1213485355579382, 53.36865842467094], [-3.1204469856057937, 53.36866689303619], [-3.1204422678991546, 53.36848715536411], [-3.119240205643905, 53.36849843585437], [-3.119235493045538, 53.3683186981031], [-3.1189349786194227, 53.368321516316264], [-3.1189302673360957, 53.36814177854091], [-3.118028727547044, 53.368150228586906], [-3.1180240201074585, 53.36797049075077], [-3.116821971404413, 53.367981746815715], [-3.116817269072848, 53.367802008900554], [-3.1165167580350275, 53.36780482100747], [-3.1165261602199825, 53.368164296868635], [-3.1168266737865298, 53.36816148472514], [-3.1168360787024234, 53.36852096052672], [-3.117136594747193, 53.36851814759016], [-3.117141298545381, 53.36869788546405], [-3.117441815803992, 53.36869507175273], [-3.1174371107413954, 53.36851533389718], [-3.1177376266850145, 53.368512519447776], [-3.11774703938962, 53.368871995116514], [-3.117146002394139, 53.3688776233322], [-3.1171507062934665, 53.369057361194585], [-3.1168501864554283, 53.36906017418613], [-3.1168548891408774, 53.36923991206112], [-3.1171554102433636, 53.369237099051276], [-3.117160114243835, 53.369416836902225], [-3.116859591876883, 53.369419649930386], [-3.1168784033265005, 53.370138601350035], [-3.1165778758510005, 53.370141413695], [-3.116582577575274, 53.370321151553874], [-3.1159815199435745, 53.37032677401099], [-3.115976820748366, 53.37014703611549], [-3.11627734832495, 53.37014422528347], [-3.116263247248928, 53.36960501161747], [-3.115962723465862, 53.36960782239456], [-3.1159674225095118, 53.36978756030729], [-3.115666897411434, 53.36979037034623], [-3.1156715952410963, 53.36997010827151], [-3.1144694892858307, 53.36998134093588], [-3.1144741821079083, 53.370161078928554], [-3.114173654228404, 53.37016388522175], [-3.114178345836396, 53.37034362322695], [-3.1132767581016845, 53.370352037622546], [-3.113281445966458, 53.37053177567681], [-3.112079323223096, 53.37054298435325], [-3.112069957660338, 53.37018350809302], [-3.111769429377699, 53.37018630833447], [-3.1117647479363657, 53.37000657017752], [-3.1114642208679295, 53.37000936964425], [-3.111468901044732, 53.37018910781945], [-3.111168372661446, 53.370191906547944], [-3.1111730516240197, 53.37037164473559], [-3.1105719921774613, 53.37037723995961], [-3.1105766686612197, 53.37055697817798], [-3.1099756064844306, 53.370562570412496], [-3.109970932529795, 53.37038283215771], [-3.109369872681129, 53.3703884213299], [-3.1093745441066396, 53.37056815962108], [-3.1087734815279564, 53.37057374580371], [-3.1087641437853875, 53.3702142691429], [-3.1084636149498626, 53.37021706106313], [-3.108458947418408, 53.370037322705926], [-3.107857892125905, 53.37004290424064], [-3.1078625571282816, 53.37022264263419], [-3.1075620281422527, 53.37022543228498], [-3.1075713557683464, 53.3705849090912], [-3.107270824203055, 53.37058769802184], [-3.1072661616295063, 53.37040795960346], [-3.106965631278655, 53.37041074775947], [-3.1069609700197893, 53.3702310093172], [-3.106359911696874, 53.37023658332348], [-3.106369229206467, 53.37059606027491], [-3.106068697440744, 53.370598846179604], [-3.1060733550060866, 53.370778584664876], [-3.105472288795264, 53.370784154241115], [-3.1054676337590927, 53.37060441571958], [-3.10516710184319, 53.37060719935483], [-3.105162448121638, 53.37042746080945], [-3.1039603250161325, 53.3704385877131], [-3.1039649736793846, 53.37061832633095], [-3.1036644415134527, 53.37062110618376], [-3.1036690889620915, 53.37080084481394], [-3.103368555481605, 53.37080362392837], [-3.103377847999559, 53.371163101207785], [-3.1027767758302893, 53.37116865723948], [-3.102781419634931, 53.371348395906764], [-3.102180344736686, 53.37135394894862], [-3.10217106223584, 53.37099447153599], [-3.101870527241118, 53.370997246886], [-3.1018566076578713, 53.37045803066987], [-3.1015560764070504, 53.37046080520919], [-3.1015607149536675, 53.370640543971696], [-3.100959649773266, 53.37064609081696], [-3.1009642858405604, 53.370825829609856], [-3.1006637519109916, 53.370828601915825], [-3.100659117108295, 53.37064886310487], [-3.100358584393495, 53.37065163463628], [-3.100353950905212, 53.37047189580158], [-3.1000534194051816, 53.37047466655844], [-3.1000580516288787, 53.370654405411216], [-3.0997575188144597, 53.37065717542961], [-3.099766780882047, 53.37101665315402], [-3.099466245488626, 53.37101942245203], [-3.099470875332476, 53.37119916132368], [-3.099170338624651, 53.371201929883206], [-3.0991657100454293, 53.371022190993536], [-3.098264103417314, 53.371030492078994], [-3.098254853995814, 53.37067101417435], [-3.097653787720217, 53.37067654437679], [-3.0976584098768973, 53.370856283367985], [-3.0973578753999473, 53.37085904735246], [-3.0973624963417032, 53.37103878635592], [-3.097061960550451, 53.37104154960186], [-3.0970665802772537, 53.371221288617605], [-3.096766043171703, 53.371224051125054], [-3.096770661683526, 53.37140379015305], [-3.0964701232636695, 53.37140655192196], [-3.096474740560486, 53.37158629096219], [-3.0961742008263258, 53.3715890519926], [-3.09617881690811, 53.37176879104509], [-3.0952771936138768, 53.37177706965104], [-3.095272581326126, 53.371597330544624], [-3.095573121209132, 53.371594571783795], [-3.0955685077063055, 53.371414832689645], [-3.094065814118858, 53.37142861883874], [-3.094070421298353, 53.37160835802266], [-3.0937698811675425, 53.37161111300088], [-3.0937744871318893, 53.37179085219704], [-3.093473945686875, 53.37179360643666], [-3.093464736337052, 53.37143412800279], [-3.0931641973718835, 53.371436881449995], [-3.0931688007573706, 53.371616620687725], [-3.0928682604780393, 53.37161937339638], [-3.0928728626483366, 53.37179911264631], [-3.092271779411878, 53.37180461582986], [-3.092276379102258, 53.371984355109916], [-3.0919758361451413, 53.37198710558479], [-3.09198043462026, 53.372166844877036], [-3.090477712769774, 53.3721805859929], [-3.0904823049706884, 53.372360325368895], [-3.0901817591876863, 53.372363071340324], [-3.090190941208133, 53.3727225501109], [-3.0898903928462658, 53.37272529536155], [-3.0898812133553246, 53.37236581655522], [-3.0895806674736157, 53.37236856101356], [-3.089562314142736, 53.37164960326076], [-3.0892617732705476, 53.371652346891096], [-3.0892571863258325, 53.37147260742072], [-3.0895577259333433, 53.371469863808265], [-3.089553137773279, 53.37129012435003], [-3.089252599430435, 53.371292867944625], [-3.089248012584351, 53.37111312846281], [-3.088947475456846, 53.37111587128304], [-3.088956646669008, 53.37147535027667], [-3.088656106962881, 53.37147809237609], [-3.0886698603568115, 53.372017310877176], [-3.0883693168073107, 53.372020052273626], [-3.0883876502969856, 53.37273901026638], [-3.088087101639236, 53.372741750977696], [-3.088077937325355, 53.37238227195706], [-3.0874768449211003, 53.37238775103863], [-3.0874997434275224, 53.373286448725686], [-3.087800295978167, 53.37328370947399], [-3.0878140394674087, 53.373822927964056], [-3.086311257249388, 53.37383661692421], [-3.0863066823612897, 53.37365687734409], [-3.085405016234654, 53.37366508158769], [-3.085400445190257, 53.37348534194843], [-3.0850998909812364, 53.37348807516532], [-3.085081612354329, 53.37276911647994], [-3.085382161504131, 53.37276638333423], [-3.085377590705462, 53.372586643666374], [-3.08567813854135, 53.37258390978192], [-3.085673566527068, 53.37240417012614], [-3.085974113049042, 53.372401435502944], [-3.085969539819174, 53.37222169585926], [-3.084767358495364, 53.3722326297416], [-3.0847582223009153, 53.37187315029468], [-3.0835560503090735, 53.371884071930054], [-3.083560613322866, 53.37206381172749], [-3.0838611576591686, 53.37206108243569], [-3.08388397978784, 53.37295978124821], [-3.083583429127735, 53.372962510628874], [-3.0836016826547623, 53.37368146964705], [-3.0839022383741557, 53.37367874019528], [-3.083911367961788, 53.37403821963451], [-3.0833102514144843, 53.37404367785254], [-3.0833148137521555, 53.37422341759911], [-3.083014254140032, 53.37422614559099], [-3.0830188152618585, 53.37440588534962], [-3.083619936966847, 53.37440042857371], [-3.083624500667539, 53.37458016829109], [-3.083925062711346, 53.37457743875045], [-3.0839296277260306, 53.37475717844433], [-3.084530754196229, 53.374751717057656], [-3.084539889432623, 53.37511119635713], [-3.084840455123945, 53.37510846449328], [-3.084845024080774, 53.37528820411664], [-3.08544615784595, 53.37528273808352], [-3.0854553009669132, 53.37564221724189], [-3.0860564395953958, 53.37563674811102], [-3.086061013759612, 53.37581648764602], [-3.0863615842650858, 53.375813751927794], [-3.0863844621491308, 53.3767124494279], [-3.0866850389306055, 53.37670971286394], [-3.0866758850992717, 53.37635023391671], [-3.0869764593014146, 53.376347496631745], [-3.0869718811945273, 53.37616775716736], [-3.0881741724505516, 53.37615680053224], [-3.0881695893327956, 53.375977061133504], [-3.088470160758614, 53.375974320100944], [-3.088460992140936, 53.375614841322005], [-3.0878598543000275, 53.375620322559065], [-3.0878186207290015, 53.37400266744932], [-3.0881191782897486, 53.373999927369674], [-3.088128343490469, 53.37435940628731], [-3.0887294635236495, 53.37435392378686], [-3.088720293263415, 53.373994444940614], [-3.089020850676307, 53.37399170259122], [-3.0890116780835633, 53.3736322237578], [-3.0893122329174454, 53.37362948068752], [-3.0893259956750967, 53.374168698875465], [-3.089927112784005, 53.374163210357956], [-3.089931702998305, 53.37434294970673], [-3.090232262743617, 53.37434020429522], [-3.0902368542721677, 53.37451994362041], [-3.089936293261961, 53.37452268904983], [-3.089945473937337, 53.37488216771882], [-3.090246037477375, 53.37487942225365], [-3.0902598126554643, 53.37541864016059], [-3.0908609471771085, 53.37541314685311], [-3.0908563528717834, 53.37523340759229], [-3.091156918793552, 53.37523065982148], [-3.091166109983538, 53.37559013830163], [-3.091767246738692, 53.37558464041857], [-3.091781041484279, 53.37612385798843], [-3.0914804693364126, 53.37612660736198], [-3.0915126499511745, 53.37738478161669], [-3.0918132309545197, 53.377382032117815], [-3.091808632310432, 53.37720229297364], [-3.0921092119992184, 53.37719954273598], [-3.0920908128570392, 53.376480586173706], [-3.09239138743607, 53.37647783525102], [-3.0923867865091315, 53.37629809611405], [-3.0926873597736533, 53.37629534445262], [-3.0926735534946266, 53.37575612706116], [-3.09297412291463, 53.37575337469686], [-3.0929695196556017, 53.37557363557284], [-3.093270087761126, 53.37557088246984], [-3.093279296858656, 53.375930360676286], [-3.0935798674446504, 53.37592760678077], [-3.0935660500776705, 53.37538838951632], [-3.093265483286625, 53.375391143358016], [-3.0932470658836935, 53.37467218685354], [-3.093848189296787, 53.37466667855697], [-3.093843582540019, 53.3744869394524], [-3.093543022123131, 53.374489693961046], [-3.0935384166807802, 53.374309954832825], [-3.0932378574792625, 53.37431270856695], [-3.0932332533513036, 53.37413296941506], [-3.0929326953651555, 53.37413572237467], [-3.09292809255156, 53.37395598319914], [-3.0926275357807858, 53.37395873538422], [-3.092622934281526, 53.37377899618504], [-3.092322378726125, 53.373781747595615], [-3.0922947783583195, 53.37270331217286], [-3.092595326324913, 53.37270056086979], [-3.0926045287792303, 53.373060039331115], [-3.0929050792259005, 53.373057287235625], [-3.092909681792059, 53.37323702643979], [-3.093210233454038, 53.373234273569814], [-3.09321944126444, 53.37359375192508], [-3.0935199954065444, 53.373590998262685], [-3.0935246006508303, 53.37377073741381], [-3.0938251560082515, 53.373767982976894], [-3.0938297625668985, 53.37394772210436], [-3.0941303191396363, 53.373944966892935], [-3.0941349270126715, 53.374124705996735], [-3.0947360425392207, 53.37411919326821], [-3.094740652991542, 53.37429893233038], [-3.095041211945337, 53.374296174813274], [-3.0950550473944256, 53.37483539191157], [-3.095355610093326, 53.374832633584], [-3.095364836503849, 53.37519211158497], [-3.0956654016830076, 53.37518935246485], [-3.0956700162276234, 53.37536909143879], [-3.095970582622116, 53.37536633154409], [-3.0959751984813106, 53.37554607049432], [-3.095674630821856, 53.375548830407006], [-3.095688474902263, 53.37608804727729], [-3.095989046356688, 53.37608528731069], [-3.0959982785217735, 53.376444765159654], [-3.096298852456613, 53.37644200440044], [-3.0962850004883866, 53.37590278767235], [-3.0965855705785303, 53.37590002621044], [-3.0965809520900924, 53.3757202873076], [-3.0980837954707074, 53.37570646873846], [-3.098065296714486, 53.37498751342981], [-3.097764733197568, 53.374990278584875], [-3.0977601098977416, 53.37481053972539], [-3.0974595475960314, 53.37481330410584], [-3.097450303675303, 53.37445382633369], [-3.097750863447218, 53.37445106198925], [-3.09774161719553, 53.3740915842302], [-3.0980421743879956, 53.37408881916514], [-3.09804679875385, 53.37426855802953], [-3.098347357161458, 53.37426579218988], [-3.0983566085720957, 53.374625269865454], [-3.0986571694597336, 53.37462250323319], [-3.0986756779375413, 53.375341458443565], [-3.0989762438351174, 53.375338690982595], [-3.0989808723439056, 53.375518429752844], [-3.0992814394566706, 53.375515661517255], [-3.0992953290765874, 53.37605487773958], [-3.0995958999345175, 53.37605210869326], [-3.0996051624600742, 53.3764115861101], [-3.1005068823251145, 53.37640327432304], [-3.1005161526401124, 53.37676275160873], [-3.10081672835888, 53.37675997946365], [-3.1008120919114144, 53.37658024084173], [-3.101413240669284, 53.37657469431768], [-3.101422518674278, 53.376934171483576], [-3.101723095508503, 53.37693139705045], [-3.101727735850894, 53.37711113560674], [-3.1026294698493526, 53.37710280771313], [-3.1026248257117492, 53.37692306921107], [-3.102324249027252, 53.37692584591419], [-3.102314963431953, 53.37656636885676], [-3.1020143892276337, 53.37656914476704], [-3.1020051063620646, 53.37620966765051], [-3.1017045346378826, 53.376212442768015], [-3.101699894544962, 53.37603270418309], [-3.101399324035893, 53.37603547852589], [-3.1013807692229944, 53.37531652405664], [-3.101681334672183, 53.375313749786095], [-3.101685974565543, 53.375493488393936], [-3.101986541229792, 53.37549071334871], [-3.101981900071484, 53.37531097475896], [-3.1025830307203646, 53.375305422434764], [-3.1025876744085674, 53.375485160988404], [-3.102888240923067, 53.3754823836733], [-3.1028928859261624, 53.375662122203096], [-3.1031934536556776, 53.375659344113295], [-3.1031980999736897, 53.37583908261927], [-3.1034986689182182, 53.375836303754724], [-3.103521907582744, 53.376734996108226], [-3.103822482802363, 53.376732216396555], [-3.10383178114812, 53.37709169326164], [-3.104132358847869, 53.37708891275711], [-3.104123057971993, 53.37672943592823], [-3.1044236330916184, 53.37672665470324], [-3.104414329885693, 53.37636717788767], [-3.1047149024252416, 53.37636439594227], [-3.1047102496322925, 53.376184657544], [-3.1053113920312696, 53.3761790914195], [-3.1053160473542376, 53.376358829781516], [-3.105616619743659, 53.37635604556618], [-3.105639903434601, 53.37725473719967], [-3.1059404820991934, 53.37725195213702], [-3.1059358239957846, 53.37707221383991], [-3.106236401345215, 53.377069428038716], [-3.1062317420268317, 53.37688968975403], [-3.1059311659424624, 53.37689247553706], [-3.105921849986076, 53.376532998914215], [-3.1062224235403644, 53.37653021316743], [-3.106213105254288, 53.376170736557945], [-3.1059125342300264, 53.37617352226844], [-3.1059032186743063, 53.375814045599746], [-3.104099806657347, 53.37583074375577], [-3.104090506481492, 53.37547126684668], [-3.1043910727461363, 53.375468485748485], [-3.104386421468263, 53.37528874730344], [-3.1040858564685614, 53.37529152838355], [-3.104057957440903, 53.37421309748441], [-3.104358514851232, 53.37421031651296], [-3.104367816856874, 53.37456979346604], [-3.104668376746931, 53.374567011701785], [-3.104673029089652, 53.3747467501516], [-3.1049735901945756, 53.37474396761264], [-3.1049782438522198, 53.37492370603862], [-3.1052788061720062, 53.37492092272493], [-3.1052834611446007, 53.37510066112706], [-3.105584024679251, 53.37509787703861], [-3.105588680966824, 53.37527761541689], [-3.1058892457163334, 53.37527483055371], [-3.1058985609715686, 53.37563430725678], [-3.10619912820089, 53.3756315216007], [-3.1062037871685932, 53.37581125992553], [-3.106504355612789, 53.375808473494686], [-3.1065136762284515, 53.37616795009081], [-3.1068142471525055, 53.376165162867025], [-3.1068189088005074, 53.37634490113836], [-3.107119480939443, 53.37634211313979], [-3.1071288069158687, 53.37670158962893], [-3.108030530621937, 53.37669322098438], [-3.10802119705537, 53.37633374460423], [-3.1083217689936733, 53.376330953579085], [-3.1082937619084303, 53.37525252441014], [-3.107993197559933, 53.37525531532623], [-3.1079838647961893, 53.37489583885441], [-3.1082844266148593, 53.374893047974666], [-3.108279759043354, 53.374713309748294], [-3.108580319546946, 53.37471051813012], [-3.1085756507607485, 53.37453077991622], [-3.1088762099492646, 53.37452798755963], [-3.108880880000341, 53.374707725755364], [-3.109181440403521, 53.37470493262399], [-3.1092001261696063, 53.375423885276795], [-3.1095006915822028, 53.37542109131606], [-3.10951003729652, 53.37578056757168], [-3.1098106051887737, 53.37577777281793], [-3.1098152793862703, 53.375957510918944], [-3.110115848493235, 53.37595471539035], [-3.110120524005974, 53.37613445346743], [-3.110421094327649, 53.37613165716401], [-3.1103930344155977, 53.375053228724816], [-3.1106935970972986, 53.37505043177404], [-3.110707630621828, 53.375589645964794], [-3.1110081970480157, 53.37558684820275], [-3.1109988387848313, 53.37522737211776], [-3.111599966426524, 53.37522177439672], [-3.1116093297494403, 53.37558125040882], [-3.1113087634238905, 53.37558404968411], [-3.111313443895903, 53.37576378769978], [-3.110712308563934, 53.37576938401691], [-3.110726342692043, 53.37630859813888], [-3.111026914178129, 53.37630580030397], [-3.1110503117228516, 53.37720449030149], [-3.1113508894837976, 53.37720169161882]], [[-3.1167424662818437, 53.37643223534326], [-3.116441894489062, 53.37643504757258], [-3.116437192310719, 53.37625530989041], [-3.116737762838505, 53.37625249767938], [-3.1167424662818437, 53.37643223534326]], [[-3.1164324901829334, 53.37607557220248], [-3.1161319208695697, 53.37607838363856], [-3.116127220057311, 53.3758986459266], [-3.116427788105707, 53.37589583450883], [-3.1164324901829334, 53.37607557220248]], [[-3.087263295486272, 53.375805540233316], [-3.0863615842650858, 53.375813751927794], [-3.0863432828433988, 53.375094793824765], [-3.0866438482397602, 53.37509205742118], [-3.0866346952942076, 53.37473257837098], [-3.086334132427722, 53.37473531473892], [-3.086329557293671, 53.37455557518743], [-3.0866301188952416, 53.374552838837296], [-3.0866255425454816, 53.37437309929788], [-3.087226663071185, 53.37436762436346], [-3.087263295486272, 53.375805540233316]], [[-3.1004790725762303, 53.37532484232854], [-3.1001785069276213, 53.37532761357259], [-3.1001738734088375, 53.375147874868745], [-3.099873308975348, 53.37515064533814], [-3.0998547804580263, 53.37443169039332], [-3.099554221034356, 53.37443446003395], [-3.099549590294408, 53.3742547212654], [-3.100150706562202, 53.37424918126359], [-3.1001553398318937, 53.374428919996085], [-3.100455899155943, 53.37442614884227], [-3.1004605337403364, 53.374605887550956], [-3.1007610942794392, 53.3746031156225], [-3.100775002126342, 53.37514233166009], [-3.1004744377925064, 53.37514510364273], [-3.1004790725762303, 53.37532484232854]], [[-3.0923637826164927, 53.375399400343376], [-3.091762648589046, 53.37540490121715], [-3.091744256484855, 53.37468594435432], [-3.0920448184635525, 53.374683194367385], [-3.0920540169466206, 53.37504267277443], [-3.092354581405714, 53.375039921995054], [-3.0923637826164927, 53.375399400343376]], [[-3.1149014693538715, 53.375011195019695], [-3.1143003453507525, 53.37501680934956], [-3.1142956524310845, 53.37483707149344], [-3.1136945307559154, 53.37484268276037], [-3.113675769700683, 53.374123731132414], [-3.1139763255040562, 53.37412092595032], [-3.1139810169570583, 53.374300663847656], [-3.1142815739748264, 53.374297857890724], [-3.114286266743122, 53.37447759576402], [-3.114586824975286, 53.37447478903222], [-3.1145962131929896, 53.374834264725095], [-3.114896773904422, 53.37483145720015], [-3.1149014693538715, 53.375011195019695]], [[-3.111590603304958, 53.374862298361705], [-3.111290042039084, 53.374865097564054], [-3.1112853618186898, 53.374685359519724], [-3.111585921819679, 53.37468256033559], [-3.111590603304958, 53.374862298361705]], [[-3.091744256484855, 53.37468594435432], [-3.0911431323791647, 53.374691442058385], [-3.091138537006523, 53.374511702792574], [-3.091739658582404, 53.37450620512431], [-3.091744256484855, 53.37468594435432]], [[-3.104057957440903, 53.37421309748441], [-3.1034568424702793, 53.37421865715751], [-3.1034521953370153, 53.37403891861807], [-3.10405330777794, 53.37403335898115], [-3.104057957440903, 53.37421309748441]], [[-3.0890116780835633, 53.3736322237578], [-3.088711123200373, 53.37363496607149], [-3.088697368475536, 53.373095747724875], [-3.0889979195642794, 53.37309300546476], [-3.0890116780835633, 53.3736322237578]], [[-3.092891271824333, 53.372518069588835], [-3.0925907251719607, 53.37252082163054], [-3.092581523014464, 53.37216134313489], [-3.0928820671373707, 53.37215859112902], [-3.0928774648681134, 53.37197885189053], [-3.093178007676827, 53.371976099146046], [-3.0931872147942614, 53.37233557758146], [-3.0928866694561106, 53.37233833036178], [-3.092891271824333, 53.372518069588835]], [[-3.097991309645006, 53.37211169127896], [-3.097390223035565, 53.37211722025641], [-3.097380980605544, 53.37175774231248], [-3.09798206215621, 53.37175221340704], [-3.097991309645006, 53.37211169127896]], [[-3.093478550436046, 53.371973345645024], [-3.093178007676827, 53.371976099146046], [-3.093173404192352, 53.37179635991975], [-3.093473945686875, 53.37179360643666], [-3.093478550436046, 53.371973345645024]], [[-3.1193203275682775, 53.37155397674822], [-3.1187192531431767, 53.37155961307869], [-3.1187145422126714, 53.37137987538825], [-3.1190150781859303, 53.37137705761961], [-3.1190103660414654, 53.37119731994179], [-3.119310900699457, 53.37119450143499], [-3.1193203275682775, 53.37155397674822]], [[-3.1111964471914644, 53.37127033558795], [-3.1108959111703958, 53.3712731336693], [-3.1108771996742037, 53.370554180926], [-3.1111777306368973, 53.37055138291755], [-3.1111824097000795, 53.37073112109375], [-3.111482941877041, 53.37072832231056], [-3.111492302683509, 53.37108779860933], [-3.1111917679773624, 53.37109059742893], [-3.1111964471914644, 53.37127033558795]], [[-3.0979728148662597, 53.37139273551221], [-3.0976722766451066, 53.3713955003072], [-3.0976676543393413, 53.37121576133318], [-3.0979681912958483, 53.37121299655622], [-3.0979728148662597, 53.37139273551221]], [[-3.0982687282026475, 53.37121023102272], [-3.0979681912958483, 53.37121299655622], [-3.0979635677751474, 53.37103325759447], [-3.098264103417314, 53.371030492078994], [-3.0982687282026475, 53.37121023102272]], [[-3.1180663888856666, 53.369588131069314], [-3.117465341875731, 53.3695937609445], [-3.1174559312952814, 53.369234285285], [-3.1177564522966126, 53.3692314707623], [-3.117751745817816, 53.36905173294226], [-3.118052265504101, 53.36904891768144], [-3.1180475578114706, 53.36886917987401], [-3.1183480761827096, 53.36886636387508], [-3.1183527851397743, 53.36904610166419], [-3.118653304724824, 53.36904328489049], [-3.1186627253197337, 53.36940276041479], [-3.1180616810411994, 53.3694083932791], [-3.1180663888856666, 53.369588131069314]]]}, "properties": {"kind": "max_footprint", "threshold_pct": 4.0}}, {"type": "Feature", "geometry": {"type": "Polygon", "coordinates": [[[-3.1144225638398035, 53.36818396069373], [-3.1144178715726594, 53.36800422263797], [-3.1147183842283255, 53.36800141580761], [-3.114708997316661, 53.36764193971547], [-3.114107977012302, 53.367647552546664], [-3.114117358866549, 53.368007028711915], [-3.1138168461100095, 53.36800983402944], [-3.113821535848403, 53.36818957212174], [-3.1144225638398035, 53.36818396069373]]]}, "properties": {"kind": "max_footprint", "threshold_pct": 4.0}}, {"type": "Feature", "geometry": {"type": "Polygon", "coordinates": [[[-3.1077299561034075, 53.37669601128919], [-3.107725290560066, 53.37651627308384], [-3.1080258638135634, 53.37651348279717], [-3.108011863689518, 53.37597426820117], [-3.1077112942310277, 53.37597705843332], [-3.1077066288883417, 53.37579732020502], [-3.106804924006873, 53.37580568630721], [-3.1068142471525055, 53.376165162867025], [-3.107114818026437, 53.376162374886626], [-3.1071241439025865, 53.37652185138723], [-3.1074247172564022, 53.37651906261386], [-3.107429381534715, 53.3766988008374], [-3.1077299561034075, 53.37669601128919]]]}, "properties": {"kind": "max_footprint", "threshold_pct": 7.0}}, {"type": "Feature", "geometry": {"type": "Polygon", "coordinates": [[[-3.087267874759719, 53.37598527969129], [-3.087263295486272, 53.375805540233316], [-3.0869627251284295, 53.375808278221456], [-3.0869673031368654, 53.37598801769725], [-3.087267874759719, 53.37598527969129]]]}, "properties": {"kind": "max_footprint", "threshold_pct": 7.0}}, {"type": "Feature", "geometry": {"type": "Polygon", "coordinates": [[[-3.1173247861259634, 53.37570765807134], [-3.1173153746346984, 53.375348182765244], [-3.117615938685965, 53.37534536837594], [-3.1176065248672784, 53.37498589308358], [-3.117305963345819, 53.3749887074362], [-3.117310668964961, 53.37516844510359], [-3.117010106128008, 53.375171258717955], [-3.1170148105328335, 53.375350996397934], [-3.116413682177371, 53.37535662139344], [-3.116418384102927, 53.375536359104316], [-3.1170195149882423, 53.37553073407214], [-3.1170242194942346, 53.37571047174065], [-3.1173247861259634, 53.37570765807134]]]}, "properties": {"kind": "max_footprint", "threshold_pct": 7.0}}, {"type": "Feature", "geometry": {"type": "Polygon", "coordinates": [[[-3.091762648589046, 53.37540490121715], [-3.0917580504888407, 53.37522516201005], [-3.0914574846659084, 53.375227911294076], [-3.0914528878800884, 53.37504817206332], [-3.0911523232726785, 53.375050920572846], [-3.0911615143638382, 53.37541039906443], [-3.091762648589046, 53.37540490121715]]]}, "properties": {"kind": "max_footprint", "threshold_pct": 7.0}}, {"type": "Feature", "geometry": {"type": "Polygon", "coordinates": [[[-3.1103930344155977, 53.375053228724816], [-3.1103883579395815, 53.37487349063156], [-3.1100877964725, 53.37487628680751], [-3.1100924716836156, 53.375056024918976], [-3.1103930344155977, 53.375053228724816]]]}, "properties": {"kind": "max_footprint", "threshold_pct": 7.0}}, {"type": "Feature", "geometry": {"type": "Polygon", "coordinates": [[[-3.074926288665779, 53.37537795670789], [-3.074921761453083, 53.37519821650008], [-3.0746211941482273, 53.375200923395134], [-3.0746257200959377, 53.375380663620554], [-3.074926288665779, 53.37537795670789]]]}, "properties": {"kind": "max_footprint", "threshold_pct": 7.0}}, {"type": "Feature", "geometry": {"type": "Polygon", "coordinates": [[[-3.0755228959167504, 53.375192800440075], [-3.0755183662227887, 53.37501306026181], [-3.0752178002802726, 53.37501576865251], [-3.075222328709262, 53.37519550884839], [-3.0755228959167504, 53.375192800440075]]]}, "properties": {"kind": "max_footprint", "threshold_pct": 7.0}}, {"type": "Feature", "geometry": {"type": "Polygon", "coordinates": [[[-3.096261914867592, 53.37500409301104], [-3.096252680966776, 53.37464461510641], [-3.09595211968163, 53.37464737568585], [-3.0959613510526145, 53.375006853626424], [-3.096261914867592, 53.37500409301104]]]}, "properties": {"kind": "max_footprint", "threshold_pct": 7.0}}, {"type": "Feature", "geometry": {"type": "Polygon", "coordinates": [[[-3.1073967326396934, 53.375440633152245], [-3.1073874048353125, 53.375081156619196], [-3.1076879680192233, 53.3750783672345], [-3.1076786378856256, 53.37471889071486], [-3.1079791984895766, 53.37471610060988], [-3.107974532233134, 53.37453636235963], [-3.1073734135048365, 53.37454194177664], [-3.1073780772315165, 53.37472168006322], [-3.1064763949683765, 53.37473004356874], [-3.1064810549505126, 53.37490978190407], [-3.1061804928310095, 53.37491256824419], [-3.106194469283282, 53.37545178327018], [-3.1073967326396934, 53.375440633152245]]]}, "properties": {"kind": "max_footprint", "threshold_pct": 7.0}}, {"type": "Feature", "geometry": {"type": "Polygon", "coordinates": [[[-3.09595211968163, 53.37464737568585], [-3.0959475040705793, 53.374467636706996], [-3.0956469440006997, 53.37447039651185], [-3.095651558346855, 53.37465013550868], [-3.09595211968163, 53.37464737568585]]]}, "properties": {"kind": "max_footprint", "threshold_pct": 7.0}}, {"type": "Feature", "geometry": {"type": "Polygon", "coordinates": [[[-3.1041137572961297, 53.37636995907643], [-3.104109107033201, 53.37619022064194], [-3.1047102496322925, 53.376184657544], [-3.1047009441964764, 53.375825180730295], [-3.1037992378127757, 53.375833524133554], [-3.1037666969267486, 53.37457535472477], [-3.1034661368867074, 53.37457813421922], [-3.1034568424702793, 53.37421865715751], [-3.103156284910012, 53.374221435859205], [-3.1031516390415974, 53.374041697301664], [-3.102249969855691, 53.37405002881292], [-3.10225461192955, 53.374229767424715], [-3.102555169639634, 53.37422699099281], [-3.1025737434937435, 53.374945945310365], [-3.1028743062134447, 53.374943168049526], [-3.102888240923067, 53.3754823836733], [-3.103188807387623, 53.375479605601576], [-3.1031934536556776, 53.375659344113295], [-3.103494021335235, 53.37565656526685], [-3.1035079642341064, 53.37619578071332], [-3.1038085356586476, 53.376193001055945], [-3.103813184656564, 53.37637273950857], [-3.1041137572961297, 53.37636995907643]]]}, "properties": {"kind": "max_footprint", "threshold_pct": 7.0}}, {"type": "Feature", "geometry": {"type": "Polygon", "coordinates": [[[-3.107969866026866, 53.37435662410364], [-3.107960533764838, 53.37399714757449], [-3.107659978220325, 53.37399993760679], [-3.1076646430614163, 53.3741796758924], [-3.1073640862019096, 53.37418246518628], [-3.107368749828301, 53.37436220348433], [-3.107969866026866, 53.37435662410364]]]}, "properties": {"kind": "max_footprint", "threshold_pct": 7.0}}, {"type": "Feature", "geometry": {"type": "Polygon", "coordinates": [[[-3.075800808768051, 53.37429139041489], [-3.075791747386065, 53.37393191003077], [-3.075491189081787, 53.37393461907225], [-3.0755002479339817, 53.374294099491635], [-3.075800808768051, 53.37429139041489]]]}, "properties": {"kind": "max_footprint", "threshold_pct": 7.0}}, {"type": "Feature", "geometry": {"type": "Polygon", "coordinates": [[[-3.0872175054597477, 53.37400814533879], [-3.087212926727875, 53.373828405817875], [-3.0866118137914236, 53.37383388064534], [-3.0866163899935732, 53.37401362020192], [-3.0872175054597477, 53.37400814533879]]]}, "properties": {"kind": "max_footprint", "threshold_pct": 7.0}}, {"type": "Feature", "geometry": {"type": "Polygon", "coordinates": [[[-3.0745985651396226, 53.3743022221822], [-3.0745895138768073, 53.37394274165704], [-3.0748900723271446, 53.37394003488537], [-3.074881018729226, 53.3735805543726], [-3.0745804628086284, 53.373583261109005], [-3.0745849883183882, 53.373763001385875], [-3.07428443108427, 53.37376570738333], [-3.0742980041108305, 53.37430492823252], [-3.0745985651396226, 53.3743022221822]]]}, "properties": {"kind": "max_footprint", "threshold_pct": 7.0}}, {"type": "Feature", "geometry": {"type": "Polygon", "coordinates": [[[-3.0884105682678853, 53.3736377076286], [-3.088405984575141, 53.37345796816761], [-3.0881054308581994, 53.3734607089503], [-3.088110013286112, 53.37364044842913], [-3.0884105682678853, 53.3736377076286]]]}, "properties": {"kind": "max_footprint", "threshold_pct": 7.0}}, {"type": "Feature", "geometry": {"type": "Polygon", "coordinates": [[[-3.07972628429793, 53.374975063346376], [-3.0797126423808643, 53.374435843519585], [-3.080313765163423, 53.374430403389084], [-3.0803228647856096, 53.37478988320846], [-3.0806234286333654, 53.37478716197285], [-3.0805915719575543, 53.373528982628955], [-3.0796899068302572, 53.37353714369393], [-3.0796853598668044, 53.37335740371164], [-3.079384805991416, 53.37336012253575], [-3.0793984432338837, 53.37389934251858], [-3.079699000903829, 53.37389662364134], [-3.079708095172962, 53.37425610356589], [-3.079106974724649, 53.37426154063457], [-3.0791115194027383, 53.374441280623664], [-3.078810957840371, 53.37444399804078], [-3.0788155013024037, 53.374623738041876], [-3.079116064129693, 53.37462102060705], [-3.0791206089055136, 53.374800760584726], [-3.0794211729488703, 53.37479804237559], [-3.079425719038505, 53.37497778232984], [-3.07972628429793, 53.374975063346376]]]}, "properties": {"kind": "max_footprint", "threshold_pct": 7.0}}, {"type": "Feature", "geometry": {"type": "Polygon", "coordinates": [[[-3.0751815746011513, 53.373577846879584], [-3.0751770466103494, 53.373398106632266], [-3.0748764920032725, 53.37340081410763], [-3.074881018729226, 53.3735805543726], [-3.0751815746011513, 53.373577846879584]]]}, "properties": {"kind": "max_footprint", "threshold_pct": 7.0}}, {"type": "Feature", "geometry": {"type": "Polygon", "coordinates": [[[-3.10673966760078, 53.37328934974656], [-3.1067303460588898, 53.37292987300336], [-3.106129249696222, 53.372935446040984], [-3.1061385661790415, 53.37329492285678], [-3.10673966760078, 53.37328934974656]]]}, "properties": {"kind": "max_footprint", "threshold_pct": 7.0}}, {"type": "Feature", "geometry": {"type": "Polygon", "coordinates": [[[-3.0923085783196567, 53.37324252990999], [-3.0923039782830872, 53.37306279067002], [-3.0920034277374873, 53.373065541252366], [-3.092008026509262, 53.37324528051026], [-3.0923085783196567, 53.37324252990999]]]}, "properties": {"kind": "max_footprint", "threshold_pct": 7.0}}, {"type": "Feature", "geometry": {"type": "Polygon", "coordinates": [[[-3.079384805991416, 53.37336012253575], [-3.079380260341675, 53.37318038253006], [-3.0787791549739385, 53.37318581787313], [-3.078783698094027, 53.373365557914234], [-3.079384805991416, 53.37336012253575]]]}, "properties": {"kind": "max_footprint", "threshold_pct": 7.0}}, {"type": "Feature", "geometry": {"type": "Polygon", "coordinates": [[[-3.119653869194753, 53.372809320735236], [-3.119649154115541, 53.37262958314001], [-3.11934860939099, 53.37263240255017], [-3.1193533232054858, 53.372812140163745], [-3.119653869194753, 53.372809320735236]]]}, "properties": {"kind": "max_footprint", "threshold_pct": 7.0}}, {"type": "Feature", "geometry": {"type": "Polygon", "coordinates": [[[-3.085746724654815, 53.37528000393202], [-3.0857330065471813, 53.37474078520496], [-3.085432443533158, 53.37474351930306], [-3.0854278721938644, 53.37456377969812], [-3.0851273103956087, 53.374566513021826], [-3.0851227403703736, 53.37438677339336], [-3.084822179787887, 53.37438950594264], [-3.0848130424146007, 53.374030026633], [-3.0851136004673134, 53.374027294119315], [-3.0850998909812364, 53.37348807516532], [-3.084799336723083, 53.37349080762564], [-3.084781063155398, 53.37277184886908], [-3.084179964610197, 53.37277731137768], [-3.0842119261618244, 53.37403548939061], [-3.08361080971267, 53.37404094912182], [-3.083615373315225, 53.374220688850635], [-3.0839159328292256, 53.37421795934554], [-3.083920497745744, 53.37439769905086], [-3.084221058475559, 53.37439496877139], [-3.084230190985678, 53.374754448129295], [-3.084530754196229, 53.374751717057656], [-3.084535321789869, 53.37493145671025], [-3.085136450593493, 53.374925992261545], [-3.0851410207661423, 53.375105731872836], [-3.0854415863591997, 53.37510299849575], [-3.08544615784595, 53.37528273808352], [-3.085746724654815, 53.37528000393202]]]}, "properties": {"kind": "max_footprint", "threshold_pct": 7.0}}, {"type": "Feature", "geometry": {"type": "Polygon", "coordinates": [[[-3.0884014009316796, 53.37327822870088], [-3.0883876502969856, 53.37273901026638], [-3.0877865529322204, 53.372744490932426], [-3.087791133898282, 53.372924230452014], [-3.088091683870076, 53.37292149047942], [-3.088100848479558, 53.37328096946572], [-3.0884014009316796, 53.37327822870088]]]}, "properties": {"kind": "max_footprint", "threshold_pct": 7.0}}, {"type": "Feature", "geometry": {"type": "Polygon", "coordinates": [[[-3.0908563528717834, 53.37523340759229], [-3.0908425702521978, 53.37469418977549], [-3.0911431323791647, 53.374691442058385], [-3.091138537006523, 53.374511702792574], [-3.0914390978191757, 53.37450895433675], [-3.0914345012310505, 53.3743292150831], [-3.091735060729388, 53.374326465888565], [-3.091730462925807, 53.37414672664711], [-3.092031021109831, 53.37414397671389], [-3.0920264220908225, 53.37396423748461], [-3.0926275357807858, 53.37395873538422], [-3.092622934281526, 53.37377899618504], [-3.092322378726125, 53.373781747595615], [-3.0923177785411755, 53.3736020083728], [-3.091716669811676, 53.373607508888384], [-3.0917120722058327, 53.37342776962403], [-3.0914115190317495, 53.373430518729045], [-3.091406922740149, 53.37325077944107], [-3.091106370781458, 53.37325352777162], [-3.091115560884444, 53.37361300637765], [-3.090213897123087, 53.3736212469372], [-3.090204714609014, 53.37326176822384], [-3.089904162452789, 53.373264513528106], [-3.0898949826657582, 53.37290503475612], [-3.0895944329897698, 53.37290777926808], [-3.0895760790668985, 53.37218882158395], [-3.0892755344005907, 53.37219156526787], [-3.089270947307926, 53.37201182581469], [-3.089571490709513, 53.3720090821486], [-3.0895669024014585, 53.37182934270755], [-3.089266360264578, 53.371832086355745], [-3.0892617732705476, 53.371652346891096], [-3.0889612323490416, 53.371655089764886], [-3.08897040385702, 53.37201456872419], [-3.0886698603568115, 53.372017310877176], [-3.0886927836658504, 53.37291600826457], [-3.0889933334898023, 53.37291326602231], [-3.089002505688065, 53.37327274490151], [-3.0893030579923004, 53.37327000186693], [-3.0893076454302095, 53.37344974128009], [-3.0896081989499393, 53.3734469974711], [-3.0896127877020008, 53.37362673686066], [-3.08991334243722, 53.37362399227722], [-3.0899225226190574, 53.37398347100343], [-3.090523637000816, 53.373977979495294], [-3.090555786900616, 53.37523615460646], [-3.0908563528717834, 53.37523340759229]]]}, "properties": {"kind": "max_footprint", "threshold_pct": 7.0}}, {"type": "Feature", "geometry": {"type": "Polygon", "coordinates": [[[-3.0956423297041575, 53.374290657509285], [-3.09563310125991, 53.37393117948698], [-3.0962342137608374, 53.37392565922851], [-3.09622959708345, 53.373745920244716], [-3.0965301519946222, 53.37374315899857], [-3.096520916259122, 53.373383681049766], [-3.0968214685910067, 53.37338091908303], [-3.096816849532934, 53.37320118011801], [-3.096516298465846, 53.37320394206677], [-3.096507063028241, 53.37284446408361], [-3.096206514441061, 53.372847225239866], [-3.0962157473491096, 53.37320670325899], [-3.095915196182737, 53.37320946369461], [-3.0959059658042474, 53.372849985639554], [-3.0953048683817728, 53.372855504169245], [-3.0953002557964764, 53.372675765097185], [-3.094999708275603, 53.372678523209224], [-3.0949858746114725, 53.37213930590482], [-3.094685330835222, 53.372142063206475], [-3.094676111169753, 53.37178258493901], [-3.094976652416603, 53.371779827673286], [-3.094972041393531, 53.37160008854892], [-3.094070421298353, 53.37160835802266], [-3.094075028527383, 53.371788097200906], [-3.0937744871318893, 53.37179085219704], [-3.0938021239579383, 53.37286928725374], [-3.0941026729418093, 53.37286653214995], [-3.094107280517597, 53.373046271288096], [-3.094407830716705, 53.373043515409805], [-3.0944124396068218, 53.373223254524284], [-3.094712991021167, 53.37322049787147], [-3.0947222114796804, 53.37357997604735], [-3.0950227653740767, 53.37357721860207], [-3.0950273769425176, 53.37375695766346], [-3.0947268217832904, 53.373759715126695], [-3.094731432136471, 53.37393945420031], [-3.0950319885605397, 53.37393669671913], [-3.095041211945337, 53.374296174813274], [-3.0956423297041575, 53.374290657509285]]]}, "properties": {"kind": "max_footprint", "threshold_pct": 7.0}}, {"type": "Feature", "geometry": {"type": "Polygon", "coordinates": [[[-3.1013529384998844, 53.37423809218092], [-3.101339023811596, 53.37369887616574], [-3.101038469696472, 53.373701649517116], [-3.1010291960165715, 53.37334217210889], [-3.1007286443812103, 53.37334494466758], [-3.100714738029584, 53.37280572845815], [-3.1001136421980044, 53.37281127119756], [-3.1001229079901758, 53.373170748748436], [-3.099822357470125, 53.373173519019396], [-3.0998177258139097, 53.372993780228796], [-3.0995171765088374, 53.372996549725144], [-3.0995125461671833, 53.37281681091076], [-3.0989114499372277, 53.37282234759776], [-3.098906822174861, 53.37264260874161], [-3.099808462650874, 53.372634302630374], [-3.09980383114405, 53.372454563822586], [-3.100104376605078, 53.372451793623775], [-3.1000951112113864, 53.37209231602707], [-3.0997945682797896, 53.372095086189795], [-3.099785305614706, 53.371735608534124], [-3.0994847651626927, 53.37173837790426], [-3.0994755052261045, 53.371378900189605], [-3.0985738911594214, 53.37138720365271], [-3.098578517308858, 53.37156694256697], [-3.098277977922481, 53.37156970889298], [-3.098291852875165, 53.372108925655446], [-3.097991309645006, 53.37211169127896], [-3.0979959334639724, 53.37229143020636], [-3.0976953889193886, 53.37229419509135], [-3.097704634176995, 53.372653672964915], [-3.0980051812510476, 53.37265090804392], [-3.0980098052191565, 53.37283064695412], [-3.0974087084918414, 53.37283617607558], [-3.09739946566433, 53.37247669817746], [-3.0970989197556302, 53.372479461567366], [-3.0971127802771634, 53.37301867845995], [-3.0974133299801303, 53.373015915016055], [-3.0974225731057743, 53.37337539287982], [-3.0977231252886295, 53.37337262864337], [-3.0977277481907968, 53.37355236754866], [-3.0986294082355057, 53.37354407024587], [-3.0986340349818415, 53.373723809091395], [-3.09923514395925, 53.37371827373729], [-3.099239773284999, 53.37389801254106], [-3.099840884592976, 53.373892474124574], [-3.0998455164981906, 53.37407221288655], [-3.10044663013665, 53.374066671407654], [-3.1004373613166734, 53.37370719395015], [-3.1007379155314925, 53.37370442211192], [-3.100747186881142, 53.37406389953333], [-3.1010477435757915, 53.37406112690242], [-3.101052380590237, 53.374240865586486], [-3.1013529384998844, 53.37423809218092]], [[-3.1004373613166734, 53.37370719395015], [-3.1001368070520243, 53.373709965031814], [-3.1001321739815952, 53.37353022627641], [-3.1004327269814262, 53.37352745521281], [-3.1004373613166734, 53.37370719395015]]]}, "properties": {"kind": "max_footprint", "threshold_pct": 7.0}}, {"type": "Feature", "geometry": {"type": "Polygon", "coordinates": [[[-3.1012972824395604, 53.37208122781085], [-3.1012787320151025, 53.371362272837544], [-3.1009781943415056, 53.37136504595418], [-3.100982830608178, 53.37154478472414], [-3.100682291620082, 53.371547557102296], [-3.1006915617736226, 53.37190703466119], [-3.1009921032910626, 53.37190426224692], [-3.1009967397072757, 53.372084000999706], [-3.1012972824395604, 53.37208122781085]]]}, "properties": {"kind": "max_footprint", "threshold_pct": 7.0}}, {"type": "Feature", "geometry": {"type": "Polygon", "coordinates": [[[-3.1012740945336383, 53.37118253407989], [-3.101269457102034, 53.37100279531649], [-3.1009689219576977, 53.37100556839702], [-3.100973558124679, 53.37118530717845], [-3.1012740945336383, 53.37118253407989]]]}, "properties": {"kind": "max_footprint", "threshold_pct": 7.0}}, {"type": "Feature", "geometry": {"type": "Polygon", "coordinates": [[[-3.105579368441742, 53.374918138654614], [-3.1055654000296005, 53.37437892346825], [-3.1052648415545203, 53.37438170748417], [-3.105255532059774, 53.37402223062833], [-3.1058566439004647, 53.37401666191243], [-3.105847329546607, 53.373657185106204], [-3.1055467761809394, 53.37365996980618], [-3.105542120343922, 53.37348023137635], [-3.1052415681930006, 53.3734830153016], [-3.1052369136708338, 53.37330327684791], [-3.104635811748453, 53.37330884239252], [-3.1046311598058853, 53.37312910389686], [-3.1043306100344426, 53.3731318855162], [-3.104325959406658, 53.372952146996695], [-3.1040254108499785, 53.37295492784139], [-3.104016112273904, 53.372595450748946], [-3.104617204278279, 53.37258988837547], [-3.104612552535771, 53.37241014985689], [-3.1049130971982204, 53.37240736755345], [-3.104903791333836, 53.3720478905353], [-3.105204333416853, 53.37204510751157], [-3.1051950252232188, 53.37168563050677], [-3.104894485669553, 53.371688413494255], [-3.104889832912448, 53.37150867496513], [-3.1045892945734157, 53.37151145717798], [-3.1045660378612996, 53.37061276435587], [-3.104265505795338, 53.37061554572164], [-3.104270155773157, 53.370795284315655], [-3.103969622392613, 53.370798064943045], [-3.103974271155824, 53.37097780354941], [-3.1036737364606974, 53.37098058343843], [-3.103678384009271, 53.37116032205717], [-3.103377847999559, 53.371163101207785], [-3.103391787151146, 53.37170231708393], [-3.1030912472975416, 53.371705095532306], [-3.103095892516642, 53.37188483416433], [-3.1027953513484223, 53.371887611874264], [-3.102799995352777, 53.37206735051865], [-3.102499452869938, 53.37207012749015], [-3.1025040956595227, 53.37224986614689], [-3.1022035518620656, 53.37225264237992], [-3.1022267602350375, 53.373151335668034], [-3.1025273103562117, 53.37314855934458], [-3.102531953445309, 53.37332829796696], [-3.1028325047813454, 53.37332552086886], [-3.102841793638913, 53.37368499806022], [-3.1031423474546225, 53.37368222016942], [-3.1031516390415974, 53.374041697301664], [-3.104353863923422, 53.37403057802782], [-3.104358514851232, 53.37421031651296], [-3.1046590722115543, 53.37420753478494], [-3.104668376746931, 53.374567011701785], [-3.1049689365869675, 53.37456422918093], [-3.1049735901945756, 53.37474396761264], [-3.1052741512494615, 53.37474118431706], [-3.1052788061720062, 53.37492092272493], [-3.105579368441742, 53.374918138654614]]]}, "properties": {"kind": "max_footprint", "threshold_pct": 7.0}}, {"type": "Feature", "geometry": {"type": "Polygon", "coordinates": [[[-3.118837042868595, 53.37605305347519], [-3.118832330671649, 53.37587331592818], [-3.119132898264536, 53.37587049770079], [-3.1191281848533055, 53.375690760166364], [-3.1200298835329905, 53.37568230099957], [-3.1200204492730133, 53.37532282602373], [-3.119719885627005, 53.37532564646589], [-3.1197151698379986, 53.37514590895098], [-3.120316294549487, 53.3751402673468], [-3.120321012868303, 53.375320004824985], [-3.1206215764128604, 53.3753171828696], [-3.120612137296167, 53.3749577079443], [-3.1200110152159097, 53.374963351024924], [-3.1200062982634327, 53.37478361351691], [-3.1197057384121, 53.374786433903985], [-3.1197104540996983, 53.374966171430344], [-3.119409892932782, 53.37496899107917], [-3.1193910355460392, 53.37425004086583], [-3.119691591653521, 53.374247221290446], [-3.119696307189013, 53.374426958834015], [-3.12119909328982, 53.374412849516574], [-3.1212038152002584, 53.37459258696255], [-3.121504373533014, 53.37458976281093], [-3.1215138200359385, 53.374949237648856], [-3.1218143808476437, 53.37494641270386], [-3.12181910544017, 53.37512615009584], [-3.122119667465964, 53.37512332437584], [-3.122124393374191, 53.37530306174367], [-3.1209221399066727, 53.37531436015763], [-3.120926860806055, 53.37549409759328], [-3.121227425514023, 53.37549127410633], [-3.1212321477290925, 53.37567101151785], [-3.1224344111128044, 53.375659709930304], [-3.1224296838380226, 53.37547997259235], [-3.1233313770473767, 53.37547148851249], [-3.123326646028689, 53.37529175122405], [-3.123627209065177, 53.37528892170263], [-3.123622476832461, 53.37510918442687], [-3.124524161841897, 53.37510069137831], [-3.124519425865418, 53.37492095415212], [-3.1251205464206966, 53.37491528837366], [-3.125111069561063, 53.37455581397782], [-3.126313299941279, 53.374544473489486], [-3.126308556528537, 53.37436473635681], [-3.126609112731287, 53.374361899361745], [-3.1266043681047253, 53.374182162241794], [-3.126904922991641, 53.37417932450864], [-3.126900177151285, 53.37399958740146], [-3.127200730722369, 53.373996748930196], [-3.127195983668247, 53.373817011835726], [-3.128097640280832, 53.37380849193806], [-3.128092889483416, 53.373628754893325], [-3.1283934403206928, 53.37362591343282], [-3.128388688309595, 53.37344617640087], [-3.1289897873013364, 53.37344049124722], [-3.1289850328118347, 53.37326075424652], [-3.1295861290696076, 53.37325506610371], [-3.12958137210176, 53.37307532913432], [-3.1298819188892035, 53.37307248394663], [-3.1298771607077818, 53.37289274699003], [-3.130177706179351, 53.37288990106433], [-3.130172946784383, 53.372710164120505], [-3.1304734909400773, 53.37270731745681], [-3.1304687303315917, 53.3725275805258], [-3.1307692731714134, 53.37252473312411], [-3.1307597495786545, 53.372165259281914], [-3.1310602898379445, 53.3721624111608], [-3.131046001038868, 53.37162320041007], [-3.130745464573478, 53.371626048475555], [-3.1307359414926603, 53.37126657457593], [-3.130134873466715, 53.371272268363235], [-3.130130114532255, 53.371092531367744], [-3.12982958170711, 53.37109537710815], [-3.1298248240883804, 53.370915640088356], [-3.129524292476653, 53.37091848505374], [-3.129519536173629, 53.37073874800971], [-3.129219005775321, 53.37074159220009], [-3.129214250787974, 53.370561855131804], [-3.1286131923670952, 53.37056754120613], [-3.1286084399599265, 53.370387804095046], [-3.1280073838637343, 53.37039348710648], [-3.1280026340366938, 53.37021374995267], [-3.1274015802652775, 53.370219429901255], [-3.127396833018313, 53.37003969270474], [-3.1267957815717584, 53.370045369590514], [-3.126791036904816, 53.36986563235127], [-3.1258894631459295, 53.369874141951094], [-3.1258847223234394, 53.36969440465069], [-3.1255841988996735, 53.36969723965261], [-3.125579459392621, 53.369517502327994], [-3.1246778926090615, 53.36952600273969], [-3.1246731569463333, 53.36934626535401], [-3.124072114698294, 53.369351928476036], [-3.1240673816153675, 53.36917219104773], [-3.1234663416926836, 53.36917785110716], [-3.1234616111895086, 53.36899811363625], [-3.122259535791708, 53.3690094246042], [-3.122254810397078, 53.368829687053925], [-3.121052739244149, 53.36884098584538], [-3.1210480189579646, 53.36866124821579], [-3.1195454351971805, 53.36867535459363], [-3.119540721283748, 53.36849561686644], [-3.1186391742122455, 53.368504071560984], [-3.1186438843324678, 53.368683809343224], [-3.118944401338028, 53.36868099184979], [-3.11896324738305, 53.369399942847956], [-3.1186627253197337, 53.36940276041479], [-3.1186674356931503, 53.36958249816833], [-3.1183669123147224, 53.36958531499704], [-3.118371621474291, 53.3697650527632], [-3.1186721461172064, 53.36976223591614], [-3.1186768565919043, 53.369941973658214], [-3.1171742265486793, 53.36995605042064], [-3.1171789307514417, 53.37013578824863], [-3.1168784033265005, 53.370138601350035], [-3.1168831063153077, 53.37031833919061], [-3.116582577575274, 53.370321151553874], [-3.116606086954892, 53.371219840762286], [-3.116305551841441, 53.37122265246061], [-3.1163102526044044, 53.37140239030339], [-3.1157091796966725, 53.371408011467146], [-3.11570448146294, 53.37122827358778], [-3.1145023400999055, 53.37123950676414], [-3.114497646975101, 53.371059768805885], [-3.1147981811269743, 53.37105696166482], [-3.1147934867880345, 53.37087722371909], [-3.115094019624846, 53.370874415839815], [-3.115084628569233, 53.37051493996775], [-3.114784098261561, 53.37051774781044], [-3.1147794040740275, 53.370338009847536], [-3.113877816641914, 53.37034642878196], [-3.113882507035793, 53.370526166799706], [-3.1135819765263326, 53.370528971616494], [-3.1135866657060736, 53.37070870964677], [-3.112685070081559, 53.37071711961303], [-3.112708497767359, 53.371615809952175], [-3.1124079594687055, 53.37161861185252], [-3.112417328366345, 53.371978087984516], [-3.1112151645509547, 53.37198928816662], [-3.1112058057705907, 53.37162981188875], [-3.110604728619625, 53.371635407367805], [-3.1105953750990363, 53.37127593099413], [-3.110294838977394, 53.37127872756246], [-3.110290163557136, 53.37109898934882], [-3.1099896286498434, 53.37110178514244], [-3.1099943028054855, 53.37128152337429], [-3.109092693988294, 53.37128990627078], [-3.1090880236265046, 53.37111016798435], [-3.1087874885182822, 53.37111296075199], [-3.1087828194713096, 53.37093322244163], [-3.1084822855774963, 53.37093601443459], [-3.108468282531496, 53.370396799414586], [-3.108167752381237, 53.37039959059651], [-3.1081630860641547, 53.370219852226896], [-3.1078625571282816, 53.37022264263419], [-3.1078718872834945, 53.37058211940405], [-3.1075713557683464, 53.3705849090912], [-3.1075900116222384, 53.37130386263485], [-3.1078905481957917, 53.371301072875035], [-3.1078998789528884, 53.371660549576134], [-3.1066977222407086, 53.371671704221576], [-3.106702382635841, 53.371851442636164], [-3.106101301449734, 53.37185701545608], [-3.1061152753476136, 53.37239623077433], [-3.106716364121878, 53.37239065784555], [-3.1067256853631093, 53.372750134623146], [-3.1073267789958434, 53.372744558595606], [-3.107336105496525, 53.37310403527767], [-3.1076366547671967, 53.37310124609278], [-3.1076413193575143, 53.37328098440701], [-3.1079418698428056, 53.373278194447366], [-3.107946535748063, 53.37345793273776], [-3.1085476390977003, 53.37345235051247], [-3.1085616447033413, 53.373991565240146], [-3.108862200097305, 53.37398877293811], [-3.108871539948401, 53.37434824935819], [-3.1091720978218405, 53.37434545626321], [-3.109176769087568, 53.37452519444646], [-3.1094773281756463, 53.37452240057669], [-3.1094726556450567, 53.37434266241163], [-3.109773213418033, 53.37433986780347], [-3.109763865977884, 53.373980391492516], [-3.1100644211709274, 53.37397759616419], [-3.1100457218344295, 53.37325864354632], [-3.1103462719180115, 53.37325584753423], [-3.110350947941521, 53.3734355856791], [-3.1106514992396046, 53.373432788892224], [-3.11066085396705, 53.37379226512831], [-3.1109614077444414, 53.373789467548455], [-3.110966086448415, 53.37396920563968], [-3.111266641440321, 53.37396640728502], [-3.1112619614715276, 53.37378666921202], [-3.111562515148297, 53.37378387011902], [-3.1115578339650183, 53.37360413205851], [-3.1118583863266522, 53.37360133222717], [-3.111881799070518, 53.37450002238123], [-3.1121823577059544, 53.37449722170214], [-3.112201093866869, 53.375216173649264], [-3.1128022211057558, 53.37521056987534], [-3.112811594548116, 53.37557004574152], [-3.113112160621836, 53.37556724268315], [-3.113116848683555, 53.3757469805894], [-3.113417415971818, 53.375744176756136], [-3.1134221053489055, 53.37592391463838], [-3.1140232423040746, 53.37591830466549], [-3.1140138585405013, 53.375558828968316], [-3.113713292618042, 53.375561634296545], [-3.113703911586114, 53.37520215853992], [-3.1134033481430756, 53.37520496307501], [-3.113384591743947, 53.37448601141989], [-3.11368515012744, 53.374483206957855], [-3.1136710795629474, 53.37394399321111], [-3.1139716341014956, 53.373941188047276], [-3.1139528689956557, 53.373222236377714], [-3.114553967803097, 53.37321662392654], [-3.114586824975286, 53.37447478903222], [-3.114887383156978, 53.374471981543834], [-3.1148920785054575, 53.37465171937486], [-3.11519263790153, 53.3746489111116], [-3.1151973345653707, 53.3748286489186], [-3.1154978951758188, 53.37482583988046], [-3.115502593155046, 53.37500557766341], [-3.1158031549798713, 53.3750027678504], [-3.115807854274515, 53.37518250560933], [-3.116108417313715, 53.3751796950214], [-3.1161131179237995, 53.375359432756305], [-3.116413682177371, 53.37535662139344], [-3.1163995767040347, 53.374817408226455], [-3.1167001371123515, 53.374814596161926], [-3.1166954341241406, 53.374634858446434], [-3.11699599321702, 53.37463204564363], [-3.1169865848625955, 53.37427257023209], [-3.117888254248598, 53.37426412739408], [-3.1178976701921215, 53.37462360269566], [-3.1181982290826, 53.37462078686651], [-3.1182029383951617, 53.37480052449039], [-3.118804058553937, 53.3747948905256], [-3.118818194384803, 53.37533410325271], [-3.118517630536056, 53.375336920668424], [-3.1185223413160843, 53.375516658250994], [-3.118221776151763, 53.375519474928446], [-3.118226485717508, 53.37569921252362], [-3.118527052146763, 53.37569639582783], [-3.1185364739600794, 53.37605587096431], [-3.118837042868595, 53.37605305347519]], [[-3.1199685644693593, 53.37334571324634], [-3.11966801473656, 53.373348533486464], [-3.119663299505261, 53.37316879590845], [-3.118761653797011, 53.3731772520345], [-3.1187522310749216, 53.37281777675114], [-3.119052777165537, 53.372814958835704], [-3.119048064615757, 53.372635221203765], [-3.118747519789859, 53.372638039100856], [-3.118738097371692, 53.372278563783084], [-3.118437555024536, 53.37228138088695], [-3.1184140061887637, 53.3713826924004], [-3.1187145422126714, 53.37137987538825], [-3.118700409725042, 53.37084066228251], [-3.1190009419045173, 53.37083784456891], [-3.119005653947662, 53.37101758225821], [-3.1196067206837794, 53.37101194452485], [-3.119611435306771, 53.371191682171705], [-3.1199119698633977, 53.37118886215193], [-3.119921401790673, 53.371548337391715], [-3.120221938825823, 53.371545516578706], [-3.120226656130148, 53.37172525417162], [-3.1205271943792128, 53.37172243258373], [-3.1205413503904715, 53.372261645272914], [-3.1202408083474293, 53.37226446691593], [-3.1202643963906374, 53.37316315470835], [-3.1199638479733047, 53.37316597568668], [-3.1199685644693593, 53.37334571324634]], [[-3.117564165188215, 53.373368253983934], [-3.1172636150502218, 53.373371068171636], [-3.1172447949008375, 53.37265211723824], [-3.117545339979867, 53.372649303123836], [-3.117564165188215, 53.373368253983934]], [[-3.1115531528320686, 53.37342439399225], [-3.1112526016848934, 53.37342719304879], [-3.1112479218670503, 53.3732474549586], [-3.111548471749451, 53.37324465592028], [-3.1115531528320686, 53.37342439399225]], [[-3.1139528689956557, 53.373222236377714], [-3.1136523195162704, 53.373225041468466], [-3.113647629630664, 53.37304530351848], [-3.1133470813656112, 53.373048107834435], [-3.1133423927951718, 53.37286836986045], [-3.1130418457444544, 53.372871173401585], [-3.113032471284253, 53.3725116973999], [-3.1136335602763836, 53.3725060896341], [-3.1136382500107205, 53.372685827601295], [-3.113938795695877, 53.372683022565326], [-3.1139528689956557, 53.373222236377714]], [[-3.1112479218670503, 53.3732474549586], [-3.1109473719343357, 53.373250253240364], [-3.1109380149791095, 53.372890777006326], [-3.111238562382313, 53.37288797876099], [-3.1112479218670503, 53.3732474549586]], [[-3.1163478605275925, 53.37284029283916], [-3.115446220737974, 53.37284872388924], [-3.1154368260422247, 53.372489248179896], [-3.115136281874095, 53.37249205698027], [-3.115117498147344, 53.37177310541964], [-3.115718576315675, 53.37176748720873], [-3.115723274700946, 53.3719472250709], [-3.1163243551965345, 53.3719416037973], [-3.11631965428195, 53.371761865971756], [-3.116620193189284, 53.371759054218494], [-3.1166154910605983, 53.37157931640549], [-3.1169160286527373, 53.37157650391404], [-3.1169301389844173, 53.372115717280884], [-3.116629597598316, 53.37211852982728], [-3.116643704591036, 53.37265774319745], [-3.116343159360293, 53.372660555042266], [-3.1163478605275925, 53.37284029283916]], [[-3.1109380149791095, 53.372890777006326], [-3.1106374675256068, 53.37289357449508], [-3.1106327903881823, 53.372713836351245], [-3.1103322441491295, 53.37271663306526], [-3.110322892554573, 53.37235715672396], [-3.1100223487946828, 53.37235995264503], [-3.1100176743375103, 53.372180214447575], [-3.110318216832703, 53.37217741854472], [-3.110308865539772, 53.371817942169], [-3.1106094054553415, 53.37181514554604], [-3.1106281133010447, 53.37253409820167], [-3.110928658225088, 53.37253130074933], [-3.1109380149791095, 53.372890777006326]], [[-3.1196020061114758, 53.37083220687225], [-3.1190009419045173, 53.37083784456891], [-3.118977382448677, 53.36993915603635], [-3.1192779082547935, 53.369936337658025], [-3.1192731952510977, 53.369756599952645], [-3.1198742441823124, 53.369750960963344], [-3.119869528700316, 53.36957122328894], [-3.1201700518254034, 53.369568402677956], [-3.120160618484571, 53.3692089273487], [-3.1204611390300245, 53.36920610601802], [-3.1204658569395423, 53.36938584366715], [-3.1207663786987316, 53.369383021561674], [-3.1207758171988833, 53.36974249680596], [-3.120174768571884, 53.36974814033398], [-3.1201794853690727, 53.369927877984296], [-3.1204800109724307, 53.36992505658012], [-3.120484729084839, 53.370104794206306], [-3.1201842022169726, 53.37010761562885], [-3.120188919115583, 53.37028735326766], [-3.11988839093248, 53.37029017395209], [-3.1198931066172637, 53.37046991160353], [-3.119592577118927, 53.37047273154987], [-3.1196020061114758, 53.37083220687225]]]}, "properties": {"kind": "max_footprint", "threshold_pct": 7.0}}, {"type": "Feature", "geometry": {"type": "Polygon", "coordinates": [[[-3.10802119705537, 53.37633374460423], [-3.108016530347356, 53.37615400640557], [-3.1077159596238753, 53.37615679665589], [-3.1077066288883417, 53.37579732020502], [-3.1071054923508363, 53.375802898363105], [-3.107114818026437, 53.376162374886626], [-3.1074153888502316, 53.37615958614957], [-3.107420053028241, 53.37633932438458], [-3.10802119705537, 53.37633374460423]]]}, "properties": {"kind": "max_footprint", "threshold_pct": 10.0}}, {"type": "Feature", "geometry": {"type": "Polygon", "coordinates": [[[-3.1044050268798293, 53.37600770104919], [-3.1044003754519185, 53.375827962621344], [-3.1037992378127757, 53.375833524133554], [-3.1038038867107187, 53.376013262597624], [-3.1044050268798293, 53.37600770104919]]]}, "properties": {"kind": "max_footprint", "threshold_pct": 10.0}}, {"type": "Feature", "geometry": {"type": "Polygon", "coordinates": [[[-3.113717983209658, 53.37574137216626], [-3.113713292618042, 53.375561634296545], [-3.113412726645149, 53.37556443886816], [-3.113417415971818, 53.375744176756136], [-3.113717983209658, 53.37574137216626]]]}, "properties": {"kind": "max_footprint", "threshold_pct": 10.0}}, {"type": "Feature", "geometry": {"type": "Polygon", "coordinates": [[[-3.1073874048353125, 53.375081156619196], [-3.107382741008341, 53.374901418344066], [-3.1067816170199123, 53.37490699480734], [-3.1067862783170646, 53.37508673311878], [-3.1073874048353125, 53.375081156619196]]]}, "properties": {"kind": "max_footprint", "threshold_pct": 10.0}}, {"type": "Feature", "geometry": {"type": "Polygon", "coordinates": [[[-3.079416626908116, 53.37461830241562], [-3.0794120809162404, 53.37443856244994], [-3.0791115194027383, 53.374441280623664], [-3.079116064129693, 53.37462102060705], [-3.079416626908116, 53.37461830241562]]]}, "properties": {"kind": "max_footprint", "threshold_pct": 10.0}}, {"type": "Feature", "geometry": {"type": "Polygon", "coordinates": [[[-3.113098096739117, 53.37502802893004], [-3.1130934088790214, 53.37484829100088], [-3.113393969842677, 53.37484548725893], [-3.113375213846882, 53.37412653555793], [-3.1124735459830486, 53.374134944294994], [-3.1124688609046185, 53.37395520630066], [-3.1121683061140692, 53.37395800768162], [-3.1121917256856864, 53.37485669768717], [-3.1124922868005127, 53.37485389621501], [-3.112496972130818, 53.375033634180674], [-3.113098096739117, 53.37502802893004]]]}, "properties": {"kind": "max_footprint", "threshold_pct": 10.0}}, {"type": "Feature", "geometry": {"type": "Polygon", "coordinates": [[[-3.1148826878589824, 53.37429224370708], [-3.114873297414439, 53.373932768016374], [-3.114572743027255, 53.37393557544991], [-3.1145821309421393, 53.3742950511772], [-3.1148826878589824, 53.37429224370708]]]}, "properties": {"kind": "max_footprint", "threshold_pct": 10.0}}, {"type": "Feature", "geometry": {"type": "Polygon", "coordinates": [[[-3.1157984557357548, 53.374823030085714], [-3.115793756542164, 53.3746432923153], [-3.1166954341241406, 53.374634858446434], [-3.1166813254629053, 53.37409564526554], [-3.1160802147145374, 53.374101268491536], [-3.1160755144582244, 53.373921530716466], [-3.11547440603735, 53.37392715087956], [-3.1154697083611853, 53.37374741306218], [-3.115169155339785, 53.37375022199058], [-3.11519263790153, 53.3746489111116], [-3.1154931972471025, 53.374646102091745], [-3.1154978951758188, 53.37482583988046], [-3.1157984557357548, 53.374823030085714]]]}, "properties": {"kind": "max_footprint", "threshold_pct": 10.0}}, {"type": "Feature", "geometry": {"type": "Polygon", "coordinates": [[[-3.10405330777794, 53.37403335898115], [-3.1040486581649698, 53.37385362047219], [-3.103447548253715, 53.373859180072905], [-3.1034521953370153, 53.37403891861807], [-3.10405330777794, 53.37403335898115]]]}, "properties": {"kind": "max_footprint", "threshold_pct": 10.0}}, {"type": "Feature", "geometry": {"type": "Polygon", "coordinates": [[[-3.090519044355512, 53.37379824017081], [-3.090514451759591, 53.37361850084061], [-3.08991334243722, 53.37362399227722], [-3.089917932503463, 53.373803731643186], [-3.090519044355512, 53.37379824017081]]]}, "properties": {"kind": "max_footprint", "threshold_pct": 10.0}}, {"type": "Feature", "geometry": {"type": "Polygon", "coordinates": [[[-3.0796944538425985, 53.37371688367048], [-3.0796899068302572, 53.37353714369393], [-3.079389351690029, 53.37353986253573], [-3.0793938974375186, 53.37371960253001], [-3.0796944538425985, 53.37371688367048]]]}, "properties": {"kind": "max_footprint", "threshold_pct": 10.0}}, {"type": "Feature", "geometry": {"type": "Polygon", "coordinates": [[[-3.117277730693433, 53.37391028131146], [-3.1172636150502218, 53.373371068171636], [-3.1169630648616384, 53.373373881602795], [-3.1169489534679675, 53.3728346683564], [-3.11664840702306, 53.37283748097604], [-3.1166578120387824, 53.37319695651601], [-3.1163572630138274, 53.37319976841573], [-3.116361964332765, 53.373379506195434], [-3.116061413992499, 53.373382317356906], [-3.116070814252448, 53.37374179293569], [-3.116671919941569, 53.37373616978294], [-3.1166766226769553, 53.373915907527106], [-3.117277730693433, 53.37391028131146]]]}, "properties": {"kind": "max_footprint", "threshold_pct": 10.0}}, {"type": "Feature", "geometry": {"type": "Polygon", "coordinates": [[[-3.1133142624311105, 53.37178994189612], [-3.113304886046337, 53.37143046586212], [-3.1130043491130888, 53.371433269257224], [-3.113013722968575, 53.37179274532772], [-3.1133142624311105, 53.37178994189612]]]}, "properties": {"kind": "max_footprint", "threshold_pct": 10.0}}, {"type": "Feature", "geometry": {"type": "Polygon", "coordinates": [[[-3.113605422929185, 53.37142766171049], [-3.1135960442167976, 53.3710681856901], [-3.1132955098631796, 53.37107098980519], [-3.113304886046337, 53.37143046586212], [-3.113605422929185, 53.37142766171049]]]}, "properties": {"kind": "max_footprint", "threshold_pct": 10.0}}, {"type": "Feature", "geometry": {"type": "Polygon", "coordinates": [[[-3.118799346711639, 53.37461515293841], [-3.1187946349200035, 53.3744354153455], [-3.119095192393686, 53.37443259726493], [-3.119090479387871, 53.37425285968463], [-3.118789923179029, 53.37425567774685], [-3.1187428085554494, 53.37245830144483], [-3.1184422649436008, 53.37246111856703], [-3.1184281353383168, 53.37192190550952], [-3.118127595469864, 53.371924721820186], [-3.118094637015388, 53.370666557690186], [-3.117493574831181, 53.37067218778534], [-3.11750298622105, 53.371031663353044], [-3.116901918776164, 53.37103729049556], [-3.1169160286527373, 53.37157650391404], [-3.1172165661943083, 53.371573690666075], [-3.117225975560819, 53.371933166213076], [-3.1175265155811007, 53.37193035217196], [-3.117545339979867, 53.372649303123836], [-3.117845885008296, 53.37264648825288], [-3.117869422968971, 53.373545176722025], [-3.117568871616805, 53.373547991684624], [-3.117582991206193, 53.37408720475223], [-3.1178835463527643, 53.37408438973467], [-3.1178929621950493, 53.37444386504773], [-3.118494077395662, 53.3744382326695], [-3.118498787922444, 53.37461797028076], [-3.118799346711639, 53.37461515293841]]]}, "properties": {"kind": "max_footprint", "threshold_pct": 10.0}}, {"type": "Feature", "geometry": {"type": "Polygon", "coordinates": [[[-3.1227302482919876, 53.37547714532234], [-3.1227255198031227, 53.37529740799709], [-3.123627209065177, 53.37528892170263], [-3.123622476832461, 53.37510918442687], [-3.124524161841897, 53.37510069137831], [-3.124519425865418, 53.37492095415212], [-3.12421886551139, 53.37492378590646], [-3.124214130850699, 53.3747440486561], [-3.1251158079654062, 53.37473555117861], [-3.125111069561063, 53.37455581397782], [-3.125712184853119, 53.37455014524683], [-3.1257074439700494, 53.37437040807721], [-3.126308556528537, 53.37436473635681], [-3.1263038131667957, 53.37418499921839], [-3.126904922991641, 53.37417932450864], [-3.126900177151285, 53.37399958740146], [-3.127200730722369, 53.373996748930196], [-3.127195983668247, 53.373817011835726], [-3.1277970881276977, 53.37381133266051], [-3.1277923385950595, 53.373631595597296], [-3.1283934403206928, 53.37362591343282], [-3.128388688309595, 53.37344617640087], [-3.128689237831018, 53.37344333420231], [-3.128684484606264, 53.37326359718312], [-3.1292855809662874, 53.3732579105534], [-3.129280825263171, 53.37307817356549], [-3.12958137210176, 53.37307532913432], [-3.129576615185057, 53.372895592159196], [-3.130177706179351, 53.37288990106433], [-3.130172946784383, 53.372710164120505], [-3.1304734909400773, 53.37270731745681], [-3.1304687303315917, 53.3725275805258], [-3.1307692731714134, 53.37252473312411], [-3.1307597495786545, 53.372165259281914], [-3.1310602898379445, 53.3721624111608], [-3.131046001038868, 53.37162320041007], [-3.130745464573478, 53.371626048475555], [-3.1307407030074734, 53.371446311528615], [-3.130440167755496, 53.37144915881905], [-3.130435407505277, 53.37126942184783], [-3.130134873466715, 53.371272268363235], [-3.130130114532255, 53.371092531367744], [-3.12982958170711, 53.37109537710815], [-3.1298248240883804, 53.370915640088356], [-3.129524292476653, 53.37091848505374], [-3.129519536173629, 53.37073874800971], [-3.129219005775321, 53.37074159220009], [-3.129214250787974, 53.370561855131804], [-3.1283126630800075, 53.37057038310858], [-3.12830791193737, 53.37039064597899], [-3.127706855739034, 53.37039632747752], [-3.127702107176512, 53.3702165903052], [-3.1274015802652775, 53.370219429901255], [-3.127396833018313, 53.37003969270474], [-3.1264952557719594, 53.370048206898716], [-3.1264905123695113, 53.36986846964099], [-3.1258894631459295, 53.369874141951094], [-3.1258847223234394, 53.36969440465069], [-3.1255841988996735, 53.36969723965261], [-3.125579459392621, 53.369517502327994], [-3.1246778926090615, 53.36952600273969], [-3.1246731569463333, 53.36934626535401], [-3.1237715934979393, 53.369354758902396], [-3.1237668616794605, 53.36917502145566], [-3.1231658216550486, 53.3691806800022], [-3.12316109241631, 53.36900094251289], [-3.122259535791708, 53.3690094246042], [-3.122254810397078, 53.368829687053925], [-3.1216537749221613, 53.368835337962516], [-3.1216584977879434, 53.36901507554957], [-3.120756940401521, 53.36902354629439], [-3.1207616595247587, 53.36920328393091], [-3.1210621799687575, 53.36920046108734], [-3.1210716208963603, 53.36955993630636], [-3.121672666689939, 53.369554288276376], [-3.121677389758824, 53.3697340258405], [-3.1219779138439336, 53.369731200672476], [-3.121973189510571, 53.369551463126726], [-3.122574234999449, 53.36954581055805], [-3.1225789618617683, 53.36972554806698], [-3.122879485794465, 53.369722720629575], [-3.122888942200552, 53.37008219559339], [-3.1225884157388606, 53.37008502306761], [-3.1225931427536358, 53.370264760559316], [-3.1219920871487736, 53.37027041327521], [-3.1220109855996676, 53.37098936333187], [-3.1223115184857146, 53.37098653727856], [-3.1223162444900123, 53.37116627475998], [-3.1226167785898356, 53.37116344793176], [-3.1226309607014375, 53.37170266028636], [-3.1229314985442733, 53.371699832646435], [-3.122940956068765, 53.37205930748398], [-3.1226404156966354, 53.37206213516074], [-3.122645143270476, 53.372241872589306], [-3.1223446015828533, 53.37224469952796], [-3.122354054353643, 53.372604174404714], [-3.1226545985706444, 53.372601347429246], [-3.122664054074131, 53.37296082224625], [-3.122363507327701, 53.37296364925851], [-3.1223587808152637, 53.37278391183449], [-3.122058235282739, 53.37278673807183], [-3.122039334799908, 53.372067788244706], [-3.1217387942753376, 53.37207061365193], [-3.121734070546289, 53.37189087616239], [-3.1214335312355876, 53.3718937007947], [-3.121428808821968, 53.371713963281046], [-3.1211282707251367, 53.37171678713844], [-3.121123549626919, 53.37153704960066], [-3.1208230127439602, 53.371539872683186], [-3.120808853547658, 53.371000659980275], [-3.1211093866368063, 53.37099783695289], [-3.1210952241034944, 53.37045862425349], [-3.121395753348202, 53.37045580052478], [-3.1213910313407385, 53.37027606296524], [-3.1216915592701446, 53.37027323849844], [-3.121686836048926, 53.37009350095156], [-3.120484729084839, 53.370104794206306], [-3.1204894472479716, 53.37028453182674], [-3.120188919115583, 53.37028735326766], [-3.120193636064905, 53.37046709090074], [-3.1198931066172637, 53.37046991160353], [-3.1199166858016847, 53.37136859977468], [-3.1202172215722155, 53.37136577898004], [-3.120221938825823, 53.371545516578706], [-3.120522475810256, 53.3715426950092], [-3.120531912998901, 53.37190217015254], [-3.12083245246188, 53.371899347789764], [-3.120870213363438, 53.37333724798659], [-3.1202691141514465, 53.373342892249624], [-3.12027383196298, 53.373522629785185], [-3.1199732810161245, 53.37352545080024], [-3.1199779976135984, 53.373705188348396], [-3.1196774453512495, 53.37370800862527], [-3.1196821607346403, 53.37388774618607], [-3.1202832677382224, 53.37388210483902], [-3.120287985701932, 53.37406184235735], [-3.1205885403924487, 53.3740590205306], [-3.1205932596717094, 53.37423875802482], [-3.1211943714301498, 53.37423311206486], [-3.12119909328982, 53.374412849516574], [-3.1214996503577277, 53.37441002538335], [-3.121509096759085, 53.374769500232766], [-3.121809656305915, 53.374766675306155], [-3.1218143808476437, 53.37494641270386], [-3.1221149416085496, 53.37494358700226], [-3.122124393374191, 53.37530306174367], [-3.121523266742004, 53.375308712463855], [-3.1215279901712174, 53.37548844986274], [-3.1227302482919876, 53.37547714532234]], [[-3.1229977054865907, 53.374216156027174], [-3.1223965943376983, 53.37422181106604], [-3.122382413885633, 53.37368259889724], [-3.1220818620293587, 53.3736854252266], [-3.1220771365784237, 53.37350568780713], [-3.1223776871699207, 53.37350286149617], [-3.1223729605050274, 53.373323124089346], [-3.122974059006025, 53.373317469234614], [-3.1229977054865907, 53.374216156027174]]]}, "properties": {"kind": "max_footprint", "threshold_pct": 10.0}}]}