{"type": "FeatureCollection", "features": [{"type": "Feature", "geometry": {"type": "Polygon", "coordinates": [[[-3.076329958017676, 53.4071864611297], [-3.076325419643189, 53.407006721968635], [-3.0760246283215595, 53.407009433500974], [-3.0760291654286536, 53.407189172679686], [-3.076329958017676, 53.4071864611297]]]}, "properties": {"kind": "max_footprint", "threshold_pct": 4.0}}, {"type": "Feature", "geometry": {"type": "Polygon", "coordinates": [[[-3.0796295686885853, 53.40679710614549], [-3.079620464301938, 53.40643762818397], [-3.0793196773202567, 53.40644034799571], [-3.0793287791722013, 53.40679982599265], [-3.0796295686885853, 53.40679710614549]]]}, "properties": {"kind": "max_footprint", "threshold_pct": 4.0}}, {"type": "Feature", "geometry": {"type": "Polygon", "coordinates": [[[-3.0823275449314615, 53.40641311579149], [-3.082318417928947, 53.406053638126465], [-3.0820176339231873, 53.406056364720044], [-3.082026758391066, 53.4064158424206], [-3.0823275449314615, 53.40641311579149]]]}, "properties": {"kind": "max_footprint", "threshold_pct": 4.0}}, {"type": "Feature", "geometry": {"type": "Polygon", "coordinates": [[[-3.078713554892156, 53.40626604630426], [-3.07870900662323, 53.40608630725606], [-3.078408222029353, 53.40608902475994], [-3.078412769030958, 53.40626876382581], [-3.078713554892156, 53.40626604630426]]]}, "properties": {"kind": "max_footprint", "threshold_pct": 4.0}}, {"type": "Feature", "geometry": {"type": "Polygon", "coordinates": [[[-3.0841185499005834, 53.405857523923515], [-3.084113978918383, 53.405677785183386], [-3.083813197741991, 53.40568051628624], [-3.0838177674569125, 53.40586025504416], [-3.0841185499005834, 53.405857523923515]]]}, "properties": {"kind": "max_footprint", "threshold_pct": 4.0}}, {"type": "Feature", "geometry": {"type": "Polygon", "coordinates": [[[-3.078991593512672, 53.405364632815704], [-3.078987044221163, 53.40518489375666], [-3.0786862660126104, 53.40518761192946], [-3.078690814036868, 53.40536735100623], [-3.078991593512672, 53.405364632815704]]]}, "properties": {"kind": "max_footprint", "threshold_pct": 4.0}}, {"type": "Feature", "geometry": {"type": "Polygon", "coordinates": [[[-3.083184233191443, 53.40460754333855], [-3.0831750995677587, 53.40424806566578], [-3.0828743283816764, 53.40425079435405], [-3.082883459471001, 53.40461027206235], [-3.083184233191443, 53.40460754333855]]]}, "properties": {"kind": "max_footprint", "threshold_pct": 4.0}}, {"type": "Feature", "geometry": {"type": "Polygon", "coordinates": [[[-3.084081983419949, 53.404419613842315], [-3.0840728422915418, 53.40406013626484], [-3.0837720725200537, 53.40406286720759], [-3.0837675032967526, 53.403883128392486], [-3.083165966140603, 53.40388858797017], [-3.0831750995677587, 53.40424806566578], [-3.0834758707047096, 53.40424533622011], [-3.0834804387591572, 53.404425075041544], [-3.084081983419949, 53.404419613842315]]]}, "properties": {"kind": "max_footprint", "threshold_pct": 4.0}}, {"type": "Feature", "geometry": {"type": "Polygon", "coordinates": [[[-3.082559864682315, 53.40371430562627], [-3.0825553006258013, 53.40353456672863], [-3.0822545344100565, 53.403537293830986], [-3.0822590971994503, 53.40371703274639], [-3.082559864682315, 53.40371430562627]]]}, "properties": {"kind": "max_footprint", "threshold_pct": 4.0}}, {"type": "Feature", "geometry": {"type": "Polygon", "coordinates": [[[-3.0822545344100565, 53.403537293830986], [-3.082249971669752, 53.403357554909874], [-3.0819492066720247, 53.40336028123708], [-3.0819537681452225, 53.40354002017594], [-3.0822545344100565, 53.403537293830986]]]}, "properties": {"kind": "max_footprint", "threshold_pct": 4.0}}, {"type": "Feature", "geometry": {"type": "Polygon", "coordinates": [[[-3.0891583694227354, 53.40293516330224], [-3.089153777687371, 53.40275542477375], [-3.088853017623299, 53.40275816846751], [-3.0888576080916144, 53.40293790701386], [-3.0891583694227354, 53.40293516330224]]]}, "properties": {"kind": "max_footprint", "threshold_pct": 4.0}}, {"type": "Feature", "geometry": {"type": "Polygon", "coordinates": [[[-3.0852393177918382, 53.4026112949506], [-3.085234742626616, 53.40243155617873], [-3.084633226235526, 53.40243702304571], [-3.084637798866685, 53.402616761853174], [-3.0852393177918382, 53.4026112949506]]]}, "properties": {"kind": "max_footprint", "threshold_pct": 4.0}}, {"type": "Feature", "geometry": {"type": "Polygon", "coordinates": [[[-3.086437774818043, 53.40242061335635], [-3.086433194633976, 53.402240874650055], [-3.0861324379270125, 53.40224361147387], [-3.0861278590592236, 53.40206387274404], [-3.085526348031535, 53.40206934408396], [-3.08553092436532, 53.402249082849444], [-3.0858316811707898, 53.402246347540334], [-3.0858362588208252, 53.40242608628229], [-3.086437774818043, 53.40242061335635]]]}, "properties": {"kind": "max_footprint", "threshold_pct": 4.0}}, {"type": "Feature", "geometry": {"type": "Polygon", "coordinates": [[[-3.087946150517009, 53.402586656398825], [-3.0879415639485353, 53.40240691778745], [-3.0876408062210685, 53.40240965841598], [-3.087636220968949, 53.40222991978102], [-3.0873354644591644, 53.402232659634336], [-3.087326296636896, 53.40187318231159], [-3.0870255426117814, 53.401875921371854], [-3.08702096004159, 53.401696182684056], [-3.0861187014714226, 53.40170439526719], [-3.0861278590592236, 53.40206387274404], [-3.0864286144991846, 53.40206113593803], [-3.086433194633976, 53.402240874650055], [-3.0870347079000657, 53.40223539873028], [-3.08703929061816, 53.402415137400894], [-3.087340048444272, 53.40241239828713], [-3.087344632478695, 53.402592136934196], [-3.087946150517009, 53.402586656398825]]]}, "properties": {"kind": "max_footprint", "threshold_pct": 4.0}}, {"type": "Feature", "geometry": {"type": "Polygon", "coordinates": [[[-3.091546051102271, 53.40219423276775], [-3.091541449428563, 53.40201449435955], [-3.0912406948281053, 53.40201724404069], [-3.0912360944708777, 53.40183750560883], [-3.090935341087903, 53.40184025451471], [-3.0909307420471293, 53.401660516059245], [-3.090629989881642, 53.40166326418987], [-3.0906253921572953, 53.40148352571078], [-3.0903246412092957, 53.40148627306617], [-3.0903338341735376, 53.40184575005442], [-3.0906345876554533, 53.40184300266325], [-3.0906391854787265, 53.40202274113091], [-3.090939940178154, 53.40201999296447], [-3.0909445393178823, 53.4021997314085], [-3.091546051102271, 53.40219423276775]]]}, "properties": {"kind": "max_footprint", "threshold_pct": 4.0}}, {"type": "Feature", "geometry": {"type": "Polygon", "coordinates": [[[-3.087011795049105, 53.401336705291314], [-3.087007212626808, 53.40115696658636], [-3.0867064636202044, 53.40115970481791], [-3.0867110447755675, 53.401339443540714], [-3.087011795049105, 53.401336705291314]]]}, "properties": {"kind": "max_footprint", "threshold_pct": 4.0}}, {"type": "Feature", "geometry": {"type": "Polygon", "coordinates": [[[-3.085808793659307, 53.40134765374482], [-3.085804216304744, 53.40116791496855], [-3.0855034671010864, 53.40117065017075], [-3.0855080431887147, 53.40135038896483], [-3.085808793659307, 53.40134765374482]]]}, "properties": {"kind": "max_footprint", "threshold_pct": 4.0}}, {"type": "Feature", "geometry": {"type": "Polygon", "coordinates": [[[-3.0855034671010864, 53.40117065017075], [-3.085498891062686, 53.400990911370954], [-3.085198143076723, 53.400993645798], [-3.0852027178481993, 53.40117338461561], [-3.0855034671010864, 53.40117065017075]]]}, "properties": {"kind": "max_footprint", "threshold_pct": 4.0}}, {"type": "Feature", "geometry": {"type": "Polygon", "coordinates": [[[-3.09029706350331, 53.40040784196409], [-3.0902924673920382, 53.400228103427054], [-3.0899917252628675, 53.40023084989986], [-3.0899871304678825, 53.40005111133922], [-3.089385648594953, 53.40005660197715], [-3.0893810563830555, 53.39987686337503], [-3.089080316639312, 53.39987960754013], [-3.0890757257436334, 53.39969986891442], [-3.0887749872173216, 53.399702612304374], [-3.088784166524417, 53.40006208958584], [-3.089084907584379, 53.400059346160134], [-3.0890894985788337, 53.40023908477443], [-3.0893902408562517, 53.40023634057354], [-3.0893948331669545, 53.400416079164245], [-3.09029706350331, 53.40040784196409]]]}, "properties": {"kind": "max_footprint", "threshold_pct": 4.0}}, {"type": "Feature", "geometry": {"type": "Polygon", "coordinates": [[[-3.0885017795543073, 53.400783786819986], [-3.0884880138758435, 53.40024457090425], [-3.088187271450299, 53.40024731283319], [-3.088178097111813, 53.39988783549171], [-3.0878773571706013, 53.399890576627634], [-3.087868185563128, 53.39953109922758], [-3.0875674481062125, 53.39953383957049], [-3.087581201790957, 53.40007305571555], [-3.0878819430483366, 53.400070315319084], [-3.087895700977549, 53.40060953135914], [-3.0875949559195845, 53.40061227180914], [-3.0875995407277714, 53.40079201049557], [-3.0885017795543073, 53.400783786819986]]]}, "properties": {"kind": "max_footprint", "threshold_pct": 4.0}}, {"type": "Feature", "geometry": {"type": "Polygon", "coordinates": [[[-3.0869568092350184, 53.399179840454444], [-3.0869522274042436, 53.39900010168086], [-3.08665149359976, 53.3990028396984], [-3.0866560741637667, 53.39918257848981], [-3.0869568092350184, 53.399179840454444]]]}, "properties": {"kind": "max_footprint", "threshold_pct": 4.0}}, {"type": "Feature", "geometry": {"type": "Polygon", "coordinates": [[[-3.091153296503021, 53.39860221285724], [-3.091148697085996, 53.39842247431669], [-3.090547238410514, 53.39842797069085], [-3.0905518352941024, 53.398607709267196], [-3.091153296503021, 53.39860221285724]]]}, "properties": {"kind": "max_footprint", "threshold_pct": 4.0}}, {"type": "Feature", "geometry": {"type": "Polygon", "coordinates": [[[-3.090547238410514, 53.39842797069085], [-3.0905426415763766, 53.39824823210876], [-3.09024191343116, 53.39825097914205], [-3.0902465089985913, 53.39843071774204], [-3.090547238410514, 53.39842797069085]]]}, "properties": {"kind": "max_footprint", "threshold_pct": 4.0}}, {"type": "Feature", "geometry": {"type": "Polygon", "coordinates": [[[-3.09024191343116, 53.39825097914205], [-3.090237317913163, 53.39807124053635], [-3.089936590985203, 53.39807398679453], [-3.0899411852365066, 53.398253725418115], [-3.09024191343116, 53.39825097914205]]]}, "properties": {"kind": "max_footprint", "threshold_pct": 4.0}}, {"type": "Feature", "geometry": {"type": "Polygon", "coordinates": [[[-3.0953404341595054, 53.397664961669705], [-3.0953358172568417, 53.39748522335167], [-3.0947343726356804, 53.397490740749404], [-3.094738987005065, 53.39767047910335], [-3.0953404341595054, 53.397664961669705]]]}, "properties": {"kind": "max_footprint", "threshold_pct": 4.0}}, {"type": "Feature", "geometry": {"type": "Polygon", "coordinates": [[[-3.095715055127868, 53.4005380138393], [-3.0956965795690117, 53.39981906097112], [-3.0959973182227833, 53.39981630014542], [-3.0959880782078915, 53.39945682371294], [-3.0956873420877096, 53.399459584502665], [-3.0956827234215876, 53.39927984625986], [-3.0953819885184957, 53.39928260627432], [-3.0953773711688197, 53.399102868007816], [-3.0950766374828196, 53.399105627247046], [-3.0950720214495635, 53.398925888956846], [-3.0944705564621016, 53.39893140512749], [-3.0944659430119748, 53.39875166679565], [-3.092661554459361, 53.39876819702545], [-3.092656948659213, 53.39858845858022], [-3.0923562183270117, 53.39859121095015], [-3.092351613843125, 53.39841147248125], [-3.09265234290861, 53.398408720129254], [-3.0926477372075536, 53.39822898167255], [-3.092347009408768, 53.398231734006636], [-3.0923424050239428, 53.39805199552629], [-3.0920416784423135, 53.3980547470852], [-3.0920370753736917, 53.39787500858121], [-3.0917363500092203, 53.39787775936496], [-3.0917225449003922, 53.39733854376492], [-3.0914218232863626, 53.397341293737675], [-3.0914080224228577, 53.3968020780324], [-3.0908065866460035, 53.3968075755988], [-3.09082957566639, 53.397706268591364], [-3.091130299912664, 53.397703520097245], [-3.0911440977184492, 53.39824273577041], [-3.091444825715277, 53.39823998646535], [-3.0914586277665017, 53.39877920203328], [-3.092060091211969, 53.398773701043915], [-3.092064694528181, 53.39895343951929], [-3.093267625891739, 53.39894242838158], [-3.0932722343244903, 53.39912216677953], [-3.09387370224238, 53.399116656631136], [-3.093882924323698, 53.39947613333805], [-3.094183660741789, 53.39947337709203], [-3.0941882731236467, 53.39965311541896], [-3.0944890107589123, 53.39965035839769], [-3.094502852002653, 53.40018957329024], [-3.0951043347251797, 53.40018405686805], [-3.095108951106051, 53.4003637951182], [-3.0954096936596738, 53.40036103575317], [-3.095414311357065, 53.40054077397963], [-3.095715055127868, 53.4005380138393]]]}, "properties": {"kind": "max_footprint", "threshold_pct": 4.0}}, {"type": "Feature", "geometry": {"type": "Polygon", "coordinates": [[[-3.1010541722031353, 53.39761239498162], [-3.1010495312344553, 53.397432657005986], [-3.1013502525243375, 53.39742988278393], [-3.10134561033897, 53.39725014482065], [-3.1010448903156997, 53.39725291902463], [-3.1010402494468656, 53.39707318103754], [-3.1004388117837687, 53.39707872713771], [-3.1004295352621787, 53.39671925107411], [-3.0995273859928414, 53.39672756443696], [-3.0995366549149477, 53.39708704060886], [-3.100138092877372, 53.39708149905199], [-3.100142729946407, 53.39726123709324], [-3.100443450119404, 53.39725846516094], [-3.100448088504934, 53.39743820317842], [-3.10074880989465, 53.397435430470814], [-3.100753449596704, 53.39761516846454], [-3.1010541722031353, 53.39761239498162]]]}, "properties": {"kind": "max_footprint", "threshold_pct": 4.0}}, {"type": "Feature", "geometry": {"type": "Polygon", "coordinates": [[[-3.0905104651219486, 53.39699006187402], [-3.0905058686833846, 53.396810323246186], [-3.0902051506713204, 53.39681307013635], [-3.0902097458432882, 53.39699280878208], [-3.0905104651219486, 53.39699006187402]]]}, "properties": {"kind": "max_footprint", "threshold_pct": 4.0}}, {"type": "Feature", "geometry": {"type": "Polygon", "coordinates": [[[-3.098671544880461, 53.39853325215649], [-3.098666913795726, 53.39835351406509], [-3.098967641817902, 53.398350745810696], [-3.09895837726453, 53.397991269646795], [-3.0983569262370763, 53.3979968053262], [-3.09834303738061, 53.397457590929264], [-3.098042315592111, 53.397460357579035], [-3.098037687339511, 53.39728061941726], [-3.097736966767844, 53.39728338529179], [-3.0977415937538244, 53.39746312347159], [-3.0974408718657656, 53.397465888606895], [-3.0974362461464033, 53.397286150409094], [-3.0971355254752053, 53.39728891476918], [-3.097130901072209, 53.39710917654764], [-3.0974316204768, 53.397106412205545], [-3.097426994856957, 53.39692667399631], [-3.0971262767189582, 53.39692943832036], [-3.0971216524154515, 53.39674970008738], [-3.0974223692868694, 53.39674693578131], [-3.097417743766539, 53.396567197560586], [-3.0968163125070944, 53.39657272537953], [-3.0968301816178747, 53.397111940132504], [-3.096529462113808, 53.39711470296013], [-3.0965340839835855, 53.39729444121767], [-3.095932642293095, 53.397299964637256], [-3.095937261679344, 53.397479702925054], [-3.0968394279403797, 53.39747141660585], [-3.0968486744618158, 53.39783089305633], [-3.0971493989826655, 53.39782812939946], [-3.0971540235846473, 53.398007867598096], [-3.0968532977971344, 53.398010631272946], [-3.0968579211821874, 53.39819036948388], [-3.0977601021954912, 53.39818207613354], [-3.097769356714978, 53.39854155243019], [-3.098671544880461, 53.39853325215649]]]}, "properties": {"kind": "max_footprint", "threshold_pct": 4.0}}, {"type": "Feature", "geometry": {"type": "Polygon", "coordinates": [[[-3.092009458001776, 53.39679657743714], [-3.0920048552797508, 53.3966168388931], [-3.0917041387816213, 53.396619589551435], [-3.0917087402370664, 53.39679932811338], [-3.092009458001776, 53.39679657743714]]]}, "properties": {"kind": "max_footprint", "threshold_pct": 4.0}}, {"type": "Feature", "geometry": {"type": "Polygon", "coordinates": [[[-3.0917041387816213, 53.396619589551435], [-3.091699537375673, 53.39643985098375], [-3.0913988220946114, 53.39644260086694], [-3.0914034222339937, 53.396622339452534], [-3.0917041387816213, 53.396619589551435]]]}, "properties": {"kind": "max_footprint", "threshold_pct": 4.0}}, {"type": "Feature", "geometry": {"type": "Polygon", "coordinates": [[[-3.105532386577919, 53.39631253782178], [-3.105527726960815, 53.396132800077595], [-3.1052270152372077, 53.39613558477382], [-3.105231673587792, 53.39631532253614], [-3.105532386577919, 53.39631253782178]]]}, "properties": {"kind": "max_footprint", "threshold_pct": 4.0}}, {"type": "Feature", "geometry": {"type": "Polygon", "coordinates": [[[-3.0913988220946114, 53.39644260086694], [-3.091394222004714, 53.39626286227565], [-3.0910935079407236, 53.39626561138374], [-3.091098106764068, 53.396445349992945], [-3.0913988220946114, 53.39644260086694]]]}, "properties": {"kind": "max_footprint", "threshold_pct": 4.0}}, {"type": "Feature", "geometry": {"type": "Polygon", "coordinates": [[[-3.1052270152372077, 53.39613558477382], [-3.105222356936731, 53.39595584700578], [-3.1049216464295224, 53.39595863092668], [-3.1049263034634915, 53.396138368712855], [-3.1052270152372077, 53.39613558477382]]]}, "properties": {"kind": "max_footprint", "threshold_pct": 4.0}}, {"type": "Feature", "geometry": {"type": "Polygon", "coordinates": [[[-3.0910935079407236, 53.39626561138374], [-3.091084310442439, 53.395906134148134], [-3.0907835988620467, 53.39590888246322], [-3.090792793827265, 53.39626835973461], [-3.0910935079407236, 53.39626561138374]]]}, "properties": {"kind": "max_footprint", "threshold_pct": 4.0}}, {"type": "Feature", "geometry": {"type": "Polygon", "coordinates": [[[-3.0907835988620467, 53.39590888246322], [-3.090779001453619, 53.39572914381895], [-3.09047829109029, 53.39573189135895], [-3.0904828872322025, 53.39591163002113], [-3.0907835988620467, 53.39590888246322]]]}, "properties": {"kind": "max_footprint", "threshold_pct": 4.0}}, {"type": "Feature", "geometry": {"type": "Polygon", "coordinates": [[[-3.094725144045822, 53.39713126402432], [-3.0947113015332994, 53.396592048893766], [-3.0944105854812576, 53.39659480636698], [-3.0944059726762427, 53.3964150679607], [-3.094105257841142, 53.39641782465874], [-3.094096034913051, 53.396058347793165], [-3.094396747215073, 53.396055591131024], [-3.094392134558915, 53.39587585270757], [-3.0946928455448015, 53.395873095306236], [-3.094688231671756, 53.39569335689504], [-3.0949889413415073, 53.39569059875445], [-3.0949935564810565, 53.39587033714767], [-3.095594978204623, 53.395864818559], [-3.0955995959268514, 53.39604455691056], [-3.0952988838233817, 53.39604731660146], [-3.095303500328751, 53.39622705496528], [-3.0959049270190784, 53.396221534790314], [-3.095909546107194, 53.39640127311244], [-3.0962102606443773, 53.39639851187118], [-3.096214881048735, 53.39657825016962], [-3.0968163125070944, 53.39657272537953], [-3.0968070666818877, 53.3962132488489], [-3.0965063535106605, 53.39621601158657], [-3.0964971104174017, 53.39585653499708], [-3.0961963997295046, 53.39585929694158], [-3.0961825392619176, 53.39532008196043], [-3.0958818323237827, 53.39532284309379], [-3.095877213533775, 53.3951431047373], [-3.095275802041393, 53.39514862469653], [-3.0952804182984783, 53.39532836308898], [-3.094679004074551, 53.39533388005547], [-3.0946836178483395, 53.39551361847813], [-3.094082200892942, 53.39551913245182], [-3.094077589652111, 53.395339393993275], [-3.0937768823664817, 53.395342149826426], [-3.0937722724417167, 53.39516241134419], [-3.0922687416023686, 53.3951761790626], [-3.092273345194796, 53.3953559176345], [-3.092874760212124, 53.3953504127828], [-3.0928931852090553, 53.396069366869746], [-3.0931938977094124, 53.396066613236385], [-3.093203113038258, 53.396426090209644], [-3.093503828022136, 53.396423335783226], [-3.0935084370274666, 53.39660307424332], [-3.093809153228327, 53.39660031904175], [-3.0938137635498126, 53.39678005747818], [-3.0941144809676553, 53.39677730150145], [-3.094119092605322, 53.39695703991421], [-3.0944198112401446, 53.39695428316231], [-3.094424424194019, 53.3971340215514], [-3.094725144045822, 53.39713126402432]]]}, "properties": {"kind": "max_footprint", "threshold_pct": 4.0}}, {"type": "Feature", "geometry": {"type": "Polygon", "coordinates": [[[-3.097385366517356, 53.39530902985531], [-3.0973807413950545, 53.3951292915888], [-3.097080035922245, 53.39513205573283], [-3.0970846597780883, 53.39531179401735], [-3.097385366517356, 53.39530902985531]]]}, "properties": {"kind": "max_footprint", "threshold_pct": 4.0}}, {"type": "Feature", "geometry": {"type": "Polygon", "coordinates": [[[-3.094679004074551, 53.39533388005547], [-3.0946743903503924, 53.3951541416271], [-3.094072978460881, 53.39515965552901], [-3.094077589652111, 53.395339393993275], [-3.094679004074551, 53.39533388005547]]]}, "properties": {"kind": "max_footprint", "threshold_pct": 4.0}}, {"type": "Feature", "geometry": {"type": "Polygon", "coordinates": [[[-3.104010208288655, 53.39560750244802], [-3.1039962491859465, 53.39506828885763], [-3.103695544810787, 53.395071069659245], [-3.103686241525408, 53.39471159386746], [-3.103084837690683, 53.394717153126784], [-3.1030801886558503, 53.394537415186086], [-3.102478787153902, 53.394542971380645], [-3.102488080207936, 53.394902447328676], [-3.102788783516727, 53.394899669573796], [-3.1027934313851464, 53.39507940752112], [-3.1030941359103728, 53.39507662899099], [-3.1030987850952303, 53.3952563669145], [-3.103399490836893, 53.3952535876091], [-3.103404141338218, 53.395433325508805], [-3.1037048482963114, 53.395430545428134], [-3.1037095001141295, 53.395610283303974], [-3.104010208288655, 53.39560750244802]]]}, "properties": {"kind": "max_footprint", "threshold_pct": 4.0}}, {"type": "Feature", "geometry": {"type": "Polygon", "coordinates": [[[-3.0961732991986786, 53.39496060527773], [-3.0961686792416008, 53.39478086692778], [-3.096469382330702, 53.39477810509121], [-3.0964647611568994, 53.39459836675353], [-3.0961640593342183, 53.39460112857211], [-3.096159439476529, 53.39442139021072], [-3.095858738870561, 53.394424151254164], [-3.0958541203289562, 53.39424441286906], [-3.095252721500782, 53.394249932648535], [-3.0952481055416157, 53.39407019422175], [-3.0949474073194247, 53.39407295295779], [-3.0949566367546324, 53.39443242984158], [-3.0952573375095978, 53.394429671069574], [-3.095261953568067, 53.39460940948491], [-3.095562655539789, 53.394606649937785], [-3.095567272914332, 53.394786388329415], [-3.095867976102806, 53.39478362800717], [-3.0958725947934504, 53.394963366375116], [-3.0961732991986786, 53.39496060527773]]]}, "properties": {"kind": "max_footprint", "threshold_pct": 4.0}}, {"type": "Feature", "geometry": {"type": "Polygon", "coordinates": [[[-3.106669937038402, 53.39378506346878], [-3.106665273057634, 53.39360532571697], [-3.10606388542102, 53.393610899901454], [-3.1060685468691362, 53.393790637689555], [-3.106669937038402, 53.39378506346878]]]}, "properties": {"kind": "max_footprint", "threshold_pct": 4.0}}, {"type": "Feature", "geometry": {"type": "Polygon", "coordinates": [[[-3.106965966800698, 53.39360253748907], [-3.1069613016037834, 53.3934227997497], [-3.106660609127032, 53.39342558795946], [-3.106665273057634, 53.39360532571697], [-3.106965966800698, 53.39360253748907]]]}, "properties": {"kind": "max_footprint", "threshold_pct": 4.0}}, {"type": "Feature", "geometry": {"type": "Polygon", "coordinates": [[[-3.099143280939743, 53.39349504714096], [-3.0991386487169965, 53.39331530892532], [-3.0985372636465445, 53.39332084518161], [-3.0985418933366544, 53.39350058343332], [-3.099143280939743, 53.39349504714096]]]}, "properties": {"kind": "max_footprint", "threshold_pct": 4.0}}, {"type": "Feature", "geometry": {"type": "Polygon", "coordinates": [[[-3.100711694074901, 53.395997526315035], [-3.1007024156190153, 53.39563805021883], [-3.10100312429331, 53.395635276934634], [-3.100998483873744, 53.395455538895995], [-3.100397069008204, 53.39546108467108], [-3.10039243117148, 53.3952813465906], [-3.0994903122984376, 53.395289659520294], [-3.0994856783109523, 53.39510992137994], [-3.099786383385379, 53.39510715117859], [-3.099781748181302, 53.39492741305056], [-3.1000824519394317, 53.394924642110084], [-3.1000778155187896, 53.39474490399437], [-3.1003785179606247, 53.394742132314796], [-3.100373880323444, 53.39456239421141], [-3.099471776647569, 53.39457070692452], [-3.0994625091211985, 53.3942112305923], [-3.0991618103289835, 53.39421399994631], [-3.0991571779069327, 53.39403426175354], [-3.0985557827057777, 53.39403979815408], [-3.09855115286627, 53.39386005991955], [-3.098250456457344, 53.39386282696608], [-3.0982458279339826, 53.39368308870781], [-3.0979451327416174, 53.3936858549792], [-3.097940505534373, 53.39350611669718], [-3.09763981155857, 53.39350888219343], [-3.097635185667418, 53.393329143887684], [-3.0970338000991937, 53.393334672572806], [-3.097029176790413, 53.39315493422532], [-3.0964277935558897, 53.393160459846], [-3.0964324143320523, 53.393340198229474], [-3.096131721373922, 53.39334295992215], [-3.0961363409334637, 53.39352269831789], [-3.0967377293326694, 53.39351717413947], [-3.0967469736661966, 53.393876650841804], [-3.0970476703239167, 53.39387388758094], [-3.097056917389055, 53.394233364224384], [-3.0973576165297825, 53.394230600170374], [-3.0973622414033395, 53.394410338465505], [-3.0976629417607078, 53.394407573636336], [-3.097667567950416, 53.39458731190773], [-3.097968269524425, 53.394584546303406], [-3.0979728970303095, 53.39476428455108], [-3.0982735998209576, 53.39476151817157], [-3.098278228643047, 53.394941256395505], [-3.0973761163225015, 53.394949553316565], [-3.0973807413950545, 53.3951292915888], [-3.0976814468181133, 53.3951265266876], [-3.0976860732068707, 53.39530626493609], [-3.0982874864365972, 53.39530073282617], [-3.098282857514927, 53.3951209946137], [-3.0988842680125757, 53.39511545951114], [-3.0988888994671546, 53.39529519768756], [-3.099189605907713, 53.395292428982515], [-3.0991942386785776, 53.39547216713519], [-3.0988935309715533, 53.395474935858275], [-3.0988981625257708, 53.39565467402324], [-3.0998002892967684, 53.395646365528336], [-3.0998049247002872, 53.39582610363346], [-3.10010563479074, 53.39582333260275], [-3.1001102715106263, 53.39600307068411], [-3.100711694074901, 53.395997526315035]]]}, "properties": {"kind": "max_footprint", "threshold_pct": 4.0}}, {"type": "Feature", "geometry": {"type": "Polygon", "coordinates": [[[-3.0985372636465445, 53.39332084518161], [-3.098532634006231, 53.39314110692418], [-3.098231942662607, 53.39314387389862], [-3.098236571036615, 53.393323612174086], [-3.0985372636465445, 53.39332084518161]]]}, "properties": {"kind": "max_footprint", "threshold_pct": 4.0}}, {"type": "Feature", "geometry": {"type": "Polygon", "coordinates": [[[-3.098231942662607, 53.39314387389862], [-3.0982226860639392, 53.39278439733055], [-3.0979219972031027, 53.39278716351185], [-3.097931251269199, 53.39314664011597], [-3.098231942662607, 53.39314387389862]]]}, "properties": {"kind": "max_footprint", "threshold_pct": 4.0}}, {"type": "Feature", "geometry": {"type": "Polygon", "coordinates": [[[-3.095516484525895, 53.39280926570666], [-3.095502634190115, 53.392270050325706], [-3.0952019486806264, 53.39227280963919], [-3.0952065641433193, 53.3924525481232], [-3.094905877317943, 53.392455306697556], [-3.0949151058597284, 53.39281478368434], [-3.095516484525895, 53.39280926570666]]]}, "properties": {"kind": "max_footprint", "threshold_pct": 4.0}}, {"type": "Feature", "geometry": {"type": "Polygon", "coordinates": [[[-3.0979219972031027, 53.39278716351185], [-3.0979081164772175, 53.392247948562755], [-3.097607431365367, 53.392250713932924], [-3.097602805822497, 53.392070975587096], [-3.0970014379820046, 53.39207650402019], [-3.0970153071624393, 53.39261571914851], [-3.097616682600367, 53.39261019060741], [-3.097621308292497, 53.392789928936075], [-3.0979219972031027, 53.39278716351185]]]}, "properties": {"kind": "max_footprint", "threshold_pct": 4.0}}, {"type": "Feature", "geometry": {"type": "Polygon", "coordinates": [[[-3.102478787153902, 53.394542971380645], [-3.1024741407018546, 53.394363233398025], [-3.102173441142295, 53.39436601034149], [-3.1021687960066044, 53.39418627233506], [-3.102469494299786, 53.394183495409685], [-3.102455555393446, 53.39364428141029], [-3.1030569442317693, 53.393638725396706], [-3.1030615930165766, 53.39381846336604], [-3.103362288627074, 53.39381568420544], [-3.1033576385759334, 53.393635946254214], [-3.1036583328700806, 53.393633166354604], [-3.103653681602637, 53.39345342841575], [-3.1039543745804345, 53.39345064777714], [-3.1039590271141972, 53.39363038569788], [-3.1045604154522852, 53.39362482211308], [-3.104551105369557, 53.393265346338325], [-3.104250413758164, 53.393268128473046], [-3.1042457600581947, 53.393088390558965], [-3.1036443792178363, 53.39309395252085], [-3.1036397281004797, 53.3929142145648], [-3.103339038871531, 53.392916994392], [-3.1033250896183775, 53.39237778043519], [-3.103024404138171, 53.39238055945097], [-3.1030151074185657, 53.39202108341493], [-3.1021130582753336, 53.39202941581122], [-3.1021084137891246, 53.39184967773035], [-3.1012063679948967, 53.391858003258726], [-3.1012156494200194, 53.39221747952321], [-3.100914964856344, 53.3922202532213], [-3.100919604377548, 53.39239999136302], [-3.1006189184977395, 53.39240276432211], [-3.100614280242765, 53.39222302616233], [-3.100313595579299, 53.39222579834627], [-3.1003089586404333, 53.39204606016271], [-3.0997075916963275, 53.39205160222325], [-3.0997029573397468, 53.39187186399788], [-3.099402275059124, 53.39187463387449], [-3.0993837431959435, 53.39115568084354], [-3.0984817112492222, 53.391163985714556], [-3.098490969484187, 53.39152346234966], [-3.098791649381891, 53.39152069478033], [-3.0988055409063517, 53.392059909635954], [-3.099106224552835, 53.39205714125546], [-3.0991108564268215, 53.392236879511174], [-3.099411541289706, 53.3922341103556], [-3.099416174479747, 53.392413848587566], [-3.0991154883506296, 53.39241661776119], [-3.0991201203242573, 53.39259635600547], [-3.099420807719625, 53.392593586813796], [-3.0994254410093363, 53.392773325034305], [-3.100026818183072, 53.39276778434359], [-3.1000314540551694, 53.3929475225223], [-3.1015349024480208, 53.39293365745597], [-3.1015395447014082, 53.39311339553864], [-3.101840235496521, 53.39311062023601], [-3.1018495226857055, 53.39347009634801], [-3.1021502159634764, 53.39346732025208], [-3.102154860899314, 53.39364705828142], [-3.1012527771171983, 53.39365538435205], [-3.1012574183039847, 53.39383512242989], [-3.1006560263335987, 53.39384066939416], [-3.1006421105209583, 53.393301455035086], [-3.1003414182598976, 53.393304227327356], [-3.100373880323444, 53.39456239421141], [-3.100975282524628, 53.39455684861692], [-3.1009706424045427, 53.39437711054394], [-3.1015720418732946, 53.394371561956994], [-3.1015766845261674, 53.39455129999385], [-3.102478787153902, 53.394542971380645]], [[-3.101562756717362, 53.394012085866095], [-3.101262059540694, 53.394014860502004], [-3.1012574183039847, 53.39383512242989], [-3.101558114214301, 53.393832347812044], [-3.101562756717362, 53.394012085866095]]]}, "properties": {"kind": "max_footprint", "threshold_pct": 4.0}}, {"type": "Feature", "geometry": {"type": "Polygon", "coordinates": [[[-3.1098887076869945, 53.390339336656574], [-3.109884030732569, 53.3901595989959], [-3.109583361549379, 53.390162394449035], [-3.109588037237743, 53.3903421321279], [-3.1098887076869945, 53.390339336656574]]]}, "properties": {"kind": "max_footprint", "threshold_pct": 4.0}}, {"type": "Feature", "geometry": {"type": "Polygon", "coordinates": [[[-3.111218811185176, 53.3836750540529], [-3.1112141297636873, 53.38349531627124], [-3.1109135076666514, 53.383498114835035], [-3.110918187822587, 53.38367785263492], [-3.111218811185176, 53.3836750540529]]]}, "properties": {"kind": "max_footprint", "threshold_pct": 4.0}}, {"type": "Feature", "geometry": {"type": "Polygon", "coordinates": [[[-3.1291419579602673, 53.37919207223731], [-3.129132445760056, 53.3788325985977], [-3.12943303312797, 53.37882975433046], [-3.1294235186020285, 53.37847028070492], [-3.1291229337644086, 53.37847312493511], [-3.1291181778432953, 53.378293388095194], [-3.128817594219664, 53.37829623155019], [-3.1288223488756497, 53.3784759684086], [-3.1285217639357645, 53.378478811125426], [-3.128540778010326, 53.37919775857575], [-3.1291419579602673, 53.37919207223731]]]}, "properties": {"kind": "max_footprint", "threshold_pct": 4.0}}, {"type": "Feature", "geometry": {"type": "Polygon", "coordinates": [[[-3.122166928834939, 53.37692069779593], [-3.1221622024693607, 53.37674096047974], [-3.1212604820858094, 53.37674943586662], [-3.1212652046563156, 53.376929173238], [-3.122166928834939, 53.37692069779593]]]}, "properties": {"kind": "max_footprint", "threshold_pct": 4.0}}, {"type": "Feature", "geometry": {"type": "Polygon", "coordinates": [[[-3.1069473063141135, 53.392883586497206], [-3.1069379763718867, 53.39252411096689], [-3.1066372902264905, 53.39252689908585], [-3.1066186360089807, 53.391807947883834], [-3.106017273697401, 53.39181352170528], [-3.1060032911579243, 53.39127430813471], [-3.106303968540297, 53.39127152165696], [-3.1063132927154653, 53.39163099734012], [-3.1069146523943867, 53.391625422040846], [-3.1069239818348655, 53.39198489762847], [-3.10722466413144, 53.39198210880691], [-3.1072339963050313, 53.39234158433527], [-3.107534681083835, 53.3923387947203], [-3.107539348512141, 53.39251853245772], [-3.1078400345069714, 53.392515742067495], [-3.1078447032517222, 53.392695479781004], [-3.109348138803544, 53.39268151638267], [-3.1093341137265504, 53.392142303497764], [-3.108732747253931, 53.39214789101921], [-3.1087234025187818, 53.39178841566117], [-3.108422721739465, 53.391791208249906], [-3.1084133797376636, 53.39143173283255], [-3.108112701440436, 53.39143452462785], [-3.1081033621718683, 53.39107504915122], [-3.108704713651534, 53.39106946487632], [-3.108714057984651, 53.39142894028021], [-3.1090147361813862, 53.39142614697079], [-3.109024083247844, 53.391785622315375], [-3.1096254445551517, 53.391780033352596], [-3.1096301206961487, 53.39195977097988], [-3.1099308025405485, 53.391956975344684], [-3.1099261251333687, 53.39177723773561], [-3.110527486138862, 53.39177164423042], [-3.110518126410786, 53.39141216906792], [-3.109616092424041, 53.39142055808081], [-3.109602064604579, 53.39088134513015], [-3.1093013903067765, 53.39088413989906], [-3.1092967157336426, 53.390704402219185], [-3.1108000803891027, 53.39069042089526], [-3.1108047612927354, 53.390870158484084], [-3.1114061093347916, 53.39086456061882], [-3.1114107928209935, 53.39104429816546], [-3.1120121431937746, 53.391038697235565], [-3.1120168292625956, 53.39121843474], [-3.1129188582420864, 53.391210027612566], [-3.1129047887918584, 53.39067081524633], [-3.112604116314105, 53.39067361832444], [-3.1125994278643256, 53.390493880839315], [-3.1122987566022267, 53.39049668314211], [-3.1122940694689394, 53.39031694563301], [-3.1119933994224946, 53.390319747160525], [-3.1119840278392497, 53.38996027208863], [-3.111382692659372, 53.389965872799664], [-3.111373326341797, 53.389606397631866], [-3.1110726612083406, 53.3896091968154], [-3.1110632976242294, 53.389249721588236], [-3.1113639602256957, 53.389246922441146], [-3.111368643258563, 53.38942666003937], [-3.1116693070756503, 53.38942386011708], [-3.111673991424885, 53.389603597691334], [-3.1119746564575914, 53.38960079699378], [-3.111979342123223, 53.38978053454408], [-3.112280008371546, 53.38977773307128], [-3.1122846953535994, 53.389957470597594], [-3.1131866975941325, 53.3899490615824], [-3.113191388424712, 53.3901287990482], [-3.1137927255315736, 53.39012318921646], [-3.113783338856744, 53.38976371435217], [-3.113482672860605, 53.38976651961001], [-3.113477980864917, 53.38958678215101], [-3.112876651253281, 53.389592390359105], [-3.112871961840051, 53.38941265285787], [-3.1125712982245695, 53.389415455808155], [-3.112566610127759, 53.3892357182829], [-3.1122659477278405, 53.38923852045796], [-3.112261260947421, 53.38905878290871], [-3.1119605997630684, 53.38906158430853], [-3.111951228885355, 53.38870210915638], [-3.112251887537804, 53.38869930779304], [-3.11225657421741, 53.38887904535375], [-3.112557234085399, 53.38887624321519], [-3.112561922081369, 53.38905598075191], [-3.1128625831648944, 53.38905317783813], [-3.1128672724772546, 53.38923291535085], [-3.113769259223081, 53.38922450201276], [-3.113773952383825, 53.38940423946497], [-3.1140746157974815, 53.38940143348666], [-3.1140793102746973, 53.389581170914866], [-3.114680639482515, 53.38957555665072], [-3.1146665486064564, 53.3890363444586], [-3.1155685306454575, 53.38902791754954], [-3.1155638299899504, 53.388848180195595], [-3.1152631706267724, 53.388850989903965], [-3.1152490727613524, 53.38831177775281], [-3.1149484171454036, 53.38831458664933], [-3.114943719223909, 53.38813484923583], [-3.1155450278734738, 53.38812923072243], [-3.1155497283267604, 53.38830896809934], [-3.11645169471961, 53.388300534597086], [-3.1164375821184738, 53.38776132261396], [-3.116738233683947, 53.38775850998757], [-3.1167335283189015, 53.387578772666714], [-3.117034178567917, 53.38757595930169], [-3.1170294719876392, 53.38739622199342], [-3.1173301209202, 53.38739340788978], [-3.1173254131247154, 53.38721367059412], [-3.1179267083062823, 53.38720804015268], [-3.1179219980298116, 53.38702830288794], [-3.1182226442788057, 53.38702548655016], [-3.118208509955995, 53.38648627477654], [-3.118509152356978, 53.38648345773688], [-3.1185044397516277, 53.38630372048588], [-3.118805080836177, 53.38630090270765], [-3.1188003670157687, 53.386121165469255], [-3.11970228616798, 53.38611270764821], [-3.119697568601097, 53.385932970459166], [-3.119998206951327, 53.38593014969005], [-3.1199887694383603, 53.385570675331486], [-3.1196881336195337, 53.385573496063884], [-3.119683416204853, 53.38539375885762], [-3.120284685260397, 53.38538811667272], [-3.1202658059838173, 53.38466916793734], [-3.121468323235371, 53.38465787477914], [-3.121463598480677, 53.384478137654476], [-3.121764226400964, 53.384475312491155], [-3.1217595004314855, 53.38429557537917], [-3.1214588737767945, 53.38429840052409], [-3.1214541491237213, 53.384118663387966], [-3.1217547745128305, 53.38411583826146], [-3.121750048644998, 53.38393610113799], [-3.1220506727177186, 53.38393327527304], [-3.122045945635154, 53.383753538162225], [-3.12264719109697, 53.38374788419862], [-3.122633002561134, 53.38320867294226], [-3.1229336214191834, 53.383205844880436], [-3.122928890743461, 53.38302610780194], [-3.123229508285141, 53.38302327900173], [-3.1232200445553624, 53.38266380486432], [-3.1235206595152065, 53.382660975344166], [-3.1235064605058493, 53.382121764150284], [-3.1241076826801897, 53.38211610295014], [-3.1241029472480384, 53.3819363659109], [-3.124704166687865, 53.38193070172048], [-3.1246899531046384, 53.381391490679], [-3.1255917704937803, 53.38138298888358], [-3.125587028938537, 53.38120325191364], [-3.1252864244584786, 53.38120608658376], [-3.125281684219564, 53.381026349589625], [-3.124981080953875, 53.381029183484515], [-3.124971603159604, 53.38066970944212], [-3.125572804578726, 53.38066404096938], [-3.1255680632274285, 53.380484303976495], [-3.1258686625952183, 53.38048146862346], [-3.1258591775150175, 53.38012199465736], [-3.1261597743012546, 53.38011915858452], [-3.1261502868945397, 53.37975968463242], [-3.1267514752529686, 53.379754010290455], [-3.126756221461308, 53.37993374723244], [-3.1273574121460754, 53.379928069826605], [-3.1273621609359608, 53.38010780672586], [-3.127061564353847, 53.38011064582564], [-3.1270663119295286, 53.380290382737634], [-3.1279681053184643, 53.38028186311268], [-3.12796335394698, 53.380102126256126], [-3.1282639503758585, 53.38009928488617], [-3.128254445255674, 53.37973981119289], [-3.127052069355636, 53.37975117198438], [-3.127042574561624, 53.37939169812018], [-3.1267419829894, 53.379394536389285], [-3.126732490929969, 53.37903506246515], [-3.1273336689625943, 53.37902938524418], [-3.1273384174971666, 53.37920912217215], [-3.127939597855923, 53.37920344188737], [-3.1279348467909798, 53.37902370499638], [-3.1282354356285476, 53.37902086373744], [-3.1282164268190393, 53.37830191619011], [-3.1279158430420733, 53.378304757375055], [-3.1279063414741315, 53.37794528352995], [-3.128206922720878, 53.377942442382], [-3.1282116747444086, 53.37812217928892], [-3.1285122572051627, 53.37811933736581], [-3.1285075039165275, 53.3779396004774], [-3.1288080850610682, 53.3779367578161], [-3.128803330558456, 53.37775702094046], [-3.1294044901639775, 53.377751333384914], [-3.129409247196764, 53.37793107022354], [-3.1303109900166386, 53.37792253315962], [-3.1303014684117505, 53.37756305958782], [-3.1306020467191895, 53.3775602124236], [-3.1305972847284766, 53.37738047564764], [-3.129996130592519, 53.37738616918238], [-3.129991371183094, 53.377206432363565], [-3.1296907953033886, 53.377209277977435], [-3.129676521177212, 53.37667006743103], [-3.1305782372776436, 53.37666152848635], [-3.130573475542938, 53.37648179168167], [-3.1311746168239396, 53.37647609530579], [-3.1311698526104874, 53.37629635853247], [-3.131470421909183, 53.37629350922814], [-3.131451360507869, 53.37557456215161], [-3.131150796268928, 53.37557741138172], [-3.1311365045506028, 53.37503820095834], [-3.1314370649948717, 53.37503535178389], [-3.1314037105910475, 53.37377719405825], [-3.131704262130327, 53.373774344257114], [-3.1316994961556497, 53.37359460743473], [-3.1313989458811387, 53.373597457217315], [-3.131360830046027, 53.37215956228318], [-3.1310602898379445, 53.3721624111608], [-3.131050763920686, 53.371802937332724], [-3.130750226190676, 53.37180578541675], [-3.130745464573478, 53.371626048475555], [-3.130444928056894, 53.371628895784546], [-3.130440167755496, 53.37144915881905], [-3.1301396324523396, 53.37145200535301], [-3.130134873466715, 53.371272268363235], [-3.129533805236111, 53.3712779591246], [-3.129538561692547, 53.37145769615141], [-3.1265332048274685, 53.37148610475381], [-3.12653794868891, 53.37166584195987], [-3.126237411457048, 53.37166867867785], [-3.126242154104862, 53.37184841589662], [-3.1259416155573807, 53.37185125187658], [-3.1259368741741986, 53.371671514639324], [-3.1256363368403735, 53.3716743498443], [-3.1256410769589213, 53.371854087100004], [-3.1253405383094996, 53.37185692156695], [-3.1253500161701817, 53.37221639609806], [-3.1250494749405027, 53.372219229845385], [-3.125054212682595, 53.37239896712078], [-3.1247536701373035, 53.37240180013003], [-3.1247726165562204, 53.37312074924803], [-3.1244720689011647, 53.37312358157451], [-3.124476804368466, 53.373303318858106], [-3.124176255397752, 53.3733061504465], [-3.124214130850699, 53.3747440486561], [-3.123913571710632, 53.37474687963541], [-3.123908838365702, 53.37456714236086], [-3.1236082804395964, 53.374569972565155], [-3.1236130125196713, 53.37474970985814], [-3.1233124532778325, 53.374752539324284], [-3.123321915060869, 53.37511201392986], [-3.123622476832461, 53.37510918442687], [-3.123627209065177, 53.37528892170263], [-3.1239277720507834, 53.3752860914246], [-3.123941972848993, 53.37582530316215], [-3.1233408392373594, 53.37583096307216], [-3.123355032903863, 53.37637017486862], [-3.1230544622268384, 53.37637300374396], [-3.123049732218778, 53.37619326646578], [-3.122749162755874, 53.37619609456606], [-3.122744434063637, 53.376016357263744], [-3.1224438658148546, 53.37601918458899], [-3.1224533207202265, 53.376378659224734], [-3.122753891498954, 53.37637583186267], [-3.122758620292882, 53.376555569153496], [-3.1230591922857585, 53.376552741016376], [-3.1230733827676787, 53.37709195279924], [-3.1227728069797425, 53.37709478099161], [-3.1227775359770575, 53.37727451825949], [-3.122476958873224, 53.37727734571362], [-3.1224816866563256, 53.37745708299418], [-3.1221811082365942, 53.377459909710055], [-3.122185834805457, 53.377639647003285], [-3.122486414490265, 53.377636820269], [-3.1225005982971075, 53.37817603205904], [-3.122801181726385, 53.378173204512855], [-3.1228106403820806, 53.378532678974025], [-3.1231112262907774, 53.37852985063432], [-3.123115956960063, 53.37870958783788], [-3.1225147825615003, 53.37871524379744], [-3.122510054422529, 53.378535506557036], [-3.121908882350918, 53.378541159452986], [-3.1219136079595753, 53.378720896730194], [-3.1216130205823833, 53.37872372206154], [-3.1216177449766804, 53.3789034593514], [-3.121317156283516, 53.37890628394443], [-3.1213124331543916, 53.37872654663616], [-3.121011845675613, 53.378729370454096], [-3.1210071238624377, 53.37854963312172], [-3.120706537598046, 53.37855245616457], [-3.12070181710079, 53.37837271880805], [-3.1204012320507895, 53.37837554107582], [-3.1203823556298, 53.37765659151892], [-3.120081775589514, 53.377659412956525], [-3.120077057876205, 53.37747967553459], [-3.1194759001736285, 53.377485316103034], [-3.119480615356773, 53.3776650535617], [-3.1191800351643457, 53.37766787272928], [-3.1192083197371776, 53.37874629747101], [-3.1195089075203937, 53.37874347819329], [-3.1195183386472345, 53.379102953024585], [-3.118616567554412, 53.3791114086978], [-3.1186212793982753, 53.3792911461599], [-3.1183206876674423, 53.37929396322257], [-3.118334819707323, 53.37983317562952], [-3.1174330328238344, 53.379841622442214], [-3.1174377398093123, 53.380021359954725], [-3.117137142814971, 53.380024174063834], [-3.1171324370947566, 53.37984443653299], [-3.1165312454848135, 53.37985006244433], [-3.1165453552055813, 53.380389275129545], [-3.115944155801653, 53.38039489812378], [-3.1159582583856724, 53.38093411086725], [-3.115657654811909, 53.38093692128417], [-3.1156811538027447, 53.38183560916673], [-3.1153805438515527, 53.38183841891836], [-3.1153852425359205, 53.38201815649596], [-3.11448340858297, 53.382026581264995], [-3.114488103521564, 53.38220631889174], [-3.113886878102932, 53.382211931657004], [-3.113882185695211, 53.382032193993716], [-3.1132809626056104, 53.38203780369524], [-3.1132856524824564, 53.382217541395065], [-3.1129850395965617, 53.3822203451289], [-3.11298972825839, 53.38240008284125], [-3.113290342409736, 53.382397279089155], [-3.11329503238745, 53.38257701677752], [-3.1138962630697575, 53.38257140696637], [-3.113905648238433, 53.38293088225281], [-3.114206266034869, 53.38292807617548], [-3.1142109599604053, 53.38310781379182], [-3.1145115789718667, 53.383105006939395], [-3.1145209695054255, 53.38346448211833], [-3.114821590997442, 53.3834616744725], [-3.114826287605505, 53.383641412035075], [-3.1151269103125574, 53.38363860361412], [-3.1151316082366836, 53.383818341152676], [-3.115432232158772, 53.38381553195661], [-3.1154369313989907, 53.383995269471136], [-3.1157375565361107, 53.383992459499915], [-3.1157422570924482, 53.38417219699042], [-3.1142391245736967, 53.38418623936946], [-3.1142438188525965, 53.38436597694566], [-3.113642562960424, 53.384371588635844], [-3.1136378712127235, 53.38419185102312], [-3.1133372444565475, 53.384194655714644], [-3.1133325540248915, 53.3840149180779], [-3.1130319284838617, 53.384017721994326], [-3.1130178612882173, 53.383478508994905], [-3.1133184830325633, 53.38347570513326], [-3.113309102623208, 53.38311622980816], [-3.1130084834099154, 53.383119033633285], [-3.1130037945464006, 53.38293929594387], [-3.1127031765481914, 53.38294209899393], [-3.1127172394934455, 53.38348131209972], [-3.1124166176482624, 53.38348411444769], [-3.112435363885423, 53.38420306524814], [-3.112735990792884, 53.38420026282717], [-3.1127406787437777, 53.38438000049469], [-3.112440050570713, 53.38438280293391], [-3.112449424092501, 53.384742278288286], [-3.1127500547968117, 53.38473947581256], [-3.1127641192544906, 53.38527868874634], [-3.1124634847532056, 53.385281491276835], [-3.1124681717409173, 53.38546122892822], [-3.1121675359235415, 53.38546403072004], [-3.112162850201516, 53.38528429305042], [-3.111862215599435, 53.38528709406713], [-3.111857531193473, 53.38510735637353], [-3.111556897806687, 53.38511015661512], [-3.111552214716763, 53.38493041889754], [-3.1112515825452762, 53.38493321836404], [-3.1112469007713615, 53.38475348062248], [-3.110946269815171, 53.384756279313876], [-3.1109415893572403, 53.38457654154837], [-3.11064095961635, 53.38457933946465], [-3.1106362804743752, 53.384399601675206], [-3.1103356519487857, 53.3844023988164], [-3.110321618621561, 53.38386318535902], [-3.1100209938424523, 53.38386598168872], [-3.1100256703023073, 53.3840457195318], [-3.109725044207325, 53.38404851512284], [-3.109743745487196, 53.38476746651065], [-3.1100443766446446, 53.38476467084677], [-3.110049053355963, 53.38494440866117], [-3.1103496857287665, 53.38494161222219], [-3.1103543637560436, 53.38512135001267], [-3.110654997344202, 53.385118552798595], [-3.110664356081051, 53.3854780283259], [-3.1109649921502522, 53.38547523031851], [-3.1109696728598664, 53.38565496805535], [-3.111270310144431, 53.38565216927284], [-3.111274992170099, 53.385831906985715], [-3.11187626911959, 53.38582630711356], [-3.1118809537270664, 53.38600604478423], [-3.1121815933919756, 53.38600324369453], [-3.112190965289569, 53.3863627189822], [-3.11158968084638, 53.386368320477615], [-3.1115849974038943, 53.38618858280016], [-3.1106830741586466, 53.386196979311734], [-3.1106783945637595, 53.386017241573875], [-3.110377754647081, 53.38602003887904], [-3.110373076368251, 53.38584030111722], [-3.110072437666993, 53.38584309764725], [-3.110067760704192, 53.3856633598615], [-3.1097671232183544, 53.385666155616406], [-3.1097624475715566, 53.38548641780673], [-3.1094618113011396, 53.38548921278653], [-3.1094571369703177, 53.3853094749529], [-3.109156501915324, 53.38531226915765], [-3.109151828900452, 53.38513253130009], [-3.108851195060882, 53.38513532472973], [-3.108846523361931, 53.384955586848264], [-3.1085458907377874, 53.384958379502855], [-3.108564572772294, 53.3856773310671], [-3.108865210459188, 53.38567453833978], [-3.1088698823591083, 53.385854276198344], [-3.1091705212614804, 53.38585148269591], [-3.1091751944773796, 53.38603122053055], [-3.109475834595227, 53.38602842625303], [-3.109480509127133, 53.38620816406373], [-3.109781150460455, 53.38620536901109], [-3.1097858263083933, 53.38638510679785], [-3.1100864688571876, 53.386382310970106], [-3.1100911460211877, 53.38656204873294], [-3.110391789785454, 53.386559252130056], [-3.1103964682655407, 53.38673898986893], [-3.110697113245277, 53.38673619249091], [-3.1107064728880096, 53.387095667915034], [-3.1110071203490284, 53.387092869743654], [-3.111011801511716, 53.38727260742891], [-3.1107111527848734, 53.38727540561851], [-3.1107158327320668, 53.387455143316245], [-3.1083106309797937, 53.38747750172887], [-3.1083059611593367, 53.387297763885535], [-3.1080053119799995, 53.38730055526266], [-3.1080006434755973, 53.387120817395406], [-3.1076999955118847, 53.38712360799741], [-3.107709330039218, 53.38748308376256], [-3.1062060768095834, 53.38749702560015], [-3.10620141585006, 53.38731728762966], [-3.105900766319546, 53.387320073708175], [-3.10588678753921, 53.38678085970787], [-3.105586141756054, 53.38678364497504], [-3.105595458361196, 53.38714312101725], [-3.1052948099963036, 53.38714590556375], [-3.105308781482209, 53.387685119638476], [-3.1056094336446574, 53.38768233503758], [-3.1056140921726803, 53.3878620730329], [-3.106215398879014, 53.38785650152396], [-3.106220059988922, 53.38803623947725], [-3.106520714532791, 53.388033452569175], [-3.106525376958735, 53.38821319049861], [-3.1068260327183634, 53.38821040281541], [-3.1068353602525334, 53.38856987862076], [-3.107136018493852, 53.388567090144285], [-3.1071453487605627, 53.38892656589039], [-3.1074460094836054, 53.388923776620615], [-3.1074553424829707, 53.38928325230746], [-3.107154679227974, 53.38928604161358], [-3.10716400989609, 53.389645517313845], [-3.1065626781715605, 53.38965109372774], [-3.106567341048833, 53.38983083160558], [-3.1062666738453086, 53.38983361869517], [-3.106275997218215, 53.39019309447], [-3.104772647788306, 53.39020701874403], [-3.104767992407064, 53.39002728076881], [-3.1041666548166256, 53.390032845143], [-3.1041620020175444, 53.38985310712579], [-3.103560666759026, 53.38985866843568], [-3.1035560165420524, 53.38967893037652], [-3.103255350103798, 53.38968170987784], [-3.1032507012028603, 53.38950197179488], [-3.102950035980627, 53.38950475052108], [-3.1029407408607517, 53.38914527430174], [-3.1020387524901976, 53.389153605829804], [-3.1020526838509075, 53.38969282031301], [-3.102353350489084, 53.38969004383973], [-3.1023579956419165, 53.389869781971285], [-3.102658663496168, 53.38986700472289], [-3.1026633099650116, 53.39004674283061], [-3.102963979035339, 53.39004396480714], [-3.102968626820219, 53.39022370289102], [-3.1035699673430166, 53.39021814453679], [-3.1035746177100387, 53.390397882578775], [-3.103273946207565, 53.3904006621525], [-3.1032832445594694, 53.390760138255466], [-3.1035839185941323, 53.390757358645516], [-3.1035885691112064, 53.3909370966703], [-3.104189919562693, 53.39093153514308], [-3.1041945726620437, 53.39111127312591], [-3.104495249078848, 53.39110849120862], [-3.104499903494388, 53.3912882291676], [-3.104800581127274, 53.39128544647514], [-3.1048052368590278, 53.391465184410265], [-3.1045045579599893, 53.39146796712087], [-3.104509212475652, 53.39164770506839], [-3.104208532260383, 53.39165048704003], [-3.1041992258114415, 53.391291011103014], [-3.1038985480784453, 53.391293792281374], [-3.103903200011738, 53.39147353027085], [-3.1036025209625513, 53.39147631071028], [-3.103597870295417, 53.39129657270268], [-3.103297192462366, 53.39129935236693], [-3.103306491314332, 53.39165882841259], [-3.103907851995064, 53.391653268254615], [-3.103926460428739, 53.39237222013236], [-3.104227145758869, 53.39236943884532], [-3.1042317992586193, 53.39254917678232], [-3.1048331723011784, 53.39254361190074], [-3.104837828383481, 53.392723349795766], [-3.1051385160958955, 53.392720566201206], [-3.105143173494541, 53.39290030407237], [-3.1069473063141135, 53.392883586497206]], [[-3.1060032911579243, 53.39127430813471], [-3.105702613725423, 53.3912770938554], [-3.1056979542453274, 53.39109735596893], [-3.1059986304116927, 53.39109457026638], [-3.1060032911579243, 53.39127430813471]], [[-3.1081033621718683, 53.39107504915122], [-3.1078026863566945, 53.391077840153095], [-3.1077980180638654, 53.39089810238801], [-3.1080986926129226, 53.39089531140431], [-3.1081033621718683, 53.39107504915122]], [[-3.1077980180638654, 53.39089810238801], [-3.1074973434645994, 53.39090089261466], [-3.1074880095617687, 53.39054141703096], [-3.1071873374445036, 53.39054420646424], [-3.107173340764918, 53.39000499299118], [-3.1074740090839854, 53.39000220361241], [-3.1074833426856467, 53.39036167923051], [-3.107784013486638, 53.39035888905836], [-3.1077980180638654, 53.39089810238801]], [[-3.1104947279714446, 53.39051348106135], [-3.1092920412107836, 53.39052466453355], [-3.109287366738204, 53.390344926842225], [-3.1089866961883885, 53.3903477207995], [-3.1089820230321448, 53.390167983084226], [-3.109583361549379, 53.390162394449035], [-3.109578685911301, 53.38998265676444], [-3.109278017943869, 53.38998545144232], [-3.109268669350633, 53.38962597601952], [-3.1098700001711053, 53.389620385979505], [-3.1098746769746253, 53.38980012365736], [-3.110175343575437, 53.38979732748363], [-3.1101846998654574, 53.39015680278576], [-3.1104853689480287, 53.390154005818594], [-3.1104947279714446, 53.39051348106135]], [[-3.1089820230321448, 53.390167983084226], [-3.108681353698128, 53.3901707762663], [-3.1086766818581935, 53.38999103852709], [-3.108977349926162, 53.38998824536322], [-3.1089820230321448, 53.390167983084226]], [[-3.109268669350633, 53.38962597601952], [-3.1089680038649794, 53.38962876990401], [-3.108963330909778, 53.38944903216582], [-3.109263995129424, 53.389446238299506], [-3.109268669350633, 53.38962597601952]], [[-3.1116552543302287, 53.388884647359916], [-3.11105393424153, 53.38889024633812], [-3.111039889545119, 53.38835103341999], [-3.1113405458168497, 53.388348234364045], [-3.1113452285978895, 53.38852797199093], [-3.1116458860851774, 53.3885251721598], [-3.1116552543302287, 53.388884647359916]], [[-3.111039889545119, 53.38835103341999], [-3.1107392332230392, 53.388353831718945], [-3.110734553024175, 53.38817409404985], [-3.1110352080803483, 53.38817129576912], [-3.111039889545119, 53.38835103341999]], [[-3.110438576850621, 53.38835662926092], [-3.110137920427883, 53.388359426045945], [-3.1101332427608366, 53.388179688340436], [-3.109832587553697, 53.38818248435027], [-3.109827911202854, 53.38800274662081], [-3.109527257211317, 53.38800554185548], [-3.10952258217665, 53.3878258041021], [-3.110725192777453, 53.38781461869452], [-3.110734553024175, 53.38817409404985], [-3.1104338979176664, 53.388176891573615], [-3.110438576850621, 53.38835662926092]], [[-3.1089352942339756, 53.38837060561629], [-3.108634637559828, 53.38837339861645], [-3.10862529493508, 53.388013923017695], [-3.108324640742506, 53.388016715224516], [-3.108319970771377, 53.38783697739837], [-3.1080193177944624, 53.387839768830055], [-3.108014649139432, 53.38766003097999], [-3.10861595251129, 53.387654447396045], [-3.1086206236980667, 53.38783418520975], [-3.1089212765745176, 53.38783139226414], [-3.1089352942339756, 53.38837060561629]], [[-3.108014649139432, 53.38766003097999], [-3.107713997378179, 53.38766282163652], [-3.107709330039218, 53.38748308376256], [-3.108009980534611, 53.387480293124185], [-3.108014649139432, 53.38766003097999]], [[-3.1146054933969247, 53.38669975769648], [-3.114304849072533, 53.386702564914515], [-3.114300154137294, 53.38652282741286], [-3.1146007971959118, 53.386520020213105], [-3.1146054933969247, 53.38669975769648]], [[-3.113680098758499, 53.385809489331436], [-3.113379460611423, 53.38581229418737], [-3.113374769725763, 53.38563255660222], [-3.11367540660713, 53.38562975176454], [-3.113680098758499, 53.385809489331436]], [[-3.113374769725763, 53.38563255660222], [-3.1130741327939506, 53.38563536068299], [-3.1130694432244366, 53.38545562307385], [-3.1127688075078868, 53.38545842637949], [-3.1127641192544906, 53.38527868874634], [-3.1133653881057897, 53.38527308141473], [-3.113374769725763, 53.38563255660222]], [[-3.113966656755304, 53.38526747105557], [-3.113666022455776, 53.385270276613596], [-3.113661330455789, 53.38509053902952], [-3.113360697371471, 53.385093343812386], [-3.113356006687599, 53.3849136062043], [-3.113055374818492, 53.38491641021203], [-3.113045996133352, 53.38455693494217], [-3.113346625471187, 53.38455413097095], [-3.1133513160541706, 53.38473386859049], [-3.113651946607192, 53.38473106384414], [-3.1136566385062614, 53.384910801439695], [-3.1139572702744656, 53.38490799591821], [-3.113966656755304, 53.38526747105557]], [[-3.1202658059838173, 53.38466916793734], [-3.119965176544002, 53.38467198933472], [-3.119960458117363, 53.38449225211815], [-3.1202610862915643, 53.38448943073912], [-3.1202658059838173, 53.38466916793734]], [[-3.116625318888424, 53.3834448127041], [-3.116324697699652, 53.3834476248909], [-3.1163199948144564, 53.38326788741408], [-3.1166206147377014, 53.383265075245575], [-3.116625318888424, 53.3834448127041]], [[-3.116019374840636, 53.38327069882576], [-3.115718754816255, 53.38327350948061], [-3.11571405451266, 53.38309377196145], [-3.1154134357032484, 53.383096581841194], [-3.1154040377786822, 53.38273710674903], [-3.115103421449726, 53.38273991583536], [-3.1150987238287158, 53.3825601782624], [-3.1147981087147167, 53.38256298657361], [-3.1147934124096843, 53.382383248976616], [-3.115695253803734, 53.38237482182744], [-3.115690553752861, 53.3821950842796], [-3.115991166184364, 53.382192273734574], [-3.1159958675006822, 53.38237201126412], [-3.116296481147073, 53.38236919994397], [-3.116301183779405, 53.38254893744948], [-3.116601798640685, 53.38254612535422], [-3.1166065025890597, 53.38272586283566], [-3.116907118665225, 53.38272304996528], [-3.1169165292447145, 53.38308252487435], [-3.116315291979834, 53.383088149931524], [-3.116310589195785, 53.38290841244326], [-3.116009971752978, 53.38291122381831], [-3.116019374840636, 53.38327069882576]], [[-3.1168835931019707, 53.38182436259231], [-3.1165829833530236, 53.38182717537109], [-3.1165782796575647, 53.38164743786098], [-3.116277671123438, 53.381650249864656], [-3.116258861908883, 53.38093129969358], [-3.116860068803602, 53.38092567507595], [-3.1168647735620882, 53.38110541259068], [-3.1174659827851343, 53.38109978490936], [-3.117470690124935, 53.3812795223817], [-3.1177712959258947, 53.381276707387556], [-3.11777600458169, 53.38145644483585], [-3.1168741832308413, 53.381464887602945], [-3.1168835931019707, 53.38182436259231]], [[-3.1189501507971635, 53.38036675288261], [-3.1186495515254693, 53.38036957081209], [-3.1186448393775956, 53.38018983338439], [-3.118945437384001, 53.38018701547325], [-3.1189501507971635, 53.38036675288261]], [[-3.131155560277482, 53.37575714817802], [-3.130854994722397, 53.37575999667007], [-3.130850231978763, 53.375580259855234], [-3.131150796268928, 53.37557741138172], [-3.131155560277482, 53.37575714817802]]]}, "properties": {"kind": "max_footprint", "threshold_pct": 4.0}}, {"type": "Feature", "geometry": {"type": "Polygon", "coordinates": [[[-3.0949889413415073, 53.39569059875445], [-3.0949843262516, 53.39551086035549], [-3.0946836178483395, 53.39551361847813], [-3.094688231671756, 53.39569335689504], [-3.0949889413415073, 53.39569059875445]]]}, "properties": {"kind": "max_footprint", "threshold_pct": 7.0}}, {"type": "Feature", "geometry": {"type": "Polygon", "coordinates": [[[-3.098875005252873, 53.39475598314113], [-3.0988703739477463, 53.394576244947544], [-3.099171075322572, 53.3945734763146], [-3.0991664428008634, 53.394393738133324], [-3.0988657426924364, 53.39439650674822], [-3.098861111486942, 53.39421676854315], [-3.0982597136534262, 53.39422230346546], [-3.09826434232615, 53.39440204170658], [-3.098565042534193, 53.39439927460595], [-3.098574302561818, 53.394758751034935], [-3.098875005252873, 53.39475598314113]]]}, "properties": {"kind": "max_footprint", "threshold_pct": 7.0}}, {"type": "Feature", "geometry": {"type": "Polygon", "coordinates": [[[-3.1003275066951517, 53.392765012862576], [-3.100322869606658, 53.392585274696195], [-3.1000221823608385, 53.39258804615916], [-3.100026818183072, 53.39276778434359], [-3.1003275066951517, 53.392765012862576]]]}, "properties": {"kind": "max_footprint", "threshold_pct": 7.0}}, {"type": "Feature", "geometry": {"type": "Polygon", "coordinates": [[[-3.101525618091039, 53.392574181273446], [-3.1015163339337795, 53.392214705068014], [-3.1012156494200194, 53.39221747952321], [-3.1012249310448046, 53.39257695576477], [-3.101525618091039, 53.392574181273446]]]}, "properties": {"kind": "max_footprint", "threshold_pct": 7.0}}, {"type": "Feature", "geometry": {"type": "Polygon", "coordinates": [[[-3.10181701839761, 53.39221192985573], [-3.1018123751276594, 53.39203219176251], [-3.1015116919300447, 53.39203496695671], [-3.1015163339337795, 53.392214705068014], [-3.10181701839761, 53.39221192985573]]]}, "properties": {"kind": "max_footprint", "threshold_pct": 7.0}}, {"type": "Feature", "geometry": {"type": "Polygon", "coordinates": [[[-3.1051105727559873, 53.39164213885389], [-3.105105915707991, 53.3914624009426], [-3.1048052368590278, 53.391465184410265], [-3.104809892640859, 53.391644922339665], [-3.1051105727559873, 53.39164213885389]]]}, "properties": {"kind": "max_footprint", "threshold_pct": 7.0}}, {"type": "Feature", "geometry": {"type": "Polygon", "coordinates": [[[-3.105096601762265, 53.391102925102864], [-3.1050919448645353, 53.39092318717442], [-3.1044905947133703, 53.39092875324389], [-3.104495249078848, 53.39110849120862], [-3.105096601762265, 53.391102925102864]]]}, "properties": {"kind": "max_footprint", "threshold_pct": 7.0}}, {"type": "Feature", "geometry": {"type": "Polygon", "coordinates": [[[-3.1044905947133703, 53.39092875324389], [-3.1044859403979532, 53.390749015273464], [-3.1038845925787766, 53.39075457827854], [-3.1038892443619663, 53.39093431628521], [-3.1044905947133703, 53.39092875324389]]]}, "properties": {"kind": "max_footprint", "threshold_pct": 7.0}}, {"type": "Feature", "geometry": {"type": "Polygon", "coordinates": [[[-3.1113873758937136, 53.39014561037496], [-3.111382692659372, 53.389965872799664], [-3.111082024993872, 53.38996867201966], [-3.1110867069621713, 53.39014840961319], [-3.1113873758937136, 53.39014561037496]]]}, "properties": {"kind": "max_footprint", "threshold_pct": 7.0}}, {"type": "Feature", "geometry": {"type": "Polygon", "coordinates": [[[-3.1078073546997333, 53.391257577912455], [-3.1078026863566945, 53.391077840153095], [-3.107502010491308, 53.39108063039793], [-3.107492676488086, 53.39072115482569], [-3.1071920031047293, 53.39072394427715], [-3.1071780062745993, 53.39018473082128], [-3.106877336639299, 53.39018751946119], [-3.1068680082022055, 53.389828043758996], [-3.106567341048833, 53.38983083160558], [-3.1065813299815628, 53.390370045204776], [-3.105979987928049, 53.39037561873582], [-3.105984648473769, 53.390555356627054], [-3.1065859930594457, 53.39054978305972], [-3.106595319365674, 53.3909092587524], [-3.106895994115489, 53.39090647079687], [-3.1069006586099572, 53.391086208616464], [-3.107201334575725, 53.39108341988571], [-3.107206000386498, 53.391263157681415], [-3.1078073546997333, 53.391257577912455]]]}, "properties": {"kind": "max_footprint", "threshold_pct": 7.0}}, {"type": "Feature", "geometry": {"type": "Polygon", "coordinates": [[[-3.1110773430759298, 53.38978893442041], [-3.1110726612083406, 53.3896091968154], [-3.1107719960245297, 53.38961199524194], [-3.110776676626102, 53.38979173286516], [-3.1110773430759298, 53.38978893442041]]]}, "properties": {"kind": "max_footprint", "threshold_pct": 7.0}}, {"type": "Feature", "geometry": {"type": "Polygon", "coordinates": [[[-3.1107719960245297, 53.38961199524194], [-3.1107485937717736, 53.388713307039865], [-3.1101472759129036, 53.388718901439745], [-3.11015195373088, 53.38889863912806], [-3.109851293460023, 53.38890143521073], [-3.1098653234178864, 53.38944064829592], [-3.110165987486676, 53.38943785215861], [-3.110170665505899, 53.38961758982399], [-3.1107719960245297, 53.38961199524194]]]}, "properties": {"kind": "max_footprint", "threshold_pct": 7.0}}, {"type": "Feature", "geometry": {"type": "Polygon", "coordinates": [[[-3.108648651873758, 53.38891261197158], [-3.108643980385539, 53.38873287419226], [-3.1083433211292855, 53.38873566647181], [-3.108347991351549, 53.38891540426931], [-3.108648651873758, 53.38891261197158]]]}, "properties": {"kind": "max_footprint", "threshold_pct": 7.0}}, {"type": "Feature", "geometry": {"type": "Polygon", "coordinates": [[[-3.1134263722427797, 53.387609669723496], [-3.113421680852606, 53.38742993219568], [-3.113121031263072, 53.38743273645906], [-3.1131257213873993, 53.38761247400515], [-3.1134263722427797, 53.387609669723496]]]}, "properties": {"kind": "max_footprint", "threshold_pct": 7.0}}, {"type": "Feature", "geometry": {"type": "Polygon", "coordinates": [[[-3.1134404467160364, 53.388148882272525], [-3.113435755174495, 53.387969144761904], [-3.1137364085111514, 53.38796633968677], [-3.1137317157541933, 53.387786602188704], [-3.1131304115621683, 53.38779221154551], [-3.1131257213873993, 53.38761247400515], [-3.1128250704815774, 53.387615277529854], [-3.112815692815046, 53.38725580239546], [-3.1125150443904794, 53.38725860512672], [-3.112510356898675, 53.387078867532665], [-3.112209709689517, 53.38708166948874], [-3.112200337388748, 53.386722194246936], [-3.111899692660795, 53.38672499540959], [-3.111895007851789, 53.38654525776184], [-3.1112937207763087, 53.3865508577799], [-3.1113030853815458, 53.38691033314257], [-3.111603731476051, 53.386907533475544], [-3.1116224663541434, 53.3876264840592], [-3.1122237685186627, 53.38762088230844], [-3.1122284548958454, 53.38780061990352], [-3.112829759390485, 53.387795015088464], [-3.112834448349822, 53.38797475264131], [-3.11313510178738, 53.38797194908009], [-3.113139792063035, 53.38815168660898], [-3.1134404467160364, 53.388148882272525]]]}, "properties": {"kind": "max_footprint", "threshold_pct": 7.0}}, {"type": "Feature", "geometry": {"type": "Polygon", "coordinates": [[[-3.1163952470469756, 53.386143686354934], [-3.1163905434030803, 53.38596394896414], [-3.1160899044449337, 53.385966760650476], [-3.1160946068230975, 53.38614649805957], [-3.1163952470469756, 53.386143686354934]]]}, "properties": {"kind": "max_footprint", "threshold_pct": 7.0}}, {"type": "Feature", "geometry": {"type": "Polygon", "coordinates": [[[-3.113689483212621, 53.38616896444799], [-3.1136847909603285, 53.38598922689257], [-3.1130835120842804, 53.385994835884084], [-3.113088201805097, 53.38617457347602], [-3.113689483212621, 53.38616896444799]]]}, "properties": {"kind": "max_footprint", "threshold_pct": 7.0}}, {"type": "Feature", "geometry": {"type": "Polygon", "coordinates": [[[-3.1130835120842804, 53.385994835884084], [-3.1130788224138977, 53.38581509828639], [-3.112778184165939, 53.38581790162854], [-3.112782872570595, 53.38599763924446], [-3.1130835120842804, 53.385994835884084]]]}, "properties": {"kind": "max_footprint", "threshold_pct": 7.0}}, {"type": "Feature", "geometry": {"type": "Polygon", "coordinates": [[[-3.115812771503971, 53.38686825865958], [-3.115803368925189, 53.38650878384489], [-3.116404654486522, 53.3865031611193], [-3.116399950741456, 53.386323423739995], [-3.116099309251833, 53.386326235462924], [-3.1160946068230975, 53.38614649805957], [-3.1157939665486474, 53.3861493090073], [-3.115789265436216, 53.385969571579885], [-3.1160899044449337, 53.385966760650476], [-3.1160757976138678, 53.385427548388776], [-3.1157751624022616, 53.38543035926327], [-3.115756359064765, 53.384711409427474], [-3.1154557288652316, 53.38471421947189], [-3.115460428358139, 53.38489395695774], [-3.115159796842429, 53.38489676626357], [-3.1151926858480863, 53.386154928632024], [-3.1148920454220006, 53.386157737309034], [-3.1149061376708134, 53.38669694972153], [-3.1152067818941807, 53.38669414098964], [-3.115211480677277, 53.38687387843069], [-3.115812771503971, 53.38686825865958]], [[-3.115789265436216, 53.385969571579885], [-3.1154886263769384, 53.38597238175241], [-3.115483926580782, 53.38579264430098], [-3.11578456437434, 53.38578983414674], [-3.115789265436216, 53.385969571579885]]]}, "properties": {"kind": "max_footprint", "threshold_pct": 7.0}}, {"type": "Feature", "geometry": {"type": "Polygon", "coordinates": [[[-3.118166109723599, 53.38486863914592], [-3.1181613988399874, 53.38468890182495], [-3.117860769045256, 53.3846917179243], [-3.1178654786632376, 53.3848714552636], [-3.118166109723599, 53.38486863914592]]]}, "properties": {"kind": "max_footprint", "threshold_pct": 7.0}}, {"type": "Feature", "geometry": {"type": "Polygon", "coordinates": [[[-3.118786225858709, 53.38558195371968], [-3.118781512241075, 53.38540221645835], [-3.1190821469463783, 53.385399398015], [-3.119072717331859, 53.38503992351182], [-3.1187720851578815, 53.38504274191847], [-3.118757944913268, 53.38450353006565], [-3.1184573164854896, 53.38450634766038], [-3.118466740733298, 53.38486582227136], [-3.118166109723599, 53.38486863914592], [-3.1181708206578724, 53.385048376461135], [-3.1178701883318656, 53.38505119259716], [-3.1178654786632376, 53.3848714552636], [-3.1175648475522277, 53.38487427062442], [-3.1175554308981637, 53.38451479590338], [-3.11725480226777, 53.384517610470674], [-3.117264216390582, 53.38487708522836], [-3.1160616912379244, 53.384888336075434], [-3.116071095437983, 53.385247810956706], [-3.1163717293333453, 53.38524499934364], [-3.1163764327749037, 53.385424736757365], [-3.1166770678853584, 53.38542192436909], [-3.116681772643189, 53.38560166175875], [-3.11728304524367, 53.3855960346749], [-3.1172689235279205, 53.3850568225986], [-3.1175695559552112, 53.38505400797632], [-3.1175789729130874, 53.38541348266294], [-3.118480877485082, 53.38540503414483], [-3.118485589837032, 53.3855847714245], [-3.118786225858709, 53.38558195371968]]]}, "properties": {"kind": "max_footprint", "threshold_pct": 7.0}}, {"type": "Feature", "geometry": {"type": "Polygon", "coordinates": [[[-3.1196692642652, 53.384854547204434], [-3.11964567871371, 53.383955861001084], [-3.119345054234796, 53.38395868081129], [-3.1193497699780646, 53.3841384180818], [-3.1190491441828656, 53.38414123715353], [-3.1190538587112604, 53.384320974436655], [-3.119354485772047, 53.38431815534657], [-3.119368633458287, 53.384857367106484], [-3.1196692642652, 53.384854547204434]]]}, "properties": {"kind": "max_footprint", "threshold_pct": 7.0}}, {"type": "Feature", "geometry": {"type": "Polygon", "coordinates": [[[-3.1130272393682206, 53.38383798433358], [-3.1130225503030067, 53.38365824666711], [-3.112721927242686, 53.38366104979017], [-3.112726615042339, 53.3838407874749], [-3.1130272393682206, 53.38383798433358]]]}, "properties": {"kind": "max_footprint", "threshold_pct": 7.0}}, {"type": "Feature", "geometry": {"type": "Polygon", "coordinates": [[[-3.118734378852658, 53.38360484352954], [-3.1187296657925914, 53.38342510620509], [-3.1184290449582246, 53.38342792368974], [-3.1184337567527565, 53.383607661032514], [-3.118734378852658, 53.38360484352954]]]}, "properties": {"kind": "max_footprint", "threshold_pct": 7.0}}, {"type": "Feature", "geometry": {"type": "Polygon", "coordinates": [[[-3.1216933421949062, 53.381779255208855], [-3.121688616987701, 53.38159951801081], [-3.1213880093153032, 53.38160234287976], [-3.1213927332571174, 53.38178208009621], [-3.1216933421949062, 53.381779255208855]]]}, "properties": {"kind": "max_footprint", "threshold_pct": 7.0}}, {"type": "Feature", "geometry": {"type": "Polygon", "coordinates": [[[-3.1201431104790753, 53.379995998919725], [-3.120138392106242, 53.37981626157236], [-3.1198377968331856, 53.37981908247371], [-3.11984251394076, 53.37999881983943], [-3.1201431104790753, 53.379995998919725]]]}, "properties": {"kind": "max_footprint", "threshold_pct": 7.0}}, {"type": "Feature", "geometry": {"type": "Polygon", "coordinates": [[[-3.1225289672834675, 53.379254455484194], [-3.1225242389919683, 53.379074718260995], [-3.122223649186063, 53.37907754514256], [-3.1222283762123633, 53.37925728238415], [-3.1225289672834675, 53.379254455484194]]]}, "properties": {"kind": "max_footprint", "threshold_pct": 7.0}}, {"type": "Feature", "geometry": {"type": "Polygon", "coordinates": [[[-3.127920593902672, 53.378484494289005], [-3.1279158430420733, 53.378304757375055], [-3.127615259214023, 53.378307597803314], [-3.1276200088094894, 53.378487334735745], [-3.127920593902672, 53.378484494289005]]]}, "properties": {"kind": "max_footprint", "threshold_pct": 7.0}}, {"type": "Feature", "geometry": {"type": "Polygon", "coordinates": [[[-3.1300104091278524, 53.37792537960426], [-3.129996130592519, 53.37738616918238], [-3.12969555344777, 53.377389014814746], [-3.1297003116433135, 53.37756875164631], [-3.129399733182343, 53.37757159654056], [-3.1294044901639775, 53.377751333384914], [-3.12970506989002, 53.37774848847214], [-3.1297098281878903, 53.37792822529222], [-3.1300104091278524, 53.37792537960426]]]}, "properties": {"kind": "max_footprint", "threshold_pct": 7.0}}, {"type": "Feature", "geometry": {"type": "Polygon", "coordinates": [[[-3.129399733182343, 53.37757159654056], [-3.129394976251857, 53.37739185969046], [-3.12969555344777, 53.377389014814746], [-3.1296907953033886, 53.377209277977435], [-3.129390219372521, 53.37721212283462], [-3.129385462544334, 53.377032385973074], [-3.1290848878273505, 53.37703523005508], [-3.129089643390506, 53.37721496693517], [-3.1287890673573564, 53.377217810279056], [-3.128793821706601, 53.37739754717195], [-3.1290943990047966, 53.37739470380953], [-3.1290991546702234, 53.377574440678146], [-3.129399733182343, 53.37757159654056]]]}, "properties": {"kind": "max_footprint", "threshold_pct": 7.0}}, {"type": "Feature", "geometry": {"type": "Polygon", "coordinates": [[[-3.131470421909183, 53.37629350922814], [-3.13145612578134, 53.37575429892936], [-3.131155560277482, 53.37575714817802], [-3.131160324337258, 53.37593688496857], [-3.1308597575172423, 53.375939733479186], [-3.130864520363298, 53.37611947028255], [-3.130563952227125, 53.37612231805508], [-3.1305687138594323, 53.376302054871246], [-3.131470421909183, 53.37629350922814]]]}, "properties": {"kind": "max_footprint", "threshold_pct": 7.0}}, {"type": "Feature", "geometry": {"type": "Polygon", "coordinates": [[[-3.1184526044375973, 53.38432661034628], [-3.1184478924403773, 53.384146873026424], [-3.1187485183369654, 53.38414405546841], [-3.118739091963408, 53.38378458084823], [-3.1184384685979576, 53.38378739836954], [-3.1184337567527565, 53.383607661032514], [-3.1181331346021826, 53.38361047777866], [-3.1181190031671617, 53.38307126567808], [-3.1190208580771692, 53.383062813334284], [-3.119030286576276, 53.38342228796362], [-3.1193309073092634, 53.383419468965336], [-3.119335622900396, 53.38359920625306], [-3.119636244848204, 53.38359638647958], [-3.11964567871371, 53.383955861001084], [-3.1199463031418966, 53.38395304043404], [-3.1199510214163118, 53.3841327776678], [-3.121153523683802, 53.38412148775762], [-3.1211440770612047, 53.38376201343137], [-3.120843454101616, 53.38376483700742], [-3.1208387321320523, 53.3835850998173], [-3.1214399754693525, 53.383579451945174], [-3.12143525101951, 53.38339971478609], [-3.1211346306417846, 53.383402539082184], [-3.121125184425533, 53.38304306471003], [-3.121425802272244, 53.383040240450725], [-3.1214163537281956, 53.38268076609242], [-3.1211157384124446, 53.38268359031493], [-3.1211110154820862, 53.38250385310879], [-3.1214116295323766, 53.38250102890464], [-3.1214069053873597, 53.38232129171114], [-3.122008130804633, 53.38231564106926], [-3.1220034041795537, 53.382135903906835], [-3.1217027927617576, 53.382138729587766], [-3.121698067452925, 53.381958992401174], [-3.122299287706858, 53.38195334031932], [-3.1223040155465247, 53.382133077469106], [-3.1226046268626515, 53.3821302502746], [-3.12260935601859, 53.38230998740021], [-3.123210581029123, 53.38230433070396], [-3.123205849342328, 53.38212459361518], [-3.1235064605058493, 53.382121764150284], [-3.1235017276045225, 53.381942027074196], [-3.124403556993419, 53.381933534194076], [-3.124398820346793, 53.381753797167555], [-3.1240982118668095, 53.38175662886595], [-3.124084006028651, 53.38121741769659], [-3.124384610712522, 53.38121458605352], [-3.1243751378776756, 53.38085511194882], [-3.124074535724479, 53.380857943555], [-3.124065065623977, 53.380498469390446], [-3.1252674638086524, 53.38048713857276], [-3.125257983789568, 53.38012766453283], [-3.124957386850382, 53.38013049833545], [-3.1249526481825542, 53.37995076128842], [-3.125854435051413, 53.37994225766573], [-3.125849692638804, 53.37976252066831], [-3.125549098332074, 53.37976535594749], [-3.125544357235692, 53.37958561892588], [-3.125844950277191, 53.37958278366519], [-3.1258307234983147, 53.37904357262132], [-3.126732490929969, 53.37903506246515], [-3.126727744976803, 53.37885532549447], [-3.1282306833495213, 53.37884112685922], [-3.1282259311215936, 53.37866138997526], [-3.1276247584560286, 53.378667071662456], [-3.1276200088094894, 53.378487334735745], [-3.12671825322357, 53.378495851535895], [-3.1267229990746697, 53.37867558851806], [-3.1261218258985846, 53.37868126263832], [-3.1261170825777778, 53.3785015256192], [-3.126417667926182, 53.378498688955865], [-3.1264129233912463, 53.37831895194952], [-3.126713507423499, 53.37831611454797], [-3.126704015976448, 53.377956640554956], [-3.1270045974274456, 53.37795380243372], [-3.1270140914047224, 53.37831327638979], [-3.127615259214023, 53.378307597803314], [-3.1275820134757, 53.377049439115474], [-3.1278825884482155, 53.377046598816705], [-3.1278778379962744, 53.376866861856826], [-3.128478985258012, 53.376861179026314], [-3.128474232327136, 53.376681442097706], [-3.1299770932618665, 53.376667221872786], [-3.1299675749035822, 53.37630774818353], [-3.130268144407099, 53.376304901905684], [-3.1302633840397536, 53.376125165071], [-3.130563952227125, 53.37612231805508], [-3.1305591906460166, 53.37594258123318], [-3.1308597575172423, 53.375939733479186], [-3.130850231978763, 53.375580259855234], [-3.131150796268928, 53.37557741138172], [-3.131131740746937, 53.37485846413908], [-3.1314322999263426, 53.374855614983176], [-3.1314275349090472, 53.37467587817671], [-3.1311269769944907, 53.37467872731406], [-3.1311174496432574, 53.374319253646796], [-3.1314180050281526, 53.37431640454655], [-3.131370358697454, 53.37251903605117], [-3.1310698159600405, 53.37252188496591], [-3.131050763920686, 53.371802937332724], [-3.1304496884094712, 53.37180863274426], [-3.130440167755496, 53.37144915881905], [-3.1301396324523396, 53.37145200535301], [-3.130134873466715, 53.371272268363235], [-3.129533805236111, 53.3712779591246], [-3.129538561692547, 53.37145769615141], [-3.1268337407437103, 53.37148326729779], [-3.126838485869769, 53.371663004485384], [-3.126237411457048, 53.37166867867785], [-3.126246896803665, 53.37202815310966], [-3.1259463569915384, 53.37203098910808], [-3.125951098476673, 53.37221072633385], [-3.12565055734891, 53.37221356159421], [-3.1256600379427546, 53.372573036065454], [-3.1253594942346656, 53.37257587060619], [-3.125383190287553, 53.37347455677614], [-3.125082640204867, 53.37347739065263], [-3.1250921164531555, 53.373836865117326], [-3.1247915637899726, 53.37383969827416], [-3.124805774750053, 53.374378909983506], [-3.1251063312076695, 53.37437607677131], [-3.125111069561063, 53.37455581397782], [-3.1245099540652226, 53.37456147968253], [-3.124519425865418, 53.37492095415212], [-3.123617744650626, 53.37492944714537], [-3.123622476832461, 53.37510918442687], [-3.123923038553172, 53.37510635416728], [-3.1239277720507834, 53.3752860914246], [-3.124228334985495, 53.37528326039], [-3.1242378046632355, 53.37564273485055], [-3.1245383700768663, 53.375639903022446], [-3.1245478424881323, 53.37599937742317], [-3.124848410380722, 53.37599654480155], [-3.1248531479277046, 53.376176281974864], [-3.1245525787701536, 53.37617911461493], [-3.124562051486974, 53.376538588981205], [-3.124261479748531, 53.37654142090151], [-3.1242472745446177, 53.37600220928815], [-3.123946706550191, 53.37600504039653], [-3.1239514403022866, 53.37618477762515], [-3.123650870991999, 53.37618760799533], [-3.1236603361189195, 53.37654708247223], [-3.123359764227775, 53.37654991212261], [-3.123373958504755, 53.3770891238502], [-3.1230733827676787, 53.37709195279924], [-3.1230875737073553, 53.37763116453042], [-3.1227869941242354, 53.37763399277804], [-3.122801181726385, 53.378173204512855], [-3.1231017651048116, 53.37817037620998], [-3.1231064956723604, 53.378350113425014], [-3.123407080265048, 53.37834728434705], [-3.1234212760683695, 53.378886495902464], [-3.123120687680217, 53.378889325035715], [-3.1231301492731305, 53.379248799414135], [-3.1234307401916634, 53.37924597024404], [-3.123440204518494, 53.37960544456266], [-3.123139611069528, 53.37960827376959], [-3.123134880145894, 53.37942853659475], [-3.122834287911281, 53.37943136502655], [-3.1228390175696896, 53.379611102219826], [-3.121336049307894, 53.37962523312009], [-3.121340772690963, 53.37980497039966], [-3.1210401776209356, 53.379807794327924], [-3.1210496220089237, 53.38016726890663], [-3.120147828902646, 53.38017573626134], [-3.1201525473769554, 53.38035547359723], [-3.1204531463950897, 53.38035265188401], [-3.120457866185437, 53.38053238919581], [-3.1207584664181174, 53.38052956670746], [-3.12076318752453, 53.380709303995125], [-3.1210637889717527, 53.38070648073165], [-3.1210685113942587, 53.380886217995176], [-3.1207679086817097, 53.38088904127703], [-3.1207726298896596, 53.381068778553214], [-3.1204720258610035, 53.381071601096686], [-3.120476745854369, 53.38125133838551], [-3.120176140509605, 53.3812541601906], [-3.1201902969981026, 53.38179337207777], [-3.120490906139008, 53.38179055021755], [-3.1204956263354044, 53.38197028748342], [-3.120195015929091, 53.381973109362015], [-3.120199734910825, 53.38215284664053], [-3.119598511415133, 53.38215848816408], [-3.1195937949642416, 53.38197875084883], [-3.1192931844057337, 53.38198157045705], [-3.119302614827372, 53.38234104511856], [-3.119002001687296, 53.3823438640067], [-3.118997287716562, 53.38216412666047], [-3.1186966757912318, 53.38216694477345], [-3.118701388496528, 53.382346682138035], [-3.1177995486202015, 53.382355131991275], [-3.117794839711225, 53.38217539457167], [-3.11689300317548, 53.382183837558706], [-3.1168882981134276, 53.38200410007836], [-3.116587687099064, 53.382006912875475], [-3.1165829833530236, 53.38182717537109], [-3.1162823735534944, 53.38182998739308], [-3.116277671123438, 53.381650249864656], [-3.1159770625387453, 53.38165306111156], [-3.115991166184364, 53.382192273734574], [-3.1162917785653104, 53.38218946243274], [-3.116296481147073, 53.38236919994397], [-3.1165970947428954, 53.38236638786705], [-3.116601798640685, 53.38254612535422], [-3.117503642920958, 53.382537684527634], [-3.117508350665743, 53.38271742195409], [-3.117808966590071, 53.38271460681329], [-3.1178230939246734, 53.3832538190033], [-3.11752247420386, 53.383256634199114], [-3.117536598197633, 53.3837958463925], [-3.1178372217150563, 53.38379303114169], [-3.117841931079806, 53.38397276850968], [-3.1181425558121476, 53.38396995248368], [-3.118151977224747, 53.384329427165795], [-3.1184526044375973, 53.38432661034628]], [[-3.120228049866931, 53.383231270191104], [-3.1199274305516345, 53.38323409144154], [-3.11991799456093, 53.382874616910875], [-3.1196173777258904, 53.38287743736774], [-3.119607944469069, 53.382517962777385], [-3.119908558773169, 53.38251514235727], [-3.1199038409553905, 53.382335405071856], [-3.120204453943306, 53.38233258391332], [-3.120228049866931, 53.383231270191104]], [[-3.119607944469069, 53.382517962777385], [-3.1193073301142507, 53.38252078244069], [-3.119302614827372, 53.38234104511856], [-3.119603227916741, 53.38233822547361], [-3.119607944469069, 53.382517962777385]], [[-3.121698067452925, 53.381958992401174], [-3.121096846995738, 53.38196464145587], [-3.121092124268529, 53.38178490422677], [-3.1207915152291537, 53.38178772760056], [-3.1207820724578648, 53.38142825308836], [-3.121082678966468, 53.381425429751346], [-3.1210779563916153, 53.38124569250503], [-3.1213785615840686, 53.381242868429645], [-3.1213832854242867, 53.38142260565755], [-3.1216838918313083, 53.38141978080701], [-3.121688616987701, 53.38159951801081], [-3.121989224609287, 53.38159669238507], [-3.1219939510818824, 53.38177642956474], [-3.1216933421949062, 53.381779255208855], [-3.121698067452925, 53.381958992401174]], [[-3.1219655930086807, 53.38069800640071], [-3.121664991713843, 53.38070083193446], [-3.1216602668115, 53.38052109470197], [-3.1213596667311627, 53.38052391946055], [-3.1213549431449223, 53.38034418220393], [-3.122256739437614, 53.38033570571315], [-3.122261466819739, 53.380515442914565], [-3.1219608668410297, 53.380518269186645], [-3.1219655930086807, 53.38069800640071]], [[-3.1213549431449223, 53.38034418220393], [-3.1210543442790875, 53.38034700618737], [-3.1210496220089237, 53.38016726890663], [-3.121350219609478, 53.38016444494158], [-3.1213549431449223, 53.38034418220393]], [[-3.126704015976448, 53.377956640554956], [-3.1264034344744216, 53.377959477919525], [-3.126398690092532, 53.37777974089592], [-3.1266992703294663, 53.37777690354984], [-3.126704015976448, 53.377956640554956]], [[-3.1254211066219204, 53.37491245434953], [-3.1251205464206966, 53.37491528837366], [-3.1251158079654062, 53.37473555117861], [-3.1254163669017654, 53.37473271717295], [-3.1254211066219204, 53.37491245434953]]]}, "properties": {"kind": "max_footprint", "threshold_pct": 7.0}}, {"type": "Feature", "geometry": {"type": "Polygon", "coordinates": [[[-3.1222803768565943, 53.38123439166286], [-3.1222756492711254, 53.38105465448441], [-3.1219750454964514, 53.381057480811684], [-3.1219797718165725, 53.38123721800855], [-3.1222803768565943, 53.38123439166286]]]}, "properties": {"kind": "max_footprint", "threshold_pct": 10.0}}, {"type": "Feature", "geometry": {"type": "Polygon", "coordinates": [[[-3.1264129233912463, 53.37831895194952], [-3.1264034344744216, 53.377959477919525], [-3.126102852921381, 53.37796231452743], [-3.1261123393079764, 53.37832178859434], [-3.1264129233912463, 53.37831895194952]]]}, "properties": {"kind": "max_footprint", "threshold_pct": 10.0}}, {"type": "Feature", "geometry": {"type": "Polygon", "coordinates": [[[-3.1251631948110625, 53.37653292287068], [-3.125158455897212, 53.37635318572731], [-3.124857885525627, 53.37635601914245], [-3.1248626231744896, 53.37653575630426], [-3.1251631948110625, 53.37653292287068]]]}, "properties": {"kind": "max_footprint", "threshold_pct": 10.0}}, {"type": "Feature", "geometry": {"type": "Polygon", "coordinates": [[[-3.1308454692863386, 53.37540052303464], [-3.1308407066451207, 53.3752207862083], [-3.1305401448335446, 53.37522363388811], [-3.1305449062098685, 53.375403370733], [-3.1308454692863386, 53.37540052303464]]]}, "properties": {"kind": "max_footprint", "threshold_pct": 10.0}}, {"type": "Feature", "geometry": {"type": "Polygon", "coordinates": [[[-3.127930095777123, 53.37884396809966], [-3.127925344814353, 53.37866423119719], [-3.1261218258985846, 53.37868126263832], [-3.1261170825777778, 53.3785015256192], [-3.1255159117279736, 53.37850719667575], [-3.125511170988442, 53.37832745961396], [-3.1252105867522038, 53.37833029398876], [-3.1252058473287723, 53.378150556902774], [-3.1255064302998874, 53.37814772254645], [-3.125501689662306, 53.377967985473184], [-3.1252011079563022, 53.37797081981107], [-3.1251916293642426, 53.377611345610404], [-3.124891050137456, 53.377614179154676], [-3.1248863121829347, 53.37743444202731], [-3.1257880459151948, 53.37742593917981], [-3.1257975294656366, 53.3777854133181], [-3.126398690092532, 53.37777974089592], [-3.1263892014817976, 53.37742026683151], [-3.126689779188586, 53.37741742952239], [-3.1266945247335123, 53.37759716653897], [-3.12699510365434, 53.377594328454684], [-3.126999850515372, 53.37777406544707], [-3.127300430650236, 53.377771226587626], [-3.1272814384521177, 53.37705227865762], [-3.126680288251812, 53.37705795547194], [-3.126670797519136, 53.376698481398535], [-3.1269713701147746, 53.376695643406684], [-3.1269666235599756, 53.376515906379844], [-3.1284694794473618, 53.37650170516334], [-3.128464726618693, 53.37632196822325], [-3.128765296377932, 53.376319125728564], [-3.1287700504715805, 53.376498862650145], [-3.1296717632374724, 53.37649033057074], [-3.1296670053488946, 53.37631059370474], [-3.1290658660860546, 53.376316282477234], [-3.12906111077856, 53.37613654556843], [-3.128760542335403, 53.376139388801235], [-3.1287557883439887, 53.375959651868165], [-3.128455221114667, 53.375962494325826], [-3.1284504684393077, 53.37578275736852], [-3.12905160031696, 53.37577707173358], [-3.1290563555221955, 53.37595680865388], [-3.1305591906460166, 53.37594258123318], [-3.1305496676373887, 53.37558310757212], [-3.1302491032448194, 53.375585954532426], [-3.130244343082206, 53.37540621767475], [-3.1299437799033614, 53.37540906385991], [-3.1299390210568245, 53.375229326977966], [-3.1305401448335446, 53.37522363388811], [-3.130535383508415, 53.37504389703749], [-3.1311365045506028, 53.37503820095834], [-3.1311174496432574, 53.374319253646796], [-3.1314180050281526, 53.37431640454655], [-3.1314132401645547, 53.37413666772287], [-3.1311126860444665, 53.37413951680454], [-3.1311079224968945, 53.373959779956564], [-3.1314084753521856, 53.37395693089343], [-3.131375123100004, 53.37269877292655], [-3.131074579097901, 53.372701621859825], [-3.1310555268537112, 53.37198267424962], [-3.130754987859067, 53.3719855223522], [-3.130750226190676, 53.37180578541675], [-3.1304496884094712, 53.37180863274426], [-3.130444928056894, 53.371628895784546], [-3.1301443914891296, 53.37163174233702], [-3.1301396324523396, 53.37145200535301], [-3.127134276608937, 53.3714804290853], [-3.12713902299961, 53.371660166254394], [-3.12653794868891, 53.37166584195987], [-3.1265426926013533, 53.37184557916018], [-3.126242154104862, 53.37184841589662], [-3.1262611252060215, 53.37256736471436], [-3.126561668761173, 53.37256452790401], [-3.12657115714712, 53.37292400224149], [-3.126270611062557, 53.37292683908877], [-3.1262800971230704, 53.373286313440246], [-3.1259795484580475, 53.37328914956791], [-3.1259842903000448, 53.37346888675351], [-3.125683740319283, 53.37347172214309], [-3.1256979623568277, 53.37401093372078], [-3.12539740853075, 53.3740137684092], [-3.1254021480470655, 53.374193505608744], [-3.1251015929052204, 53.37419633955907], [-3.125111069561063, 53.37455581397782], [-3.125411627232572, 53.37455297999061], [-3.1254305862151153, 53.37527192868547], [-3.1251300234841213, 53.37527476274651], [-3.1251205464206966, 53.37491528837366], [-3.124819986168524, 53.374918121641166], [-3.1248341980454075, 53.3754573332472], [-3.124533633947621, 53.37546016581348], [-3.1245383700768663, 53.375639903022446], [-3.1251395007513443, 53.3756342370964], [-3.1251537170343155, 53.37617344857819], [-3.1254542860899743, 53.37617061442489], [-3.1254779872390066, 53.37706930002078], [-3.1257785625686982, 53.37706646501856], [-3.1257833042164545, 53.37724620210206], [-3.1248815742793576, 53.37725470489418], [-3.124876836426727, 53.37707496775531], [-3.1245762609441656, 53.37707780048759], [-3.1245809975317536, 53.37725753764491], [-3.1242804207332178, 53.377260369638975], [-3.12428515610668, 53.377440106809], [-3.123683999826755, 53.37744576856405], [-3.1236887327209906, 53.37762550576519], [-3.123388153239613, 53.37762833552615], [-3.123407080265048, 53.37834728434705], [-3.123707664806856, 53.37834445451237], [-3.123712397955555, 53.378524191684825], [-3.124313569416752, 53.378518529708565], [-3.1243183051466543, 53.37869826683841], [-3.1246188920660285, 53.37869543469679], [-3.1246236291120204, 53.378875171802456], [-3.127930095777123, 53.37884396809966]]]}, "properties": {"kind": "max_footprint", "threshold_pct": 10.0}}]}