{"type": "FeatureCollection", "features": [{"type": "Feature", "geometry": {"type": "Polygon", "coordinates": [[[-3.113915033608964, 53.3832903575163], [-3.1139103408984665, 53.38311061988743], [-3.1142109599604053, 53.38310781379182], [-3.114206266034869, 53.38292807617548], [-3.114506883780825, 53.38292526934133], [-3.114502188640274, 53.38274553173752], [-3.114802805070254, 53.38274272416485], [-3.114807501476293, 53.38292246175036], [-3.1151081191212544, 53.382919653402574], [-3.115103421449726, 53.38273991583536], [-3.1160052702849876, 53.382731486305985], [-3.1160005688675563, 53.38255174878791], [-3.116601798640685, 53.38254612535422], [-3.1165970947428954, 53.38236638786705], [-3.1159958675006822, 53.38237201126412], [-3.1159864649186026, 53.38201253619929], [-3.116287076034118, 53.38200972491578], [-3.1162823735534944, 53.38182998739308], [-3.115981763703397, 53.3818327986583], [-3.1159770625387453, 53.38165306111156], [-3.1153758452177125, 53.38165868133503], [-3.1153852425359205, 53.38201815649596], [-3.115084631268781, 53.38202096550911], [-3.1150987238287158, 53.3825601782624], [-3.1138962630697575, 53.38257140696637], [-3.1139009556288637, 53.38275114461245], [-3.1129991057333073, 53.38275955824872], [-3.1130084834099154, 53.383119033633285], [-3.113609721786062, 53.383113425226206], [-3.1136144132310406, 53.38329316287335], [-3.113915033608964, 53.3832903575163]]]}, "properties": {"kind": "max_footprint", "threshold_pct": 4.0}}, {"type": "Feature", "geometry": {"type": "Polygon", "coordinates": [[[-3.0756950603838296, 53.38202292297915], [-3.075690528838598, 53.38184318301804], [-3.0753899148176367, 53.38184589207903], [-3.075385384586608, 53.381666152094596], [-3.0750847717824046, 53.38166886038111], [-3.075093829762213, 53.382028340379556], [-3.0756950603838296, 53.38202292297915]]]}, "properties": {"kind": "max_footprint", "threshold_pct": 4.0}}, {"type": "Feature", "geometry": {"type": "Polygon", "coordinates": [[[-3.0777948256201095, 53.38182419840039], [-3.0777902852653107, 53.38164445855721], [-3.0771890603883145, 53.38164988648242], [-3.077193598212174, 53.38182962636093], [-3.0777948256201095, 53.38182419840039]]]}, "properties": {"kind": "max_footprint", "threshold_pct": 4.0}}, {"type": "Feature", "geometry": {"type": "Polygon", "coordinates": [[[-3.080204283825184, 53.38198219598153], [-3.080199733297725, 53.38180245628565], [-3.080500346537364, 53.38179973511565], [-3.0804957947933778, 53.3816199954318], [-3.080195182819201, 53.381622716584076], [-3.0801906323896113, 53.38144297687677], [-3.079589410825369, 53.381448416875465], [-3.079603054668161, 53.38198763608651], [-3.080204283825184, 53.38198219598153]]]}, "properties": {"kind": "max_footprint", "threshold_pct": 4.0}}, {"type": "Feature", "geometry": {"type": "Polygon", "coordinates": [[[-3.083802523275783, 53.38159001280757], [-3.083797957660853, 53.38141027331325], [-3.082896127004927, 53.381418459420935], [-3.082900688823532, 53.38159819896857], [-3.083802523275783, 53.38159001280757]]]}, "properties": {"kind": "max_footprint", "threshold_pct": 4.0}}, {"type": "Feature", "geometry": {"type": "Polygon", "coordinates": [[[-3.1168741832308413, 53.381464887602945], [-3.116860068803602, 53.38092567507595], [-3.1165594653815325, 53.38092848776314], [-3.1165735760126867, 53.381467700345105], [-3.1168741832308413, 53.381464887602945]]]}, "properties": {"kind": "max_footprint", "threshold_pct": 4.0}}, {"type": "Feature", "geometry": {"type": "Polygon", "coordinates": [[[-3.0771890603883145, 53.38164988648242], [-3.0771845226132517, 53.38147014659818], [-3.076883911367006, 53.3814728594079], [-3.0768793749061842, 53.38129311950028], [-3.0765787648765994, 53.38129583153553], [-3.0765878353161256, 53.381655311380385], [-3.0771890603883145, 53.38164988648242]]]}, "properties": {"kind": "max_footprint", "threshold_pct": 4.0}}, {"type": "Feature", "geometry": {"type": "Polygon", "coordinates": [[[-3.1186731130249146, 53.38126825786448], [-3.118668400623679, 53.381088520465475], [-3.1189690049566643, 53.38108570246259], [-3.118964291340759, 53.38090596507619], [-3.1183630851548023, 53.380911600288506], [-3.1183725073758977, 53.381271075128936], [-3.1186731130249146, 53.38126825786448]]]}, "properties": {"kind": "max_footprint", "threshold_pct": 4.0}}, {"type": "Feature", "geometry": {"type": "Polygon", "coordinates": [[[-3.096738008560412, 53.381831406791946], [-3.096728768354916, 53.38147192935843], [-3.097029377616778, 53.38146916658219], [-3.0970247563231426, 53.381289427874854], [-3.0973253642698997, 53.381286664359834], [-3.0973207417605644, 53.38110692566475], [-3.0967195283481463, 53.38111245190201], [-3.096724148326691, 53.38129219063309], [-3.0964235402805564, 53.381294952634526], [-3.096428159043371, 53.38147469137787], [-3.0961275496821576, 53.381477452640496], [-3.096132167229217, 53.38165719139608], [-3.095831556552924, 53.3816599519199], [-3.095826940271292, 53.38148021314634], [-3.095526330810783, 53.3814829728954], [-3.0955355608928246, 53.38184245047274], [-3.096738008560412, 53.381831406791946]]]}, "properties": {"kind": "max_footprint", "threshold_pct": 4.0}}, {"type": "Feature", "geometry": {"type": "Polygon", "coordinates": [[[-3.0943192825676875, 53.381314265454606], [-3.094314672712338, 53.381134526579785], [-3.0940140655346466, 53.38113728250897], [-3.0940186741245936, 53.38131702140174], [-3.0943192825676875, 53.381314265454606]]]}, "properties": {"kind": "max_footprint", "threshold_pct": 4.0}}, {"type": "Feature", "geometry": {"type": "Polygon", "coordinates": [[[-3.078992734433293, 53.381633593625104], [-3.078983643746596, 53.38127411406312], [-3.07808181453656, 53.38128226379127], [-3.078077273062807, 53.38110252394862], [-3.0774760558760956, 53.381107953281386], [-3.0774805948189914, 53.381287693159365], [-3.0777812047021884, 53.38128497885372], [-3.077785744959337, 53.38146471870832], [-3.0786875781122474, 53.381456571197525], [-3.078692122214582, 53.38163631099334], [-3.078992734433293, 53.381633593625104]]]}, "properties": {"kind": "max_footprint", "threshold_pct": 4.0}}, {"type": "Feature", "geometry": {"type": "Polygon", "coordinates": [[[-3.086804056653938, 53.381382937095786], [-3.0867994784338673, 53.381203197773765], [-3.0864988700213014, 53.38120593478327], [-3.0864942931158703, 53.38102619543769], [-3.086193685919494, 53.381028931672596], [-3.0862028372487456, 53.381388410393654], [-3.086804056653938, 53.381382937095786]]]}, "properties": {"kind": "max_footprint", "threshold_pct": 4.0}}, {"type": "Feature", "geometry": {"type": "Polygon", "coordinates": [[[-3.1192648943577135, 53.380903146334894], [-3.119260179527167, 53.380723408961124], [-3.1189595777755414, 53.38072622768407], [-3.118964291340759, 53.38090596507619], [-3.1192648943577135, 53.380903146334894]]]}, "properties": {"kind": "max_footprint", "threshold_pct": 4.0}}, {"type": "Feature", "geometry": {"type": "Polygon", "coordinates": [[[-3.092811636328433, 53.38114829865792], [-3.0928070328496085, 53.380968559687666], [-3.0925064266896536, 53.38097131181501], [-3.0925110289030853, 53.38115105080317], [-3.092811636328433, 53.38114829865792]]]}, "properties": {"kind": "max_footprint", "threshold_pct": 4.0}}, {"type": "Feature", "geometry": {"type": "Polygon", "coordinates": [[[-3.089504951929903, 53.38117853063265], [-3.089500362370436, 53.38099879146553], [-3.088899148913914, 53.38100427831423], [-3.0889037359425813, 53.381184017517086], [-3.089504951929903, 53.38117853063265]]]}, "properties": {"kind": "max_footprint", "threshold_pct": 4.0}}, {"type": "Feature", "geometry": {"type": "Polygon", "coordinates": [[[-3.0807827479840255, 53.38107805449001], [-3.0807781951704163, 53.38089831480099], [-3.0804775883069, 53.380901036639166], [-3.0804821398551003, 53.381080776345904], [-3.0807827479840255, 53.38107805449001]]]}, "properties": {"kind": "max_footprint", "threshold_pct": 4.0}}, {"type": "Feature", "geometry": {"type": "Polygon", "coordinates": [[[-3.083784261110638, 53.38087105479596], [-3.0837796956920887, 53.380691315278746], [-3.083479090584155, 53.38069404466703], [-3.0834836547373166, 53.38087378420199], [-3.083784261110638, 53.38087105479596]]]}, "properties": {"kind": "max_footprint", "threshold_pct": 4.0}}, {"type": "Feature", "geometry": {"type": "Polygon", "coordinates": [[[-3.117498935226798, 53.38235794709542], [-3.1174942275832636, 53.38217820965747], [-3.118396063815224, 53.38216976212965], [-3.1183913524260314, 53.38199002474097], [-3.1186919631366146, 53.381987207403135], [-3.118687250532674, 53.38180747002706], [-3.1183866410875054, 53.38181028734657], [-3.11838192979964, 53.38163054994644], [-3.1180813215692043, 53.3816333664908], [-3.1180671918056997, 53.38109415420094], [-3.117766587320734, 53.38109696993352], [-3.11775717026231, 53.38073749500827], [-3.1180577722166003, 53.38073467931234], [-3.1180436432127885, 53.38019546693644], [-3.1177430450544117, 53.38019828257733], [-3.1177477534064146, 53.38037802006004], [-3.1174471539321176, 53.38038083496255], [-3.1174659827851343, 53.38109978490936], [-3.1171653781989144, 53.3811025991284], [-3.1171747903984035, 53.381462074104036], [-3.1168741832308413, 53.381464887602945], [-3.1168835931019707, 53.38182436259231], [-3.1165829833530236, 53.38182717537109], [-3.116592390895688, 53.38218665037414], [-3.11689300317548, 53.382183837558706], [-3.116897708288131, 53.382363575033295], [-3.117498935226798, 53.38235794709542]]]}, "properties": {"kind": "max_footprint", "threshold_pct": 4.0}}, {"type": "Feature", "geometry": {"type": "Polygon", "coordinates": [[[-3.100012298259734, 53.38054280450339], [-3.1000076645611903, 53.380363065947606], [-3.09940646216721, 53.3803686056626], [-3.0994110933350862, 53.38054834425448], [-3.100012298259734, 53.38054280450339]]]}, "properties": {"kind": "max_footprint", "threshold_pct": 4.0}}, {"type": "Feature", "geometry": {"type": "Polygon", "coordinates": [[[-3.0813748534551286, 53.380713129194994], [-3.081370298208678, 53.38053338953003], [-3.081069693973862, 53.38053611284631], [-3.081074247954933, 53.38071585252902], [-3.0813748534551286, 53.380713129194994]]]}, "properties": {"kind": "max_footprint", "threshold_pct": 4.0}}, {"type": "Feature", "geometry": {"type": "Polygon", "coordinates": [[[-3.102107228863899, 53.38016391467212], [-3.1020933016455943, 53.379624699332425], [-3.1017927058837698, 53.37962747479331], [-3.1017973469746756, 53.37980721326366], [-3.101496749897669, 53.37980998798589], [-3.1015060296986103, 53.380169464945595], [-3.102107228863899, 53.38016391467212]]]}, "properties": {"kind": "max_footprint", "threshold_pct": 4.0}}, {"type": "Feature", "geometry": {"type": "Polygon", "coordinates": [[[-3.1017927058837698, 53.37962747479331], [-3.1017880648427694, 53.3794477363172], [-3.101487470296302, 53.3794505110033], [-3.1014921100720403, 53.37963024949745], [-3.1017927058837698, 53.37962747479331]]]}, "properties": {"kind": "max_footprint", "threshold_pct": 4.0}}, {"type": "Feature", "geometry": {"type": "Polygon", "coordinates": [[[-3.103610225903251, 53.380150025745294], [-3.103600928388193, 53.37979054903878], [-3.104803314997621, 53.379779424420704], [-3.104798661253996, 53.37959968613131], [-3.1053998517279733, 53.37959411931807], [-3.105395195503883, 53.37941438105919], [-3.105094601557176, 53.37941716482603], [-3.105089946648394, 53.37923742654329], [-3.1047893539168716, 53.3792402095353], [-3.1047847003233717, 53.37906047122871], [-3.1035823339579345, 53.379071595557015], [-3.10359163107309, 53.379431072309366], [-3.1032910368262576, 53.379433851535815], [-3.103295684193558, 53.37961358992152], [-3.102995088631494, 53.37961636840935], [-3.102999734783495, 53.379796106807376], [-3.103300331610832, 53.37979332830144], [-3.1033096265953053, 53.38015280504416], [-3.103610225903251, 53.380150025745294]]]}, "properties": {"kind": "max_footprint", "threshold_pct": 4.0}}, {"type": "Feature", "geometry": {"type": "Polygon", "coordinates": [[[-3.1029904425294523, 53.37943663000557], [-3.102981150475247, 53.37907715318084], [-3.10268055865896, 53.37907993085768], [-3.102689848182687, 53.379439407718586], [-3.1029904425294523, 53.37943663000557]]]}, "properties": {"kind": "max_footprint", "threshold_pct": 4.0}}, {"type": "Feature", "geometry": {"type": "Polygon", "coordinates": [[[-3.1066068934102082, 53.379762714791404], [-3.10659757078989, 53.379403238424494], [-3.1068981644861187, 53.37940045087398], [-3.1068935019859083, 53.379220712700096], [-3.1071940943667644, 53.37921792441102], [-3.1071987581322125, 53.379397662566774], [-3.107499351728153, 53.37939487350283], [-3.107494686697473, 53.37921513536526], [-3.107795278978016, 53.37921234556272], [-3.107785946536716, 53.37885286930672], [-3.107485356786598, 53.37885565907289], [-3.1074806919064026, 53.378675920918106], [-3.1062783374652376, 53.37868707234307], [-3.106292317073801, 53.37922628700806], [-3.1059917245425788, 53.379229073026956], [-3.105996383247078, 53.37940881125529], [-3.1056957894005213, 53.3794115965356], [-3.1057004468898644, 53.37959133477636], [-3.1060010420016737, 53.3795885494779], [-3.106005700806366, 53.379768287694795], [-3.1066068934102082, 53.379762714791404]]]}, "properties": {"kind": "max_footprint", "threshold_pct": 4.0}}, {"type": "Feature", "geometry": {"type": "Polygon", "coordinates": [[[-3.105080636980992, 53.37887794996064], [-3.105075982222371, 53.3786982116607], [-3.104775393286491, 53.378700994598326], [-3.104780046779912, 53.37888073291639], [-3.105080636980992, 53.37887794996064]]]}, "properties": {"kind": "max_footprint", "threshold_pct": 4.0}}, {"type": "Feature", "geometry": {"type": "Polygon", "coordinates": [[[-3.105672502705023, 53.37851290524591], [-3.1056678455161615, 53.37833316697078], [-3.105367259210755, 53.37833595138556], [-3.105371915134445, 53.378515689678835], [-3.105672502705023, 53.37851290524591]]]}, "properties": {"kind": "max_footprint", "threshold_pct": 4.0}}, {"type": "Feature", "geometry": {"type": "Polygon", "coordinates": [[[-3.1080678668954587, 53.3781311262757], [-3.1080585325259777, 53.377771649987274], [-3.1074573682578284, 53.37777723005829], [-3.1074666975667817, 53.37813670641942], [-3.1080678668954587, 53.3781311262757]]]}, "properties": {"kind": "max_footprint", "threshold_pct": 4.0}}, {"type": "Feature", "geometry": {"type": "Polygon", "coordinates": [[[-3.1113555704087714, 53.3773814295829], [-3.1113508894837976, 53.37720169161882], [-3.1110503117228516, 53.37720449030149], [-3.111054991382747, 53.37738422828378], [-3.1113555704087714, 53.3773814295829]]]}, "properties": {"kind": "max_footprint", "threshold_pct": 4.0}}, {"type": "Feature", "geometry": {"type": "Polygon", "coordinates": [[[-3.1086923854771404, 53.37902423354427], [-3.1086877154859613, 53.378844495467916], [-3.1101906627302056, 53.3788305239357], [-3.1101859864632972, 53.3786507859446], [-3.1104865744961616, 53.37864798938624], [-3.110472542201654, 53.37810877543321], [-3.1110737105255275, 53.378103180155684], [-3.1110783904370254, 53.37828291810933], [-3.1113789757886305, 53.378280119317296], [-3.1113836570156086, 53.37845985724699], [-3.1116842435820353, 53.37845705768004], [-3.1116795610899013, 53.37827731976858], [-3.11198014634082, 53.37827451946317], [-3.1119754626338927, 53.378094781564215], [-3.1122760465693085, 53.37809198052035], [-3.112271361647615, 53.377912242633904], [-3.1125719442675264, 53.37790944085161], [-3.1125672581310972, 53.37772970297769], [-3.112867839435506, 53.37772690045695], [-3.1128631520843637, 53.377547162595505], [-3.1137648918998333, 53.37753875054801], [-3.11376020080384, 53.37735901273564], [-3.114060779376379, 53.37735620722473], [-3.1140560870657588, 53.37717646942492], [-3.1143566643227754, 53.3771736631756], [-3.1143519707975518, 53.376993925388305], [-3.114652546739048, 53.37699111840062], [-3.1146431573099345, 53.376631642845375], [-3.1149437306708827, 53.376628835137595], [-3.1149484266252254, 53.3768085728998], [-3.1158501502001386, 53.37680014518172], [-3.115845450450719, 53.3766204074744], [-3.1164465967179664, 53.37661478524903], [-3.116441894489062, 53.37643504757258], [-3.1167424662818437, 53.37643223534326], [-3.116737762838505, 53.37625249767938], [-3.1176394741183717, 53.3762440565065], [-3.1176300597935747, 53.3758845812715], [-3.117930627589044, 53.37588176607059], [-3.1179212109368066, 53.37552229084929], [-3.117320080355032, 53.37552792042114], [-3.1173153746346984, 53.375348182765244], [-3.1167142463803867, 53.375353809273996], [-3.1167189495708687, 53.37553354696655], [-3.116418384102927, 53.375536359104316], [-3.116423086079038, 53.375716096809434], [-3.1158219524616144, 53.37572171885175], [-3.115826651958372, 53.37590145658774], [-3.115526083808903, 53.37590426649227], [-3.115530782091223, 53.37608400424083], [-3.114629073544853, 53.376092429469495], [-3.1146337680827356, 53.376272167267196], [-3.1140326262694433, 53.37627778033969], [-3.114037318327801, 53.3764575181682], [-3.113135601434512, 53.37646593215698], [-3.1131496665270366, 53.37700514577248], [-3.1128490903333415, 53.377007948976875], [-3.1128444031838, 53.37682821109252], [-3.112243253175319, 53.37683381519485], [-3.1122573071847874, 53.37737302894017], [-3.1119567283098033, 53.37737582991108], [-3.1119520448546814, 53.37719609198347], [-3.111651467194413, 53.37719889217948], [-3.1116561493844594, 53.377378630125314], [-3.1113555704087714, 53.3773814295829], [-3.1113602513840743, 53.377561167541224], [-3.111660831624853, 53.37755836806545], [-3.111665513915593, 53.377738105999825], [-3.111064350853498, 53.37774370423121], [-3.1110596710929626, 53.37756396626036], [-3.1101579299177646, 53.377572357877675], [-3.1101626058829854, 53.377752095903155], [-3.1092608604599596, 53.377760480765026], [-3.1092655326800975, 53.377940218839356], [-3.109566115803151, 53.3779374246239], [-3.1095754629244325, 53.37829690071902], [-3.1092748772710963, 53.37829969497088], [-3.109284222063058, 53.378659171079484], [-3.108983633829142, 53.37866196461101], [-3.1089789626732167, 53.37848222654139], [-3.108678375654249, 53.37848501929805], [-3.108673705813715, 53.378305281204504], [-3.108072534155479, 53.37831086441134], [-3.1080772014656834, 53.37849060254123], [-3.108377788585066, 53.378487811297994], [-3.108391794612385, 53.37902702559877], [-3.1086923854771404, 53.37902423354427]], [[-3.110472542201654, 53.37810877543321], [-3.1098713736765995, 53.37811436768398], [-3.109866698875952, 53.377934629651755], [-3.1104678648707393, 53.37792903743739], [-3.110472542201654, 53.37810877543321]]]}, "properties": {"kind": "max_footprint", "threshold_pct": 4.0}}, {"type": "Feature", "geometry": {"type": "Polygon", "coordinates": [[[-3.1194193219302906, 53.37532846615143], [-3.1194146074061915, 53.37514872861818], [-3.119114044923693, 53.375151547528745], [-3.1191093317151766, 53.37497180997139], [-3.1188087704468956, 53.37497462810703], [-3.118804058553937, 53.3747948905256], [-3.118503498499874, 53.37479770788629], [-3.118494077395662, 53.3744382326695], [-3.118193519820672, 53.37444104923691], [-3.1181982290826, 53.37462078686651], [-3.1178976701921215, 53.37462360269566], [-3.117911794487065, 53.37516281560506], [-3.1182123571721894, 53.37515999972089], [-3.1182076477583576, 53.3749802621085], [-3.1185082091279517, 53.37497744548606], [-3.118517630536056, 53.375336920668424], [-3.1194193219302906, 53.37532846615143]]]}, "properties": {"kind": "max_footprint", "threshold_pct": 4.0}}, {"type": "Feature", "geometry": {"type": "Polygon", "coordinates": [[[-3.119400464138033, 53.37460951598397], [-3.119395749816693, 53.374429778427775], [-3.119095192393686, 53.37443259726493], [-3.119099905450174, 53.3746123348395], [-3.119400464138033, 53.37460951598397]]]}, "properties": {"kind": "max_footprint", "threshold_pct": 4.0}}, {"type": "Feature", "geometry": {"type": "Polygon", "coordinates": [[[-3.115479103764022, 53.37410688869121], [-3.1154697083611853, 53.37374741306218], [-3.115169155339785, 53.37375022199058], [-3.1151785482129943, 53.37410969765619], [-3.115479103764022, 53.37410688869121]]]}, "properties": {"kind": "max_footprint", "threshold_pct": 4.0}}, {"type": "Feature", "geometry": {"type": "Polygon", "coordinates": [[[-3.1169677687606785, 53.37355361934012], [-3.1169630648616384, 53.373373881602795], [-3.116361964332765, 53.373379506195434], [-3.11636666570225, 53.37355924396939], [-3.1169677687606785, 53.37355361934012]]]}, "properties": {"kind": "max_footprint", "threshold_pct": 4.0}}, {"type": "Feature", "geometry": {"type": "Polygon", "coordinates": [[[-3.1172636150502218, 53.373371068171636], [-3.1172589099369947, 53.3731913304469], [-3.1169583610131752, 53.37319414385973], [-3.1169630648616384, 53.373373881602795], [-3.1172636150502218, 53.373371068171636]]]}, "properties": {"kind": "max_footprint", "threshold_pct": 4.0}}, {"type": "Feature", "geometry": {"type": "Polygon", "coordinates": [[[-3.1178600076328578, 53.37318570135158], [-3.1178505924992046, 53.37282622595819], [-3.117550046206053, 53.37282904084747], [-3.1175594588102267, 53.37318851627751], [-3.1178600076328578, 53.37318570135158]]]}, "properties": {"kind": "max_footprint", "threshold_pct": 4.0}}, {"type": "Feature", "geometry": {"type": "Polygon", "coordinates": [[[-3.118738097371692, 53.372278563783084], [-3.1187333862385884, 53.3720988261156], [-3.1184328451561067, 53.3721016432011], [-3.118437555024536, 53.37228138088695], [-3.118738097371692, 53.372278563783084]]]}, "properties": {"kind": "max_footprint", "threshold_pct": 4.0}}, {"type": "Feature", "geometry": {"type": "Polygon", "coordinates": [[[-3.119894405472033, 53.38197593048382], [-3.1198896878064537, 53.38179619318121], [-3.1201902969981026, 53.38179337207777], [-3.12018085928836, 53.38143389749205], [-3.1207820724578648, 53.38142825308836], [-3.120786793818123, 53.38160799034732], [-3.121087401592106, 53.38160516699193], [-3.1210779563916153, 53.38124569250503], [-3.121679166725725, 53.38124004359749], [-3.1216744416709545, 53.38106030638222], [-3.1222756492711254, 53.38105465448441], [-3.122270921736492, 53.3808749173002], [-3.1228721266026462, 53.380869262412155], [-3.12286739658821, 53.38068952525904], [-3.123167997679678, 53.38068669669829], [-3.1231632664507996, 53.38050695955787], [-3.1237644659504826, 53.38050130020299], [-3.1237549985842152, 53.3801418259786], [-3.124055595727143, 53.380138995202934], [-3.1240508608551005, 53.37995925810056], [-3.124652052457673, 53.37995359431586], [-3.1246425778053637, 53.37959412016769], [-3.1249431709997637, 53.379591287177135], [-3.1249384324848, 53.37941155011289], [-3.1255396161902906, 53.37940588189854], [-3.1255301342524278, 53.37904640782665], [-3.1258307234983147, 53.37904357262132], [-3.125825981340676, 53.37886383559523], [-3.1261265692703946, 53.37886099965169], [-3.1261218258985846, 53.37868126263832], [-3.1264224125121363, 53.37867842595653], [-3.1264129233912463, 53.37831895194952], [-3.126713507423499, 53.37831611454797], [-3.126708761674459, 53.37813637755434], [-3.1270093443905633, 53.37813353941461], [-3.1270045974274456, 53.37795380243372], [-3.127305178827401, 53.377950963555804], [-3.127300430650236, 53.377771226587626], [-3.1276010107340446, 53.377768386971546], [-3.127591512002737, 53.377408913055], [-3.1278920895053375, 53.37740607271921], [-3.1278825884482155, 53.377046598816705], [-3.128183163369652, 53.37704375776128], [-3.1281784116526894, 53.37686402081988], [-3.128478985258012, 53.376861179026314], [-3.128474232327136, 53.376681442097706], [-3.1287748046163455, 53.376678599565984], [-3.128765296377932, 53.376319125728564], [-3.1290658660860546, 53.376316282477234], [-3.1290563555221955, 53.37595680865388], [-3.1296574897252074, 53.37595111995545], [-3.1296527319900997, 53.37577138307221], [-3.1299532977499402, 53.37576853760658], [-3.129948538801067, 53.37558880073612], [-3.1302491032448194, 53.375585954532426], [-3.130244343082206, 53.37540621767475], [-3.1305449062098685, 53.375403370733], [-3.1305401448335446, 53.37522363388811], [-3.1308407066451207, 53.3752207862083], [-3.1308359440551126, 53.375041049376215], [-3.1311365045506028, 53.37503820095834], [-3.131131740746937, 53.37485846413908], [-3.1314322999263426, 53.374855614983176], [-3.1314037105910475, 53.37377719405825], [-3.131704262130327, 53.373774344257114], [-3.131689964360022, 53.373235133772766], [-3.1319905120537994, 53.37323228327077], [-3.1319476101277464, 53.37161465167465], [-3.131647073816017, 53.37161750200962], [-3.131637543147608, 53.3712580282213], [-3.13133700931384, 53.37126087776266], [-3.1313274813795022, 53.37090140391426], [-3.1310269500236587, 53.37090425266202], [-3.1310221873978668, 53.37072451571067], [-3.1307216572553713, 53.37072736368342], [-3.1307168959453207, 53.37054762670777], [-3.1304163670161755, 53.37055047390551], [-3.1304068470786763, 53.37019099989988], [-3.1301063206273936, 53.3701938463041], [-3.1301015619999055, 53.37001410927414], [-3.129801036761963, 53.37001695490337], [-3.1297724936580615, 53.36893853249184], [-3.129471975955691, 53.36894137725346], [-3.1294767317473973, 53.36912111435493], [-3.1288756936604445, 53.36912680164594], [-3.1288804469744123, 53.36930653877869], [-3.1291809673078803, 53.36930369549288], [-3.1291952313497835, 53.36984290680117], [-3.1288947072229316, 53.36984575014252], [-3.128899460741313, 53.37002548725229], [-3.1282984098053332, 53.37003117170264], [-3.1283031608458116, 53.370210908843674], [-3.1280026340366938, 53.37021374995267], [-3.12799788426072, 53.37003401279313], [-3.1276973586650407, 53.37003685312716], [-3.127687861795251, 53.369677378753835], [-3.1273873386774915, 53.36968021829442], [-3.1273825915836357, 53.36950048108066], [-3.127082069679308, 53.36950331984632], [-3.127077323900939, 53.369323582608324], [-3.126776803210043, 53.36932642059908], [-3.126772058747133, 53.369146683336865], [-3.1264715392696694, 53.369149520552696], [-3.126462053025707, 53.3687900459741], [-3.1261615360260904, 53.368792882396555], [-3.1261378276303797, 53.36789419575726], [-3.1258373169016536, 53.36789703133096], [-3.1258420572145003, 53.36807676868879], [-3.125541545170466, 53.36807960352456], [-3.1255462842699115, 53.36825934089509], [-3.1252457709105683, 53.36826217499291], [-3.1252505087965874, 53.36844191237615], [-3.1249499941219363, 53.36844474573602], [-3.1249547307945016, 53.36862448313197], [-3.1246542148045373, 53.36862731575386], [-3.1246589502636213, 53.36880705316252], [-3.124057915602171, 53.36881271617392], [-3.124053182671897, 53.36863297872839], [-3.1231516340913563, 53.36864146751702], [-3.1231563632284134, 53.368821205017845], [-3.1225553280583416, 53.368826860464985], [-3.1225600547173946, 53.369006597996865], [-3.122259535791708, 53.3690094246042], [-3.122254810397078, 53.368829687053925], [-3.1219542926850137, 53.368832512886435], [-3.1219448445769604, 53.36847303773184], [-3.1216443293429164, 53.36847586277113], [-3.1216490521071516, 53.36865560036968], [-3.1204469856057937, 53.36866689303619], [-3.1204517033631514, 53.36884663070254], [-3.120151185346567, 53.368849451996475], [-3.1201700518254034, 53.369568402677956], [-3.120470574899783, 53.36956558131055], [-3.120475292910745, 53.3697453189482], [-3.120174768571884, 53.36974814033398], [-3.120198353064939, 53.370646828528066], [-3.119897822352747, 53.37064964924923], [-3.1199072539758133, 53.37100912452344], [-3.120207787217148, 53.37100630376552], [-3.120221938825823, 53.371545516578706], [-3.119921401790673, 53.371548337391715], [-3.11993083392076, 53.37190781260853], [-3.120531912998901, 53.37190217015254], [-3.1205271943792128, 53.37172243258373], [-3.120827732577547, 53.37171961023934], [-3.1208135732290154, 53.371180397553644], [-3.1211141075827546, 53.3711775745079], [-3.121099944897177, 53.37063836182569], [-3.121400475406434, 53.37063553807861], [-3.121395753348202, 53.37045580052478], [-3.121696282542144, 53.37045297603963], [-3.1216915592701446, 53.37027323849844], [-3.1219920871487736, 53.37027041327521], [-3.1219968116853045, 53.37045015079798], [-3.1222973407776733, 53.370447324799876], [-3.1223067925322248, 53.370806799791396], [-3.1214051975154335, 53.37081527562669], [-3.121419364147043, 53.371354488236506], [-3.122621505909545, 53.371343185389044], [-3.12261205132095, 53.37098371046875], [-3.122912584105363, 53.370980882902465], [-3.1228983988099714, 53.37044167053423], [-3.123198927749874, 53.3704388422667], [-3.1232131168389383, 53.370978054579695], [-3.1238141821535264, 53.370972395664694], [-3.1238094498771827, 53.37079265826961], [-3.1235089185098897, 53.37079548808693], [-3.123504187548979, 53.37061575066769], [-3.1241052477035756, 53.37061009031342], [-3.1241099811935973, 53.37078982769581], [-3.1247110436737433, 53.370784164278774], [-3.1247252520366438, 53.371323376280856], [-3.1253263219005976, 53.37131770972723], [-3.1253405383094996, 53.37185692156695], [-3.1256410769589213, 53.371854087100004], [-3.1256552976203498, 53.372393298832705], [-3.1259558400127867, 53.37239046355386], [-3.125960581599878, 53.37257020076816], [-3.1256600379427546, 53.372573036065454], [-3.125664778316126, 53.37275277329246], [-3.1253642333433365, 53.37275560785167], [-3.125368972502959, 53.372935345091406], [-3.1250684262145008, 53.37293817891255], [-3.1250779021571367, 53.37329765341167], [-3.125378450975067, 53.37329481955363], [-3.125383190287553, 53.37347455677614], [-3.125082640204867, 53.37347739065263], [-3.1250873783035398, 53.373657127887846], [-3.124486275455813, 53.373662793408066], [-3.1244910110758592, 53.373842530674445], [-3.1229882467418197, 53.37385668132736], [-3.122983517445707, 53.37367694396884], [-3.122382413885633, 53.37368259889724], [-3.1223776871699207, 53.37350286149617], [-3.1220771365784237, 53.37350568780713], [-3.122086587531102, 53.37386516264034], [-3.1217860343592294, 53.373867988231545], [-3.1217813101222767, 53.37368825079938], [-3.121180206155747, 53.37369389967532], [-3.1211849278631143, 53.373873637144236], [-3.1202832677382224, 53.37388210483902], [-3.1202974217815354, 53.3744213173768], [-3.121800207374852, 53.37440720049352], [-3.1218143808476437, 53.37494641270386], [-3.1221149416085496, 53.37494358700226], [-3.1221338453430856, 53.37566253646212], [-3.1224344111128044, 53.375659709930304], [-3.1224391384384154, 53.375839447262535], [-3.122739705422244, 53.375836619955685], [-3.122753891498954, 53.37637583186267], [-3.1230544622268384, 53.37637300374396], [-3.123063922395538, 53.37673247828307], [-3.1227633491376547, 53.37673530643861], [-3.1227775359770575, 53.37727451825949], [-3.123078113030041, 53.3772716900487], [-3.1230828433432674, 53.37745142729243], [-3.123383421610449, 53.37744859830658], [-3.123411812148607, 53.37852702153793], [-3.1231112262907774, 53.37852985063432], [-3.123125418451238, 53.3790690622278], [-3.1228248287470315, 53.37907189062274], [-3.1228295583037267, 53.37925162782751], [-3.1225289672834675, 53.379254455484194], [-3.122543152463024, 53.379793667119294], [-3.122242557596244, 53.379796494074476], [-3.1222472848258667, 53.3799762312931], [-3.121946688643002, 53.37997905750996], [-3.12195141465819, 53.380158794741256], [-3.121650817159237, 53.38016162021978], [-3.1216319184643826, 53.37944267118658], [-3.1210307334360587, 53.379448319726265], [-3.1210401776209356, 53.379807794327924], [-3.1207395825001316, 53.37981061749946], [-3.120744303403479, 53.37999035481006], [-3.121044899789541, 53.37998753162014], [-3.1210543442790875, 53.38034700618737], [-3.1216555419599645, 53.38034135746374], [-3.1216602668115, 53.38052109470197], [-3.1207584664181174, 53.38052956670746], [-3.120749024357592, 53.38017009211494], [-3.119847231099059, 53.38017855719943], [-3.1198519483080824, 53.380358294553695], [-3.119551349188483, 53.38036111475341], [-3.1195654973239684, 53.38090032683686], [-3.119866100239509, 53.38089750658203], [-3.119875535114098, 53.381256981238906], [-3.119574929667862, 53.38125980153046], [-3.119584362214617, 53.38161927620112], [-3.1189831461085085, 53.38162491458733], [-3.118987859927169, 53.38180465195078], [-3.119288469270972, 53.381801833117706], [-3.1192931844057337, 53.38198157045705], [-3.119894405472033, 53.38197593048382]], [[-3.1216915592701446, 53.37027323849844], [-3.1213910313407385, 53.37027606296524], [-3.121386309384039, 53.37009632539994], [-3.1207852559019815, 53.37010197202731], [-3.120756940401521, 53.36902354629439], [-3.12105745958108, 53.36902072346922], [-3.1210810620269607, 53.36991941150244], [-3.1216821128784864, 53.3699137633989], [-3.1216915592701446, 53.37027323849844]], [[-3.122583688774905, 53.369905285570184], [-3.1219826382280886, 53.36991093821245], [-3.1219779138439336, 53.369731200672476], [-3.121677389758824, 53.3697340258405], [-3.121672666689939, 53.369554288276376], [-3.122273712280412, 53.3695486372206], [-3.1222784378782533, 53.36972837474794], [-3.1225789618617683, 53.36972554806698], [-3.122583688774905, 53.369905285570184]], [[-3.122879485794465, 53.369722720629575], [-3.1225789618617683, 53.36972554806698], [-3.122574234999449, 53.36954581055805], [-3.122874757667669, 53.36954298313906], [-3.122879485794465, 53.369722720629575]], [[-3.124062648583329, 53.3689924536137], [-3.1237621299118534, 53.368995284003184], [-3.1237573981951154, 53.36881554654499], [-3.124057915602171, 53.36881271617392], [-3.124062648583329, 53.3689924536137]]]}, "properties": {"kind": "max_footprint", "threshold_pct": 4.0}}, {"type": "Feature", "geometry": {"type": "Polygon", "coordinates": [[[-3.1255206525184813, 53.378686933731785], [-3.1255159117279736, 53.37850719667575], [-3.12581649717837, 53.37850436152581], [-3.1258117551737032, 53.3783246244825], [-3.1261123393079764, 53.37832178859434], [-3.1261075960891773, 53.378142051563756], [-3.1264081789073255, 53.37813921493738], [-3.126398690092532, 53.37777974089592], [-3.127300430650236, 53.377771226587626], [-3.1272861864250663, 53.37723201564873], [-3.127586762713684, 53.37722917608809], [-3.1275820134757, 53.377049439115474], [-3.1278825884482155, 53.377046598816705], [-3.1278730875954115, 53.37668712489119], [-3.1281736599868175, 53.37668428387277], [-3.12816415680835, 53.37632480996131], [-3.128464726618693, 53.37632196822325], [-3.128459973841129, 53.37614223127743], [-3.12906111077856, 53.37613654556843], [-3.12905160031696, 53.37577707173358], [-3.1293521661791, 53.375774227781186], [-3.1293474097600704, 53.37559449087368], [-3.1296479743061463, 53.37559164618322], [-3.1296384590917072, 53.37523217238798], [-3.1302395829707756, 53.37522648081133], [-3.130234822910524, 53.37504674394218], [-3.1308359440551126, 53.375041049376215], [-3.1308311815163115, 53.374861312538386], [-3.131131740746937, 53.37485846413908], [-3.131122213293265, 53.374498990483296], [-3.131422769942983, 53.3744961413645], [-3.1314037105910475, 53.37377719405825], [-3.131704262130327, 53.373774344257114], [-3.1316804327693553, 53.37287566008785], [-3.1319809779336936, 53.37287280962295], [-3.1319476101277464, 53.37161465167465], [-3.131647073816017, 53.37161750200962], [-3.131642308456196, 53.37143776511833], [-3.131341773357835, 53.37144061467824], [-3.1313322453210626, 53.371081140841326], [-3.131031712700653, 53.371083989607655], [-3.1310221873978668, 53.37072451571067], [-3.1307216572553713, 53.37072736368342], [-3.1307168959453207, 53.37054762670777], [-3.1304163670161755, 53.37055047390551], [-3.1304068470786763, 53.37019099989988], [-3.1301063206273936, 53.3701938463041], [-3.1301015619999055, 53.37001410927414], [-3.129801036761963, 53.37001695490337], [-3.129786764979866, 53.369477743723436], [-3.1294862434841977, 53.36948058854064], [-3.1294957554255163, 53.36984006270337], [-3.1291952313497835, 53.36984290680117], [-3.129199986132653, 53.37002264389244], [-3.1285989352988675, 53.37002832985569], [-3.1286084399599265, 53.370387804095046], [-3.12830791193737, 53.37039064597899], [-3.1283031608458116, 53.370210908843674], [-3.1280026340366938, 53.37021374995267], [-3.12799788426072, 53.37003401279313], [-3.1276973586650407, 53.37003685312716], [-3.127687861795251, 53.369677378753835], [-3.1273873386774915, 53.36968021829442], [-3.1273825915836357, 53.36950048108066], [-3.126781547723959, 53.36950615785553], [-3.126776803210043, 53.36932642059908], [-3.1264762824681394, 53.369329257833385], [-3.1264715392696694, 53.369149520552696], [-3.1261710197412125, 53.36915235701208], [-3.1261520525148803, 53.36843340775807], [-3.125851537993074, 53.36843624338718], [-3.125861018975497, 53.36879571806259], [-3.12556050187394, 53.3687985529722], [-3.125565241177183, 53.36897829031977], [-3.12526472276026, 53.3689811244914], [-3.125269460850025, 53.36916086185169], [-3.1249689411177344, 53.36916369528536], [-3.1249736779939927, 53.369343432658326], [-3.1246731569463333, 53.36934626535401], [-3.1246684213345195, 53.36916652796259], [-3.1240673816153675, 53.36917219104773], [-3.124072114698294, 53.369351928476036], [-3.1237715934979393, 53.369354758902396], [-3.1237763253672877, 53.36953449634338], [-3.124076847832103, 53.3695316658986], [-3.1240815810167972, 53.36971140331542], [-3.1237810572875087, 53.369714233778645], [-3.1237952533534097, 53.37025344604995], [-3.1240957808761993, 53.37025061553145], [-3.1241005142644425, 53.3704303529253], [-3.124701571686399, 53.37042468958202], [-3.124696835769103, 53.37024495222503], [-3.124997363139187, 53.370242119437144], [-3.1250068375537636, 53.3706015941085], [-3.125307367401983, 53.37059876052722], [-3.1253263219005976, 53.37131770972723], [-3.1256268567561603, 53.37131487531565], [-3.125631596772787, 53.37149461258284], [-3.1259321328419927, 53.37149177739632], [-3.125960581599878, 53.37257020076816], [-3.1262611252060215, 53.37256736471436], [-3.1262563823542444, 53.37238762751853], [-3.1265569246447114, 53.37238479072668], [-3.12657115714712, 53.37292400224149], [-3.126270611062557, 53.37292683908877], [-3.1262753540673165, 53.373106576267354], [-3.1259748066670334, 53.373109412376586], [-3.1259985161319337, 53.37400809827579], [-3.12539740853075, 53.3740137684092], [-3.1253926690653935, 53.37383403120391], [-3.1250921164531555, 53.373836865117326], [-3.1251015929052204, 53.37419633955907], [-3.124199927174064, 53.374204836870554], [-3.1242046616820374, 53.37438457413814], [-3.1239041050716647, 53.37438740508057], [-3.1238993718285184, 53.37420766779456], [-3.1232982609847686, 53.37421332737287], [-3.1233503016308233, 53.376190437608855], [-3.123650870991999, 53.37618760799533], [-3.1236650687587093, 53.37672681970207], [-3.12396564186397, 53.3767239892766], [-3.123970375819666, 53.376903726482276], [-3.123669801449388, 53.376906556926166], [-3.123674534190954, 53.37708629414453], [-3.124275685410673, 53.37708063246324], [-3.1242804207332178, 53.377260369638975], [-3.1245809975317536, 53.37725753764491], [-3.124590470859724, 53.377617011942306], [-3.1239893121514783, 53.37762267524755], [-3.123994046361691, 53.377802412424536], [-3.1242946270063583, 53.37779958113181], [-3.124304098109714, 53.378159055431674], [-3.1240035149348357, 53.37816188676127], [-3.124008249297767, 53.37834162392103], [-3.1246094181268558, 53.378335960468256], [-3.1246141550709736, 53.37851569758539], [-3.124914740674262, 53.37851286470554], [-3.1249194789344674, 53.37869260179849], [-3.1255206525184813, 53.378686933731785]], [[-3.123908838365702, 53.37456714236086], [-3.1236082804395964, 53.374569972565155], [-3.1236035484104003, 53.37439023526646], [-3.1239041050716647, 53.37438740508057], [-3.123908838365702, 53.37456714236086]], [[-3.124687364087253, 53.36988547749385], [-3.124386839195265, 53.3698883094884], [-3.1243821046951994, 53.36970857209576], [-3.1246826283227005, 53.36970574011965], [-3.124687364087253, 53.36988547749385]]]}, "properties": {"kind": "max_footprint", "threshold_pct": 7.0}}, {"type": "Feature", "geometry": {"type": "Polygon", "coordinates": [[[-3.126379713075115, 53.37706079274414], [-3.126365480847672, 53.37652158156999], [-3.126666052229335, 53.37651874435323], [-3.1266755428599615, 53.376878218438115], [-3.1269761167206096, 53.376875380427755], [-3.1269666235599756, 53.376515906379844], [-3.12726719483958, 53.37651306764981], [-3.1272624470708354, 53.37633333063574], [-3.127863586946917, 53.37632765094274], [-3.127854086502731, 53.375968176971334], [-3.1287557883439887, 53.375959651868165], [-3.128751034403691, 53.375779914929346], [-3.12905160031696, 53.37577707173358], [-3.1290468451628533, 53.375597334807544], [-3.1293474097600704, 53.37559449087368], [-3.1293426533921815, 53.37541475396041], [-3.129643216673349, 53.37541190928847], [-3.1296384590917072, 53.37523217238798], [-3.1299390210568245, 53.375229326977966], [-3.1299342622614548, 53.37504959009027], [-3.130234822910524, 53.37504674394218], [-3.1302205430368506, 53.37450753330023], [-3.1305210998401845, 53.37450468645117], [-3.130516338719825, 53.37432494957758], [-3.1308168942071424, 53.37432210199047], [-3.130826419028716, 53.37468157569484], [-3.1311269769944907, 53.37467872731406], [-3.1311079224968945, 53.373959779956564], [-3.1314084753521856, 53.37395693089343], [-3.1313989458811387, 53.373597457217315], [-3.1316994961556497, 53.37359460743473], [-3.1316804327693553, 53.37287566008785], [-3.1319809779336936, 53.37287280962295], [-3.1319476101277464, 53.37161465167465], [-3.131647073816017, 53.37161750200962], [-3.131642308456196, 53.37143776511833], [-3.131341773357835, 53.37144061467824], [-3.1313322453210626, 53.371081140841326], [-3.131031712700653, 53.371083989607655], [-3.1310269500236587, 53.37090425266202], [-3.1307264186166117, 53.370907100653326], [-3.1307216572553713, 53.37072736368342], [-3.1304211270616857, 53.3707302108997], [-3.130411607021839, 53.37037073690556], [-3.1301110793060443, 53.37037358332831], [-3.1301063206273936, 53.3701938463041], [-3.129805794124951, 53.37019669195184], [-3.1297962794501184, 53.369837217849124], [-3.1294957554255163, 53.36984006270337], [-3.1295052675713624, 53.37019953684313], [-3.12920474096664, 53.37020238097796], [-3.129214250787974, 53.370561855131804], [-3.1283126630800075, 53.37057038310858], [-3.12830791193737, 53.37039064597899], [-3.1280073838637343, 53.37039348710648], [-3.12799788426072, 53.37003401279313], [-3.1276973586650407, 53.37003685312716], [-3.127692610204621, 53.36985711594337], [-3.1273920858223847, 53.36985995550245], [-3.1273873386774915, 53.36968021829442], [-3.1267862922888843, 53.369685895106294], [-3.126781547723959, 53.36950615785553], [-3.1261805036602524, 53.36951183160467], [-3.1261757616752424, 53.36933209431125], [-3.125574719936524, 53.36933776499768], [-3.1255889384576783, 53.36987697697147], [-3.1258894631459295, 53.369874141951094], [-3.1259321328419927, 53.37149177739632], [-3.126232668860225, 53.37148894145332], [-3.126237411457048, 53.37166867867785], [-3.126838485869769, 53.371663004485384], [-3.126843231046842, 53.371842741667216], [-3.1271437694413127, 53.371839903417744], [-3.127158009072611, 53.37237911487337], [-3.1277590932963792, 53.37237343599397], [-3.127763842471575, 53.37255317309739], [-3.127463299120533, 53.37255601293384], [-3.1274680470820932, 53.372735750050005], [-3.127167502415307, 53.372738589148405], [-3.1271769959621403, 53.37309806340048], [-3.126575901416605, 53.37310373940161], [-3.1265853901086014, 53.373463213704646], [-3.126284840229821, 53.373466050607355], [-3.126308556528537, 53.37436473635681], [-3.126609112731287, 53.374361899361745], [-3.1266138574088633, 53.37454163647593], [-3.1260127424226933, 53.37454730974645], [-3.126008000274787, 53.374367572595304], [-3.125406887614338, 53.374373242802555], [-3.1254211066219204, 53.37491245434953], [-3.1251205464206966, 53.37491528837366], [-3.1251300234841213, 53.37527476274651], [-3.1254305862151153, 53.37527192868547], [-3.125440066012163, 53.37563140299846], [-3.1248389354395743, 53.37563707043772], [-3.1248436728846793, 53.375816807622506], [-3.1251442394613824, 53.375813974262726], [-3.125167933775867, 53.37671266000832], [-3.1257690794261372, 53.376706990834336], [-3.1257785625686982, 53.37706646501856], [-3.126379713075115, 53.37706079274414]]]}, "properties": {"kind": "max_footprint", "threshold_pct": 10.0}}]}