{"type": "FeatureCollection", "features": [{"type": "Feature", "geometry": {"type": "Polygon", "coordinates": [[[-3.0984215375761135, 53.38882738702814], [-3.0984122808346757, 53.388467910221266], [-3.0981116224102005, 53.38847067672721], [-3.098106995380087, 53.38829093829719], [-3.0984076525386244, 53.38828817180924], [-3.09840302429235, 53.38810843339149], [-3.0987036801351873, 53.3881056661646], [-3.0986990506727814, 53.38792592775915], [-3.09899970519992, 53.38792315979333], [-3.0989950745214077, 53.38774342140017], [-3.0983937679491302, 53.3877489565388], [-3.098398396095853, 53.387928694968025], [-3.0977970867926827, 53.38793422711484], [-3.09780171245736, 53.38811396557435], [-3.0975010564652328, 53.388116730530314], [-3.097514929959946, 53.38865594592852], [-3.098116249490079, 53.38865041515154], [-3.0981208766197237, 53.38883015357012], [-3.0984215375761135, 53.38882738702814]]]}, "properties": {"kind": "max_footprint", "threshold_pct": 4.0}}, {"type": "Feature", "geometry": {"type": "Polygon", "coordinates": [[[-3.1172877525835014, 53.38577577202221], [-3.11728304524367, 53.3855960346749], [-3.1169824089687346, 53.38559884859527], [-3.116987115042866, 53.3857785859609], [-3.1172877525835014, 53.38577577202221]]]}, "properties": {"kind": "max_footprint", "threshold_pct": 4.0}}, {"type": "Feature", "geometry": {"type": "Polygon", "coordinates": [[[-3.119077432113767, 53.38521966076628], [-3.119072717331859, 53.38503992351182], [-3.118471452933215, 53.38504555956825], [-3.11847616518381, 53.385225296859396], [-3.119077432113767, 53.38521966076628]]]}, "properties": {"kind": "max_footprint", "threshold_pct": 4.0}}, {"type": "Feature", "geometry": {"type": "Polygon", "coordinates": [[[-3.0832971364579573, 53.38536999981137], [-3.08329257234329, 53.38519026040161], [-3.0829919354984234, 53.385192988720455], [-3.082996498347362, 53.385372728148], [-3.0832971364579573, 53.38536999981137]]]}, "properties": {"kind": "max_footprint", "threshold_pct": 4.0}}, {"type": "Feature", "geometry": {"type": "Polygon", "coordinates": [[[-3.082381541173664, 53.384838964144166], [-3.0823769810033106, 53.384659224663935], [-3.0817757145644293, 53.38466467589682], [-3.0817802722034022, 53.38484441541254], [-3.082381541173664, 53.384838964144166]]]}, "properties": {"kind": "max_footprint", "threshold_pct": 4.0}}, {"type": "Feature", "geometry": {"type": "Polygon", "coordinates": [[[-3.0805777336748097, 53.384855308866605], [-3.0805731810986057, 53.384675569279935], [-3.0799719140718813, 53.38468101143014], [-3.0799764641166982, 53.38486075105227], [-3.0805777336748097, 53.384855308866605]]]}, "properties": {"kind": "max_footprint", "threshold_pct": 4.0}}, {"type": "Feature", "geometry": {"type": "Polygon", "coordinates": [[[-3.083579513292471, 53.38464831311549], [-3.0835749481084633, 53.3844685737006], [-3.0832743163754555, 53.38447130270528], [-3.0832697525062027, 53.38429156326689], [-3.0820672301461403, 53.38430247164571], [-3.08207178895275, 53.38448221115514], [-3.0826730527622104, 53.38447675844397], [-3.0826776141491967, 53.38465649791214], [-3.083579513292471, 53.38464831311549]]]}, "properties": {"kind": "max_footprint", "threshold_pct": 4.0}}, {"type": "Feature", "geometry": {"type": "Polygon", "coordinates": [[[-3.0814750812714604, 53.38466740037793], [-3.0814614124456154, 53.38412818174321], [-3.0808601533066784, 53.384133628328364], [-3.080864707001658, 53.38431336791445], [-3.0811653378612704, 53.38431064498259], [-3.0811744479294907, 53.38467012410214], [-3.0814750812714604, 53.38466740037793]]]}, "properties": {"kind": "max_footprint", "threshold_pct": 4.0}}, {"type": "Feature", "geometry": {"type": "Polygon", "coordinates": [[[-3.1223418400942187, 53.38357097446072], [-3.122337111847798, 53.38339123735683], [-3.122036491622531, 53.383394063923426], [-3.1220412186034263, 53.383573801045706], [-3.1223418400942187, 53.38357097446072]]]}, "properties": {"kind": "max_footprint", "threshold_pct": 4.0}}, {"type": "Feature", "geometry": {"type": "Polygon", "coordinates": [[[-3.079958264231024, 53.38414179252951], [-3.0799537143819333, 53.38396205288453], [-3.079653085857811, 53.383964772753444], [-3.079648537323277, 53.383785033085026], [-3.079347910015866, 53.383787752179366], [-3.0793433627958615, 53.38360801248752], [-3.079042736705164, 53.3836107308073], [-3.0790381907996625, 53.38343099109205], [-3.0781363160311086, 53.38343914145711], [-3.0781408581398018, 53.38361888122543], [-3.0784414843771213, 53.38361616517626], [-3.0784460278002785, 53.38379590492118], [-3.0787466552543528, 53.38379318809745], [-3.078751199992002, 53.38397292781896], [-3.079051828662832, 53.38397021022066], [-3.079056374714998, 53.38414994991877], [-3.079958264231024, 53.38414179252951]]]}, "properties": {"kind": "max_footprint", "threshold_pct": 4.0}}, {"type": "Feature", "geometry": {"type": "Polygon", "coordinates": [[[-3.094675228278142, 53.38346837458665], [-3.0946706165623104, 53.38328863579847], [-3.0943699942484706, 53.38329139269988], [-3.0943746046987375, 53.38347113150601], [-3.094675228278142, 53.38346837458665]]]}, "properties": {"kind": "max_footprint", "threshold_pct": 4.0}}, {"type": "Feature", "geometry": {"type": "Polygon", "coordinates": [[[-3.085064391794694, 53.38391569931186], [-3.085059820478979, 53.38373595996304], [-3.0847591940541252, 53.38373869268093], [-3.0847546240531702, 53.38355895330858], [-3.0844539988447717, 53.38356168525183], [-3.0844494301585543, 53.38338194585598], [-3.0841488061666116, 53.38338467702458], [-3.0841442387951017, 53.38320493760521], [-3.0832423703213543, 53.383213126516544], [-3.0832514975199907, 53.383572605456216], [-3.0835521229248375, 53.383569876540406], [-3.083556687863376, 53.38374961598388], [-3.084157941056988, 53.38374415584612], [-3.0841625085758566, 53.383923895248344], [-3.085064391794694, 53.38391569931186]]]}, "properties": {"kind": "max_footprint", "threshold_pct": 4.0}}, {"type": "Feature", "geometry": {"type": "Polygon", "coordinates": [[[-3.0769383527021974, 53.383629737853525], [-3.0769292786584446, 53.38327025816975], [-3.076328030709237, 53.38327568187197], [-3.0763370996905883, 53.3836351616264], [-3.0769383527021974, 53.383629737853525]]]}, "properties": {"kind": "max_footprint", "threshold_pct": 4.0}}, {"type": "Feature", "geometry": {"type": "Polygon", "coordinates": [[[-3.0778356910105478, 53.38344185673174], [-3.077831150216291, 53.38326211694], [-3.0775305264124886, 53.38326483144011], [-3.077535065941154, 53.383444571249505], [-3.0778356910105478, 53.38344185673174]]]}, "properties": {"kind": "max_footprint", "threshold_pct": 4.0}}, {"type": "Feature", "geometry": {"type": "Polygon", "coordinates": [[[-3.0775305264124886, 53.38326483144011], [-3.0775259869326392, 53.38308509162498], [-3.0772253643455985, 53.383087805350556], [-3.0772299025598677, 53.383267545183344], [-3.0775305264124886, 53.38326483144011]]]}, "properties": {"kind": "max_footprint", "threshold_pct": 4.0}}, {"type": "Feature", "geometry": {"type": "Polygon", "coordinates": [[[-3.0757358464839197, 53.38364058237181], [-3.0757267825649754, 53.38328110254677], [-3.076027406661481, 53.38327839258778], [-3.0760228735095327, 53.383098652684346], [-3.0754216277989497, 53.383104071810145], [-3.0754170972268864, 53.38292433186571], [-3.0751164755640756, 53.3829270402757], [-3.075121004870569, 53.38310678023778], [-3.074820381893478, 53.38310948790854], [-3.074815853852556, 53.38292974792883], [-3.074515232092343, 53.38293245482513], [-3.0745197588676945, 53.383112194822466], [-3.073918512670095, 53.383117606379756], [-3.0739230369629555, 53.38329734640662], [-3.074824909983096, 53.38328922788255], [-3.0748294381214087, 53.383468967850845], [-3.075430689089242, 53.383463551681906], [-3.0754352198074724, 53.383643291609204], [-3.0757358464839197, 53.38364058237181]]]}, "properties": {"kind": "max_footprint", "threshold_pct": 4.0}}, {"type": "Feature", "geometry": {"type": "Polygon", "coordinates": [[[-3.0772253643455985, 53.383087805350556], [-3.077220826180133, 53.38290806551204], [-3.0769202048098543, 53.382910778463106], [-3.0769247417097527, 53.38309051831927], [-3.0772253643455985, 53.383087805350556]]]}, "properties": {"kind": "max_footprint", "threshold_pct": 4.0}}, {"type": "Feature", "geometry": {"type": "Polygon", "coordinates": [[[-3.0832651886860307, 53.3841118238228], [-3.0832514975199907, 53.383572605456216], [-3.082950872066066, 53.38357533361516], [-3.0829463097078014, 53.38339559413044], [-3.082645685470407, 53.38339832151476], [-3.082641124426785, 53.38321858200654], [-3.0829417473986, 53.38321585463997], [-3.082937185138462, 53.3830361151438], [-3.0826365634322115, 53.38303884249261], [-3.0826320024866876, 53.382859102972944], [-3.0823313819969416, 53.38286182954716], [-3.0823359416769125, 53.38304156908456], [-3.081734698019225, 53.383047019997946], [-3.0817392552170957, 53.383226759565154], [-3.081138008832239, 53.38323220748665], [-3.0811334541655047, 53.38305246788397], [-3.080832832165167, 53.38305519069172], [-3.080823725509739, 53.38269571143377], [-3.0805231059915363, 53.3826984334492], [-3.080532210115864, 53.383057912742615], [-3.080231588017607, 53.38306063403665], [-3.0802361388876287, 53.38324037369252], [-3.0805367622514574, 53.38323765238075], [-3.0805458666695054, 53.383597131639846], [-3.0811471183126504, 53.383591686674826], [-3.08115167312633, 53.383771426260346], [-3.0817529271047635, 53.383765978232425], [-3.081757484498672, 53.383945717776726], [-3.082058112680002, 53.383942992609725], [-3.0820626713885577, 53.384122732130564], [-3.0832651886860307, 53.3841118238228]]]}, "properties": {"kind": "max_footprint", "threshold_pct": 4.0}}, {"type": "Feature", "geometry": {"type": "Polygon", "coordinates": [[[-3.074515232092343, 53.38293245482513], [-3.074510705365672, 53.38275271482207], [-3.074210084822337, 53.38275542094389], [-3.074214610283449, 53.382935160964564], [-3.074515232092343, 53.38293245482513]]]}, "properties": {"kind": "max_footprint", "threshold_pct": 4.0}}, {"type": "Feature", "geometry": {"type": "Polygon", "coordinates": [[[-3.0727160196911587, 53.38312842041213], [-3.0727069813759385, 53.38276894020037], [-3.072406360540811, 53.38277164178113], [-3.072401842721647, 53.382591901649114], [-3.0721012231034823, 53.38259460245545], [-3.072110256259282, 53.38295408274899], [-3.0724108784085598, 53.382951381907475], [-3.072415396324893, 53.383131122028075], [-3.0727160196911587, 53.38312842041213]]]}, "properties": {"kind": "max_footprint", "threshold_pct": 4.0}}, {"type": "Feature", "geometry": {"type": "Polygon", "coordinates": [[[-3.0721012231034823, 53.38259460245545], [-3.0720967065984395, 53.38241486230012], [-3.0717960881972415, 53.38241756233202], [-3.071800603436749, 53.38259730250495], [-3.0721012231034823, 53.38259460245545]]]}, "properties": {"kind": "max_footprint", "threshold_pct": 4.0}}, {"type": "Feature", "geometry": {"type": "Polygon", "coordinates": [[[-3.088639815756381, 53.382624673383766], [-3.0886306434901147, 53.38226519502817], [-3.088029412021465, 53.382270677586085], [-3.0880248284932796, 53.382090938364016], [-3.0877242139504983, 53.382093678489916], [-3.0877333785251775, 53.38245315696404], [-3.088033995598942, 53.38245041680246], [-3.088038579225712, 53.3826301560131], [-3.088639815756381, 53.382624673383766]]]}, "properties": {"kind": "max_footprint", "threshold_pct": 4.0}}, {"type": "Feature", "geometry": {"type": "Polygon", "coordinates": [[[-3.08622114049772, 53.382107367767134], [-3.0862165646116666, 53.38192762843235], [-3.085915951038909, 53.38193036399953], [-3.0859205256594864, 53.38211010335213], [-3.08622114049772, 53.382107367767134]]]}, "properties": {"kind": "max_footprint", "threshold_pct": 4.0}}, {"type": "Feature", "geometry": {"type": "Polygon", "coordinates": [[[-3.100336076214358, 53.381438726095574], [-3.100326805838013, 53.381079249071625], [-3.100026199654342, 53.38108202013645], [-3.100035467499895, 53.38144149719649], [-3.100336076214358, 53.381438726095574]]]}, "properties": {"kind": "max_footprint", "threshold_pct": 4.0}}, {"type": "Feature", "geometry": {"type": "Polygon", "coordinates": [[[-3.07537179418582, 53.38112693210695], [-3.075367264149653, 53.38094719209964], [-3.0750666564072118, 53.38094990031561], [-3.0750711851779577, 53.38112964034056], [-3.07537179418582, 53.38112693210695]]]}, "properties": {"kind": "max_footprint", "threshold_pct": 4.0}}, {"type": "Feature", "geometry": {"type": "Polygon", "coordinates": [[[-3.072065092423042, 53.381156681052815], [-3.072060576306536, 53.380976940851774], [-3.0717599680291414, 53.38097964074302], [-3.07176448288022, 53.381159380961634], [-3.072065092423042, 53.381156681052815]]]}, "properties": {"kind": "max_footprint", "threshold_pct": 4.0}}, {"type": "Feature", "geometry": {"type": "Polygon", "coordinates": [[[-3.079871825464578, 53.380726738297284], [-3.079862727674397, 53.38036725878437], [-3.0795621244602325, 53.38036997829904], [-3.0795575769038708, 53.38019023851631], [-3.0786557707640916, 53.38019839246663], [-3.078660314524384, 53.380378132302496], [-3.0789609178852126, 53.380375415058126], [-3.0789654629597365, 53.38055515487054], [-3.0792660675370604, 53.38055243685171], [-3.0792706139258437, 53.38073217664073], [-3.079871825464578, 53.380726738297284]]]}, "properties": {"kind": "max_footprint", "threshold_pct": 4.0}}, {"type": "Feature", "geometry": {"type": "Polygon", "coordinates": [[[-3.0720515442192147, 53.38061746043256], [-3.0720425123261426, 53.3802579799905], [-3.0714413058459566, 53.38026337887556], [-3.0714503326775064, 53.38062285938794], [-3.0720515442192147, 53.38061746043256]]]}, "properties": {"kind": "max_footprint", "threshold_pct": 4.0}}, {"type": "Feature", "geometry": {"type": "Polygon", "coordinates": [[[-3.1014457145597043, 53.377832864298064], [-3.1014410752828514, 53.377653125746626], [-3.101140493338374, 53.37765589949534], [-3.1011451313500995, 53.377835638064845], [-3.1014457145597043, 53.377832864298064]]]}, "properties": {"kind": "max_footprint", "threshold_pct": 4.0}}, {"type": "Feature", "geometry": {"type": "Polygon", "coordinates": [[[-3.105043400313437, 53.37744004340077], [-3.10503874595521, 53.37726030505501], [-3.105339324719936, 53.37725752150567], [-3.105334669146679, 53.377077783172304], [-3.104733514097338, 53.37708334947805], [-3.1047288611042676, 53.3769036111027], [-3.1044282847696074, 53.376906393102445], [-3.1044422401036793, 53.37744560826564], [-3.105043400313437, 53.37744004340077]]]}, "properties": {"kind": "max_footprint", "threshold_pct": 4.0}}, {"type": "Feature", "geometry": {"type": "Polygon", "coordinates": [[[-3.107152122734382, 53.37760028075149], [-3.1071427962565537, 53.37724080431966], [-3.1068422177923902, 53.37724359240899], [-3.1068235704986327, 53.37652463940394], [-3.106522997044554, 53.37652742666401], [-3.1065136762284515, 53.37616795009081], [-3.1059125342300264, 53.37617352226844], [-3.105926507939227, 53.3767127372285], [-3.106227082758549, 53.376709951463596], [-3.106236401345215, 53.377069428038716], [-3.1065369786445447, 53.37706664148084], [-3.1065462999617703, 53.37742611799676], [-3.1068468797411484, 53.37742333064593], [-3.1068515417400344, 53.37760306887713], [-3.107152122734382, 53.37760028075149]]]}, "properties": {"kind": "max_footprint", "threshold_pct": 4.0}}, {"type": "Feature", "geometry": {"type": "Polygon", "coordinates": [[[-3.10952405624483, 53.37631978191211], [-3.109519383211815, 53.37614004380436], [-3.109218812739359, 53.376142837837875], [-3.1092234845073765, 53.376322575963826], [-3.10952405624483, 53.37631978191211]]]}, "properties": {"kind": "max_footprint", "threshold_pct": 4.0}}, {"type": "Feature", "geometry": {"type": "Polygon", "coordinates": [[[-3.11072166459904, 53.376128860103954], [-3.110716986556337, 53.37594912206331], [-3.110416417549929, 53.37595191910515], [-3.110421094327649, 53.37613165716401], [-3.11072166459904, 53.376128860103954]]]}, "properties": {"kind": "max_footprint", "threshold_pct": 4.0}}, {"type": "Feature", "geometry": {"type": "Polygon", "coordinates": [[[-3.1187239641243303, 53.371739350763406], [-3.1187145422126714, 53.37137987538825], [-3.118113470114221, 53.37138550865604], [-3.11811817851548, 53.37156524638317], [-3.1184187158546464, 53.37156243010918], [-3.118423425571164, 53.37174216781223], [-3.1187239641243303, 53.371739350763406]]]}, "properties": {"kind": "max_footprint", "threshold_pct": 4.0}}, {"type": "Feature", "geometry": {"type": "Polygon", "coordinates": [[[-3.118944401338028, 53.36868099184979], [-3.1189396899534003, 53.36850125408589], [-3.1186391742122455, 53.368504071560984], [-3.1186438843324678, 53.368683809343224], [-3.118944401338028, 53.36868099184979]]]}, "properties": {"kind": "max_footprint", "threshold_pct": 4.0}}, {"type": "Feature", "geometry": {"type": "Polygon", "coordinates": [[[-3.100507614146141, 53.388089046906885], [-3.1004983400803168, 53.38772957030672], [-3.1014002988173246, 53.38772125056711], [-3.101395658061589, 53.38754151231263], [-3.102598263948617, 53.38753040880138], [-3.102593618179349, 53.38735067061348], [-3.103194918291412, 53.38734511435231], [-3.1031902700404204, 53.38716537619486], [-3.103791567420831, 53.38715981694211], [-3.1037869166881698, 53.38698007881513], [-3.1040875640375276, 53.38697729807147], [-3.1040829120890683, 53.386797559956875], [-3.104684204106047, 53.386791996234926], [-3.1046888585861323, 53.38697173431327], [-3.105590800033575, 53.386963382999], [-3.105586141756054, 53.38678364497504], [-3.106488078955176, 53.386775286902775], [-3.1064834169303643, 53.38659554892751], [-3.106784061297351, 53.38659276140769], [-3.106779398056896, 53.38641302344485], [-3.1073806841088394, 53.3864074461708], [-3.1073760183870034, 53.38622770823856], [-3.1076766600719483, 53.386224918484324], [-3.1076813270595505, 53.38640465639841], [-3.10798196996007, 53.38640186586908], [-3.107986638263642, 53.386581603759254], [-3.1076859940973445, 53.386584394306766], [-3.1076906611853317, 53.386764132209386], [-3.1073900157030483, 53.38676692201812], [-3.107404013470712, 53.38730613574612], [-3.1080053119799995, 53.38730055526266], [-3.1079913066174205, 53.386761341643705], [-3.1082919519993033, 53.38675855032111], [-3.1082872823797327, 53.38657881245485], [-3.108587926445604, 53.3865760203935], [-3.108592597330965, 53.386755758241584], [-3.109193887843572, 53.38675017181175], [-3.1091892144266327, 53.386570434000035], [-3.1094898583417634, 53.38656763966792], [-3.109503882540769, 53.38710685303124], [-3.1101051778149977, 53.38710126198703], [-3.1100911460211877, 53.38656204873294], [-3.110391789785454, 53.386559252130056], [-3.1103964682655407, 53.38673898986893], [-3.1112984030537487, 53.3867305954641], [-3.1112937207763087, 53.3865508577799], [-3.1115943643392328, 53.386548058149316], [-3.11158968084638, 53.386368320477615], [-3.1124916074355773, 53.38635991709912], [-3.112486920195829, 53.38618017947641], [-3.1157939665486474, 53.3861493090073], [-3.11578456437434, 53.38578983414674], [-3.1160852021173406, 53.38578702323563], [-3.1160804998403195, 53.385607285815055], [-3.116381136267045, 53.38560447416535], [-3.1163764327749037, 53.385424736757365], [-3.1166770678853584, 53.38542192436909], [-3.116667658521485, 53.38506244957251], [-3.1169682910500063, 53.385059636463986], [-3.116972996972307, 53.385239373846844], [-3.117874898051146, 53.38523092992501], [-3.1178701883318656, 53.38505119259716], [-3.1181708206578724, 53.385048376461135], [-3.118166109723599, 53.38486863914592], [-3.118767371692322, 53.384863004639925], [-3.1187626582774497, 53.38468326735567], [-3.119965176544002, 53.38467198933472], [-3.1199557397414655, 53.38431251489584], [-3.120256366650069, 53.384309693535194], [-3.120251647059328, 53.38412995632553], [-3.121153523683802, 53.38412148775762], [-3.1211440770612047, 53.38376201343137], [-3.1217453228279886, 53.38375636400879], [-3.12173587134643, 53.38339688973317], [-3.122036491622531, 53.383394063923426], [-3.1220317646924696, 53.383214326795404], [-3.1229336214191834, 53.383205844880436], [-3.122928890743461, 53.38302610780194], [-3.123229508285141, 53.38302327900173], [-3.1232200445553624, 53.38266380486432], [-3.1235206595152065, 53.382660975344166], [-3.1235159264611916, 53.38248123828528], [-3.12441776723892, 53.38247274523924], [-3.1244130304394817, 53.38229300822993], [-3.1250142548390905, 53.38228734245214], [-3.1250095155597424, 53.38210760547399], [-3.1256107372246476, 53.38210193670593], [-3.125605995465445, 53.381922199758954], [-3.1259066049560107, 53.38191936425823], [-3.125897119059801, 53.381559890383954], [-3.126197725968588, 53.381557054163366], [-3.126192981831622, 53.381377317236115], [-3.1264935874240263, 53.38137448027722], [-3.1264888420727246, 53.3811947433627], [-3.126789446348748, 53.381191905665524], [-3.1267799532685654, 53.3808324318562], [-3.1270805549628884, 53.380829593439245], [-3.127075807234048, 53.380649856544444], [-3.127376407612008, 53.38064701738921], [-3.1273621609359608, 53.38010780672586], [-3.1276627574670095, 53.38010496686936], [-3.12765800741187, 53.379925229988594], [-3.1279586026265873, 53.37992238939386], [-3.1279538513572867, 53.37974265252584], [-3.128254445255674, 53.37973981119289], [-3.1282449403399055, 53.379380337476654], [-3.1285455316567528, 53.37937749542398], [-3.128540778010326, 53.37919775857575], [-3.1288413680108618, 53.3791949157849], [-3.1288366131503667, 53.37901517894943], [-3.129137201834591, 53.37901233542038], [-3.1291276897366616, 53.37865286176927], [-3.1294282758394227, 53.37865001752056], [-3.129418761415788, 53.37829054388353], [-3.1297193449371283, 53.37828769891517], [-3.1297003116433135, 53.37756875164631], [-3.130000890053121, 53.377565905995425], [-3.129996130592519, 53.37738616918238], [-3.1302967076860937, 53.37738332279334], [-3.1302919470116244, 53.37720358599307], [-3.1305925227889655, 53.37720073886594], [-3.130587760900656, 53.37702100207848], [-3.1308883353617665, 53.377018154213225], [-3.1308788092087383, 53.37665868065818], [-3.131479952917274, 53.37665298273193], [-3.131465656481996, 53.37611377246761], [-3.131766224464494, 53.37611092242523], [-3.1317328590545146, 53.3748527650707], [-3.132033418131439, 53.37484991440162], [-3.1320095809090653, 53.37395123049747], [-3.132310133610625, 53.373948379164645], [-3.1322815230467786, 53.372869958401516], [-3.1325820681085976, 53.37286710642355], [-3.1325534518023557, 53.37178868556505], [-3.132252914328518, 53.3717915374316], [-3.1322290751396755, 53.37089285313204], [-3.1319285439375246, 53.370895704149255], [-3.1319190111498845, 53.370536230352116], [-3.1316184824255737, 53.370539080575725], [-3.1316089523719355, 53.370179606718466], [-3.1313084261254285, 53.37018245614852], [-3.1313036624399486, 53.370002719192726], [-3.1310031374067253, 53.37000556784778], [-3.130998375036942, 53.36982583086769], [-3.130397327345874, 53.3698315258713], [-3.1303878078177596, 53.36947205181973], [-3.1300872864243927, 53.36947489814982], [-3.1300682530399038, 53.36875594990364], [-3.1297677366530774, 53.36875879540315], [-3.129762979699234, 53.368579058308725], [-3.12946246452566, 53.36858190303331], [-3.1294577088873337, 53.36840216591461], [-3.1291571949270116, 53.36840500986425], [-3.1291524406041757, 53.3682252727213], [-3.1288519278571076, 53.36822811589602], [-3.1288471748497364, 53.36804837872881], [-3.1285466633159245, 53.36805122112862], [-3.1285419116239894, 53.36787148393715], [-3.1282414013034354, 53.36787432556207], [-3.128236650926909, 53.36769458834637], [-3.1279361418196134, 53.36769742919637], [-3.127921894789343, 53.36715821745932], [-3.127621389423896, 53.36716105749746], [-3.1276166417801847, 53.36698132022179], [-3.127316137627974, 53.366984159485064], [-3.127330376919356, 53.36752337135028], [-3.127029868923253, 53.36752620991265], [-3.127044104880886, 53.36806542178163], [-3.1267435930407794, 53.368068259643046], [-3.1267483371976623, 53.36824799693969], [-3.1264478240421947, 53.36825083406313], [-3.126438338308132, 53.36789135942714], [-3.1261378276303797, 53.36789419575726], [-3.1261330861041623, 53.36771445841217], [-3.1255320671244164, 53.36772012876631], [-3.1255368061219677, 53.3678998661483], [-3.1240342514596073, 53.36791402888892], [-3.1240295187837344, 53.36773429141469], [-3.123729008962909, 53.36773712167519], [-3.1237337403744445, 53.36791685916783], [-3.123132718051537, 53.36792251745647], [-3.123146905005142, 53.36846173001051], [-3.1228463899743235, 53.368464558075466], [-3.1228511177961438, 53.36864429560042], [-3.1222500850532477, 53.36864994949791], [-3.122240634517989, 53.368290474368635], [-3.121339092609023, 53.36829894943131], [-3.1213343712107022, 53.3681192118029], [-3.120432832638031, 53.36812768000272], [-3.1204281150835427, 53.36794794231342], [-3.120127603388895, 53.36795076351551], [-3.120132319679022, 53.36813050122319], [-3.1198318066693114, 53.36813332168723], [-3.1198365217457664, 53.36831305940752], [-3.11953600742099, 53.36831587913351], [-3.119540721283748, 53.36849561686644], [-3.119240205643905, 53.36849843585437], [-3.119244918292936, 53.3686781735999], [-3.1195454351971805, 53.36867535459363], [-3.1195878626986797, 53.37029299388006], [-3.1189868060790396, 53.370298631466575], [-3.1190150781859303, 53.37137705761961], [-3.119315614108528, 53.37137423909447], [-3.1193203275682775, 53.37155397674822], [-3.119019790381058, 53.3715567952917], [-3.1190292149233003, 53.37191627061867], [-3.118127595469864, 53.371924721820186], [-3.1181323040229896, 53.37210445953011], [-3.1175312216048963, 53.37211008991852], [-3.1175406338042784, 53.37246956539446], [-3.117240089989956, 53.37247237949056], [-3.1172447949008375, 53.37265211723824], [-3.1160426140790043, 53.37266336613053], [-3.1160473139815794, 53.37284310394572], [-3.115746767385035, 53.37284591429575], [-3.1157514660734056, 53.37302565212352], [-3.115450918161604, 53.373028461735295], [-3.1154556156357396, 53.37320819957563], [-3.114854517131128, 53.373213816566114], [-3.1148592121262353, 53.37339355443729], [-3.114558661533437, 53.37339636181599], [-3.1145774369594625, 53.374115313316416], [-3.1142768812569863, 53.37411812001166], [-3.1142815739748264, 53.374297857890724], [-3.1139810169570583, 53.374300663847656], [-3.113985708460503, 53.37448040173924], [-3.113084033310039, 53.37448881512533], [-3.1130887210693285, 53.374668553065966], [-3.11278816132015, 53.37467135603308], [-3.112792847864962, 53.374851093986244], [-3.1121917256856864, 53.37485669768717], [-3.1121964097510966, 53.375036435671085], [-3.1118958473210094, 53.375039236404874], [-3.1119005301718725, 53.37521897440129], [-3.111599966426524, 53.37522177439672], [-3.1116140114864046, 53.37576098840628], [-3.111914579026568, 53.37575818835613], [-3.1119192620788385, 53.37593792632963], [-3.112219830833615, 53.37593512550463], [-3.112224515201218, 53.37611486345414], [-3.1125250851706023, 53.376112061854286], [-3.112529770853566, 53.37629179977983], [-3.1122291996191884, 53.37629460139791], [-3.1122338840875288, 53.376474339335964], [-3.1119333115377765, 53.37647714021568], [-3.1119379947914676, 53.37665687816622], [-3.111036273045069, 53.37666527632017], [-3.111040952554013, 53.37684501431967], [-3.110439801941406, 53.37685060934215], [-3.1104491560500183, 53.37721008539685], [-3.1098480001760223, 53.37721567746553], [-3.109852674775608, 53.377395415520674], [-3.109251516170396, 53.37740100459911], [-3.1092561882900585, 53.37758074268494], [-3.108955607646996, 53.37758353610732], [-3.1089602785517876, 53.3777632742056], [-3.108359114584784, 53.37776885881672], [-3.108363783009556, 53.37794859694564], [-3.108063199685626, 53.37795138813435], [-3.1080678668954587, 53.3781311262757], [-3.1074666975667817, 53.37813670641942], [-3.1074620328872258, 53.377956968241726], [-3.1068608658881938, 53.37796254532235], [-3.1068655280374693, 53.37814228353635], [-3.1065649431976095, 53.37814507095978], [-3.106569604131861, 53.378324809186225], [-3.1056678455161615, 53.37833316697078], [-3.105663188377378, 53.37815342868992], [-3.1053626033371287, 53.37815621308657], [-3.105367259210755, 53.37833595138556], [-3.1047660864497613, 53.37834151794505], [-3.1047707398431066, 53.37852125627455], [-3.1032678007393417, 53.378535159521526], [-3.10326315367187, 53.378355421101475], [-3.102962566966332, 53.37835819946265], [-3.1029672127686267, 53.37853793790079], [-3.1026666247479544, 53.378540715523386], [-3.102671269335012, 53.37872045397386], [-3.102370679999206, 53.37872323085781], [-3.102375323371001, 53.37890296932065], [-3.1014735512684366, 53.37891129548644], [-3.1014781908945004, 53.379091033997774], [-3.0999752300664984, 53.37910489589665], [-3.099979863416267, 53.379284634492535], [-3.099679269835906, 53.379287404620186], [-3.099688534154395, 53.379646881830865], [-3.0993879379937033, 53.379649651237834], [-3.0993833070748216, 53.37946991261733], [-3.0990827121296007, 53.37947268124954], [-3.099087341783215, 53.37965241988809], [-3.0984861492129, 53.37965795491834], [-3.098495403608321, 53.38001743225031], [-3.09639121033151, 53.38003678127092], [-3.096395828746666, 53.380216520054326], [-3.096095228243046, 53.38021928119108], [-3.0961044626916756, 53.38057875877668], [-3.0958038596077313, 53.38058151919263], [-3.0957992436239343, 53.38040178038474], [-3.0951980398378383, 53.38040729891043], [-3.0952026532909445, 53.380587037754275], [-3.0940002400621545, 53.38059806579631], [-3.0940048485034284, 53.38077780470625], [-3.0934036390609156, 53.38078331422253], [-3.0933990331503685, 53.380603575276716], [-3.0927978260404663, 53.38060908173003], [-3.092802429420286, 53.38078882071171], [-3.0922012195816464, 53.38079432417379], [-3.0921920179329447, 53.38043484613302], [-3.0903884024144, 53.38045133814183], [-3.0903929956218845, 53.38063107727249], [-3.0897917875230383, 53.38063656859036], [-3.089796378249172, 53.380816307751054], [-3.0891951674221176, 53.38082179607757], [-3.089185991080679, 53.380462317679005], [-3.0888853881238707, 53.380465060671376], [-3.0888808012925058, 53.380285321445655], [-3.0873777920956194, 53.380299024966746], [-3.0873823726002394, 53.380478764281705], [-3.087682975803532, 53.38047602507319], [-3.0876921394912866, 53.38083550365029], [-3.087090927973959, 53.3808409813819], [-3.0871000867972027, 53.38120046000746], [-3.0867994784338673, 53.381203197773765], [-3.0867811660458986, 53.380484240428444], [-3.0858793558452047, 53.38049244897278], [-3.085874781667345, 53.38031270956867], [-3.0840711675303827, 53.38032910611771], [-3.0840757341161034, 53.38050884562857], [-3.0834745264800723, 53.38051430512632], [-3.0834699624250694, 53.38033456557991], [-3.0819669488031494, 53.380348200991904], [-3.081962391123966, 53.38016846135099], [-3.0816617895178466, 53.38017118614534], [-3.0816663459316804, 53.380350925804024], [-3.081365743011212, 53.38035364985934], [-3.081370298208678, 53.38053338953003], [-3.081069693973862, 53.38053611284631], [-3.081074247954933, 53.38071585252902], [-3.0807736424057675, 53.380718575106265], [-3.0807690896900763, 53.380538835405815], [-3.080468485357332, 53.380541557208545], [-3.0804775883069, 53.380901036639166], [-3.0807781951704163, 53.38089831480099], [-3.0807918537581185, 53.381437533850864], [-3.0801906323896113, 53.38144297687677], [-3.08018153167723, 53.38108349744501], [-3.0798809234504274, 53.38108621778733], [-3.0798854725167306, 53.381265957523794], [-3.079584862975585, 53.38126867712702], [-3.0795803151747063, 53.38108893737287], [-3.0786784900541733, 53.3810970915887], [-3.0786739460984305, 53.38091735177572], [-3.078072731637892, 53.380922784100264], [-3.0780681902618117, 53.380743044246195], [-3.0777675842236807, 53.3807457592556], [-3.077772124334361, 53.38092549912735], [-3.0774715169820084, 53.38092821339766], [-3.0774669781367288, 53.38074847350822], [-3.0771663720009688, 53.38075118700408], [-3.077157296987597, 53.38039170717271], [-3.0765560896312363, 53.3803971318234], [-3.0765606245827737, 53.38057687177726], [-3.0762600195660617, 53.38057958298508], [-3.0762645533009763, 53.38075932295089], [-3.07596394697012, 53.38076203341958], [-3.075968479488385, 53.38094177339732], [-3.0756678718433816, 53.380944483126875], [-3.0756769344952826, 53.3813039631005], [-3.0750757139974043, 53.38130938035979], [-3.0750711851779577, 53.38112964034056], [-3.0747705761213937, 53.38113234781737], [-3.074756993751475, 53.3805931276725], [-3.07445638844245, 53.38059583433964], [-3.074451862348562, 53.38041609426231], [-3.074151258256246, 53.380418800155034], [-3.0741693578622216, 53.38113776050062], [-3.0735681394084073, 53.38114317015666], [-3.0735636169647726, 53.38096343004362], [-3.073263008930335, 53.380966133718836], [-3.0732584878007425, 53.38078639358246], [-3.0735590945697693, 53.38078368992485], [-3.0735410054760615, 53.38006472939263], [-3.073240403768542, 53.38006743297982], [-3.0732494456874098, 53.38042691329257], [-3.0729488414005464, 53.380429616158196], [-3.072944321682176, 53.38024987598708], [-3.0726437186120825, 53.38025257807833], [-3.0726527555666694, 53.380612058450026], [-3.072352149917231, 53.380614759819686], [-3.0723657019172994, 53.38115398038718], [-3.072065092423042, 53.381156681052815], [-3.072069608588113, 53.381336421248136], [-3.0717689977798504, 53.381339121174555], [-3.0717780277247675, 53.38169860158324], [-3.071477414337027, 53.38170130078801], [-3.0714909558220618, 53.38224052141091], [-3.072092190141965, 53.38223512213907], [-3.0720967065984395, 53.38241486230012], [-3.0729985615105586, 53.38240675766337], [-3.073003081812209, 53.38258649776593], [-3.074205559409891, 53.3825756809175], [-3.0742010340461103, 53.38239594088538], [-3.0735997978756098, 53.38240135078805], [-3.073595275091531, 53.382221610714986], [-3.074196508730994, 53.38221620084756], [-3.074191983464543, 53.38203646080403], [-3.074492598945781, 53.38203375475268], [-3.0744971254777367, 53.3822134947786], [-3.074797742175801, 53.382210787952815], [-3.074802270021952, 53.3823905279554], [-3.0754035058030245, 53.382385111998076], [-3.0754080362289256, 53.38256485195968], [-3.0757086553119177, 53.38256214282812], [-3.0757131870520804, 53.38274188276637], [-3.076615047805226, 53.38273375077775], [-3.076610512268442, 53.382554010892484], [-3.0763098933316897, 53.382556722294524], [-3.076305359109207, 53.38237698238587], [-3.076004741389222, 53.38237969301343], [-3.0760002084810116, 53.38219995308144], [-3.075398975425843, 53.382205372030775], [-3.0753899148176367, 53.38184589207903], [-3.075690528838598, 53.38184318301804], [-3.0756950603838296, 53.38202292297915], [-3.076897521042177, 53.382012079096455], [-3.076888447876611, 53.3816525993098], [-3.0771890603883145, 53.38164988648242], [-3.077193598212174, 53.38182962636093], [-3.0780954392508435, 53.38182148328488], [-3.078099980919951, 53.38200122310466], [-3.0784005957673273, 53.38199850721467], [-3.0784051387507687, 53.38217824701104], [-3.078705754814785, 53.38217553034654], [-3.078710299112589, 53.3823552701195], [-3.079010916393245, 53.38235255268047], [-3.079015462005437, 53.38253229243003], [-3.0793160805027306, 53.382529574216484], [-3.079320627429341, 53.38270931394261], [-3.079921866808288, 53.3827038752096], [-3.0799173173506142, 53.38252413551887], [-3.0802179357011763, 53.382521415034816], [-3.080199733297725, 53.38180245628565], [-3.0808009597280543, 53.38179701318883], [-3.080810065893837, 53.38215649250395], [-3.0811106815665297, 53.38215376978488], [-3.0811152359883676, 53.382333509416135], [-3.0814158528775835, 53.3823307859225], [-3.0814204086139148, 53.3825105255303], [-3.081721026719653, 53.38250780126211], [-3.081725583770504, 53.38268754084643], [-3.0820262030927648, 53.38268481580365], [-3.0820307614581615, 53.38286455536452], [-3.0823313819969416, 53.38286182954716], [-3.082322262784101, 53.38250235045519], [-3.0820216447763866, 53.38250507623707], [-3.0820170865090293, 53.38232533666474], [-3.0817164697178074, 53.38232806167203], [-3.0817073558611328, 53.38196858247476], [-3.0820079701213667, 53.381965857502955], [-3.082003412001061, 53.38178611791349], [-3.082304024946807, 53.38178339220264], [-3.0822949063223417, 53.38142391304205], [-3.0831967372726425, 53.381415731475165], [-3.083192174237665, 53.381235991939576], [-3.0828915652353777, 53.381238719867575], [-3.082887003514883, 53.381058980308495], [-3.0837888265782807, 53.38105079430745], [-3.0837933920950187, 53.3812305338132], [-3.0834927831908816, 53.38123326325479], [-3.083501911840779, 53.38159274228471], [-3.084103134661691, 53.38158728257365], [-3.0841122685697653, 53.38194676150957], [-3.0844128824374817, 53.381944030483254], [-3.0844174507306685, 53.382123769924874], [-3.08471806581474, 53.38212103812395], [-3.0847272050794925, 53.38248051695443], [-3.084125969800221, 53.38248597987057], [-3.0841305369752687, 53.38266571931283], [-3.084431155904988, 53.38266298821537], [-3.084435724394685, 53.38284272763411], [-3.084736344540812, 53.38283999576202], [-3.084740914345184, 53.38301973515723], [-3.0868452628501184, 53.38300059073662], [-3.0868498415625463, 53.383180330001444], [-3.087150463846245, 53.383177592039026], [-3.0871550438734814, 53.38335733128029], [-3.0874556673734967, 53.383354592543185], [-3.087460248715569, 53.3835343317609], [-3.0880614980989454, 53.38352885198046], [-3.0880569142257093, 53.38334911279843], [-3.0877562908242444, 53.38335185304923], [-3.0877517082658703, 53.38317211384363], [-3.0874510860806916, 53.383174853319744], [-3.087441923642882, 53.38281537485571], [-3.085938824633751, 53.382829060705355], [-3.08593424981639, 53.38264932137563], [-3.0856336311324486, 53.38265205625725], [-3.085629057629802, 53.38247231690398], [-3.0853284401621965, 53.38247505101095], [-3.085319295835448, 53.382115572251685], [-3.08501868084967, 53.382118305566216], [-3.0850095392505335, 53.38175882674847], [-3.0853101517053676, 53.381756093469505], [-3.085314723745824, 53.38193583286345], [-3.0856153374169564, 53.381933098809895], [-3.0856061908542936, 53.3815736200519], [-3.0862074129871795, 53.38156814974561], [-3.0862165646116666, 53.38192762843235], [-3.0868177916095463, 53.381922155027546], [-3.0868132132417765, 53.38174241572268], [-3.0874144375117987, 53.38173693932631], [-3.0874052758622006, 53.381377460770736], [-3.08770588539245, 53.38137472147304], [-3.0877196317370728, 53.38191393924427], [-3.088020245014384, 53.38191119913622], [-3.0880248284932796, 53.382090938364016], [-3.088626057430959, 53.38208545584179], [-3.0886306434901147, 53.38226519502817], [-3.0892318747614937, 53.382259709442984], [-3.0892272861713717, 53.38207997029233], [-3.089527900467568, 53.382077226382364], [-3.0895370802281343, 53.3824367046422], [-3.0898376970059496, 53.38243395993969], [-3.0898422882257806, 53.38261369904315], [-3.090443524164294, 53.382608207331884], [-3.0904481179645393, 53.382787946393854], [-3.091049356236489, 53.3827824516195], [-3.091053952617202, 53.38296219063996], [-3.0916551932225014, 53.38295669280249], [-3.091659792183734, 53.383136431781416], [-3.0928622778629187, 53.38312542695274], [-3.0928576738395117, 53.382945688045446], [-3.093158293870021, 53.38294293496412], [-3.0931628991589695, 53.38312267385346], [-3.0952672468438567, 53.38310338096713], [-3.095271861041196, 53.38328311972511], [-3.096774971369798, 53.38326931629698], [-3.096779591944565, 53.383449054959335], [-3.0970802151268333, 53.38344629198521], [-3.0970755932865055, 53.38326655334083], [-3.09737621515351, 53.38326378962786], [-3.097380838259395, 53.38344352825422], [-3.0979820843753574, 53.383437998521714], [-3.097977458738356, 53.38325825993134], [-3.097676836970799, 53.383261025158006], [-3.097672212649086, 53.383081286543934], [-3.098574074005886, 53.383072988647434], [-3.0985787021242275, 53.383252727207484], [-3.098879323742515, 53.3832499597103], [-3.0988978417758983, 53.38396891382117], [-3.099799721518886, 53.383960606572195], [-3.099804354948521, 53.38414034503149], [-3.099503727151729, 53.3841431148894], [-3.0995083593655743, 53.384322853361006], [-3.099808988427987, 53.384320083485086], [-3.099818255536407, 53.384679560375055], [-3.1001188870802734, 53.38467678970616], [-3.1001281569193524, 53.385036266537156], [-3.1004287909447075, 53.38503349507528], [-3.100442699874277, 53.38557271022466], [-3.1001420620518205, 53.385575481740666], [-3.10016060292632, 53.38629443526518], [-3.0998599599910164, 53.386297206096465], [-3.099864594068485, 53.38647694448132], [-3.100465882420807, 53.38647140202574], [-3.100470519079706, 53.38665114036877], [-3.0995685826790664, 53.38665945297089], [-3.0995732155904, 53.38683919136235], [-3.09927256875804, 53.38684196073389], [-3.099291095838257, 53.38756091431455], [-3.0995917477340016, 53.38755814487086], [-3.0995963808944724, 53.387737883233655], [-3.0998970340062693, 53.38773511301498], [-3.0999016684824614, 53.38791485135402], [-3.100202322810306, 53.38791208036033], [-3.1002069586022496, 53.38809181867561], [-3.100507614146141, 53.388089046906885]], [[-3.1154698274955717, 53.385253431912226], [-3.1151691934485455, 53.385256241254645], [-3.1151644951202244, 53.38507650376199], [-3.115465127901584, 53.38507369443784], [-3.1154698274955717, 53.385253431912226]], [[-3.1067514196673147, 53.385334595547484], [-3.1064507841605127, 53.38533738294021], [-3.106446122536785, 53.38515764491909], [-3.1067467567779024, 53.385154857544514], [-3.1067514196673147, 53.385334595547484]], [[-3.113360697371471, 53.385093343812386], [-3.113060064236708, 53.38509614783836], [-3.113055374818492, 53.38491641021203], [-3.113356006687599, 53.3849136062043], [-3.113360697371471, 53.385093343812386]], [[-3.115159796842429, 53.38489676626357], [-3.114859165276193, 53.38489957481254], [-3.1148544683145634, 53.38471983729012], [-3.1151550986151597, 53.38471702875943], [-3.115159796842429, 53.38489676626357]], [[-3.1061268473145587, 53.38444147932248], [-3.1055255887069446, 53.38444705014208], [-3.105516273604606, 53.38408757392799], [-3.1052156467568865, 53.38409035816622], [-3.1052203030174055, 53.38427009629425], [-3.104619046640542, 53.3842756625364], [-3.104614392911241, 53.384095924372104], [-3.104013138865408, 53.384101487550566], [-3.104017790063491, 53.384281225751096], [-3.1031159048227974, 53.38428956489665], [-3.103120552274025, 53.38446930314575], [-3.1028199224948567, 53.38447208136531], [-3.1028013380522474, 53.38375312826215], [-3.1025007132855422, 53.383755905652485], [-3.102496068565372, 53.383576167344295], [-3.101894821413272, 53.38358171981824], [-3.1018901792741724, 53.383401981468154], [-3.1015895568887935, 53.38340475655178], [-3.101584916065164, 53.38322501817792], [-3.101284294895427, 53.38322779248664], [-3.101279655387238, 53.383048054088974], [-3.100979035433143, 53.38305082762279], [-3.1009743972403694, 53.382871089201316], [-3.10247749018418, 53.38285721405424], [-3.1024821347045557, 53.38303695238534], [-3.1027827544090516, 53.383034175067344], [-3.102787400244909, 53.38321391337465], [-3.103088021164976, 53.38321113528175], [-3.103092668316337, 53.38339087356521], [-3.1027920461307263, 53.383393651676215], [-3.102796692066504, 53.38357338997203], [-3.103097315517675, 53.38357061184296], [-3.10310196276899, 53.38375035011498], [-3.1034025874357547, 53.38374757121094], [-3.103407236002632, 53.38392730945913], [-3.1040084877173446, 53.38392174934432], [-3.104003836619302, 53.38374201113234], [-3.104304461136055, 53.383739229957754], [-3.104290504345361, 53.38320001534178], [-3.104591125015416, 53.38319723346472], [-3.1045957784944918, 53.38337697165765], [-3.105197022215545, 53.38337140559675], [-3.1052016782757716, 53.38355114374771], [-3.1055023013267515, 53.38354835956387], [-3.105506958702617, 53.383728097690984], [-3.105206334386071, 53.383730881892944], [-3.105210990546442, 53.38391062003243], [-3.1058122416606073, 53.38390505083539], [-3.105816900402238, 53.38408478893288], [-3.1061175271497685, 53.384082003180936], [-3.1061268473145587, 53.38444147932248]], [[-3.108517869192822, 53.383879951984504], [-3.1082172441121743, 53.38388274377312], [-3.108212575296034, 53.38370300581516], [-3.108513199111111, 53.38370021404473], [-3.108517869192822, 53.383879951984504]], [[-3.1106128855192847, 53.38350091264199], [-3.110312263321601, 53.38350370969211], [-3.110307585747075, 53.383323971850054], [-3.110608206679218, 53.38332117481813], [-3.1106128855192847, 53.38350091264199]], [[-3.1079072839303814, 53.38352605884687], [-3.107306038580366, 53.38353163856716], [-3.1072967087923673, 53.38317216251356], [-3.1075973289613854, 53.383169373068164], [-3.1076019950958345, 53.38334911107966], [-3.1079026164802057, 53.38334632085927], [-3.1079072839303814, 53.38352605884687]], [[-3.110307585747075, 53.383323971850054], [-3.1100069647646302, 53.383326768125116], [-3.110002288505935, 53.38314703025913], [-3.1103029082228515, 53.38314423400226], [-3.110307585747075, 53.383323971850054]], [[-3.107000752176567, 53.38335468924996], [-3.106700130641699, 53.383357477199844], [-3.1066908060161467, 53.38299800106215], [-3.106390186962198, 53.383000788218894], [-3.106385525990137, 53.3828210501233], [-3.1060849081515745, 53.38282383650508], [-3.106080248495134, 53.38264409838562], [-3.1063808650682003, 53.38264131202199], [-3.106366882603118, 53.38210209768362], [-3.1066674953296567, 53.38209931061761], [-3.106676819453846, 53.38245878681261], [-3.1069774346611734, 53.38245599895351], [-3.107000752176567, 53.38335468924996]], [[-3.1130084834099154, 53.383119033633285], [-3.1124072448320734, 53.38312463901306], [-3.112393185985762, 53.38258542581813], [-3.112693801503403, 53.38258262356139], [-3.1126984890005938, 53.382762361280534], [-3.1129991057333073, 53.38275955824872], [-3.1130084834099154, 53.383119033633285]], [[-3.1084991891673055, 53.38316100019099], [-3.108198569148867, 53.38316379190689], [-3.108189231968454, 53.382804315939374], [-3.1078886144308333, 53.38280710686207], [-3.1078839471814255, 53.382627368851566], [-3.108485179675479, 53.38262178628568], [-3.108475840265349, 53.38226231032014], [-3.1087764539061182, 53.38225951793836], [-3.108781124851537, 53.382439255905815], [-3.1090817397075377, 53.38243646274901], [-3.109091084280034, 53.382795938630345], [-3.1084898494558697, 53.38280152425986], [-3.1084991891673055, 53.38316100019099]], [[-3.1115007040514, 53.382953303625904], [-3.1108994675008206, 53.382958901400976], [-3.1108854277879394, 53.38241968791531], [-3.1111860422919473, 53.38241688946086], [-3.1111954045811614, 53.382776365087246], [-3.1114960215657836, 53.382773565839535], [-3.1115007040514, 53.382953303625904]], [[-3.105788948703943, 53.38300636026192], [-3.1054883294996634, 53.38300914514819], [-3.105483672324134, 53.38282940699818], [-3.105784290262902, 53.38282662213004], [-3.105788948703943, 53.38300636026192]], [[-3.113290342409736, 53.382397279089155], [-3.11298972825839, 53.38240008284125], [-3.1129850395965617, 53.3822203451289], [-3.1132856524824564, 53.382217541395065], [-3.113290342409736, 53.382397279089155]], [[-3.1108854277879394, 53.38241968791531], [-3.110584813233607, 53.382422485612956], [-3.1105801346954256, 53.382242747754724], [-3.1108807479842984, 53.38223995007531], [-3.1108854277879394, 53.38241968791531]], [[-3.101265737162025, 53.38250883886157], [-3.1009651210044558, 53.38251161234121], [-3.1009604829613138, 53.382331873902565], [-3.101261097853402, 53.38232910044098], [-3.101265737162025, 53.38250883886157]], [[-3.1150893287382426, 53.38220070309925], [-3.114488103521564, 53.38220631889174], [-3.1144787136948637, 53.38184684363253], [-3.114779323797598, 53.38184403615126], [-3.114774627694571, 53.38166429853134], [-3.1150752364813976, 53.38166149031157], [-3.1150893287382426, 53.38220070309925]], [[-3.108475840265349, 53.38226231032014], [-3.108175226574366, 53.382265101945144], [-3.108170558210077, 53.3820853639356], [-3.108471170635609, 53.382082572328784], [-3.108475840265349, 53.38226231032014]], [[-3.092843862066355, 53.382406471289286], [-3.0922426294499097, 53.382411975073936], [-3.0922380281555193, 53.38223223610791], [-3.0916367978721255, 53.38223773682946], [-3.091641396635538, 53.382417475831296], [-3.0913407801541632, 53.382420225074746], [-3.0913361826562418, 53.38224048605502], [-3.091035567390917, 53.382243234523735], [-3.0910309712079154, 53.38206349548038], [-3.090730357158643, 53.38206624317441], [-3.0907349520761676, 53.38224598223565], [-3.0901337212984417, 53.38225147538903], [-3.090119944286899, 53.38171225808079], [-3.0907211674718287, 53.38170676503473], [-3.0907165727025387, 53.381527025956316], [-3.0910171829554574, 53.381524278315965], [-3.0910217789901844, 53.3817040173765], [-3.09162300187861, 53.38169851978961], [-3.0916276004936627, 53.38187825880862], [-3.0922288257151798, 53.38187275815873], [-3.09223342691061, 53.382052497136186], [-3.0925340407126165, 53.38204974565811], [-3.092538643223001, 53.38222948461193], [-3.0928392582409887, 53.382226732359115], [-3.092843862066355, 53.382406471289286]], [[-3.109072395336017, 53.38207698684477], [-3.1087717830109276, 53.38207977996518], [-3.108762441371235, 53.38172030400162], [-3.109063051165467, 53.38171751091761], [-3.109072395336017, 53.38207698684477]], [[-3.0997533899629492, 53.38216322166418], [-3.098550934160715, 53.38217429576123], [-3.0985463063409844, 53.38199455716685], [-3.098245693531436, 53.38199732378106], [-3.098250320085708, 53.38217706239349], [-3.0979497059609455, 53.38217982826891], [-3.0979450806721367, 53.382000089638474], [-3.0973438548043335, 53.3820056190829], [-3.09733923209616, 53.381825880410716], [-3.097940455433065, 53.381820351002304], [-3.0979358302437308, 53.381640612360414], [-3.09823644057215, 53.381637846539], [-3.098231814167134, 53.3814581079094], [-3.0985324231803815, 53.381455341349216], [-3.098518540467652, 53.380916125480084], [-3.099720960838182, 53.38090505188783], [-3.099725593420839, 53.38108479044448], [-3.100026199654342, 53.38108202013645], [-3.100012298259734, 53.38054280450339], [-3.1006135029850714, 53.38053726172529], [-3.1006088667558585, 53.380357523205575], [-3.1012100687511106, 53.380351977436504], [-3.101214707510988, 53.38053171592009], [-3.1018159118373734, 53.38052616708788], [-3.1018112705468366, 53.380346428640394], [-3.102111871369843, 53.380343653107225], [-3.102121156531499, 53.380703129960246], [-3.1027223630890717, 53.380697576551285], [-3.1027270082754956, 53.380877314933045], [-3.1030276127447167, 53.38087453707533], [-3.103036905798175, 53.38123401378548], [-3.103337512748178, 53.381231235134806], [-3.1033421606152505, 53.381410973463176], [-3.102139727453906, 53.38142208359758], [-3.102144370309323, 53.3816018219926], [-3.1012425411178013, 53.38161014670136], [-3.1012518193858254, 53.38196962358262], [-3.100951207024658, 53.38197239700808], [-3.1009465691311426, 53.38179265855225], [-3.1003453467900823, 53.38179820309663], [-3.100340711477297, 53.38161846459898], [-3.1000401014974193, 53.38162123571794], [-3.100035467499895, 53.38144149719649], [-3.0997348587356, 53.38144426754061], [-3.0997302260533113, 53.381264528995416], [-3.0994296185046024, 53.38126729856472], [-3.0994388813881812, 53.38162677568546], [-3.0997394914677097, 53.38162400608009], [-3.0997441242496366, 53.38180374461386], [-3.100044735544777, 53.381800974233656], [-3.1000493696419666, 53.38198071274365], [-3.0997487570813824, 53.38198348314188], [-3.0997533899629492, 53.38216322166418]], [[-3.112069146342285, 53.38168953845392], [-3.111768537051076, 53.38169233910584], [-3.111749803759038, 53.38097338783842], [-3.112050407988725, 53.380970587259455], [-3.112069146342285, 53.38168953845392]], [[-3.0964373967180068, 53.38183416884735], [-3.096136784825932, 53.381836930145944], [-3.096132167229217, 53.38165719139608], [-3.0964327778558545, 53.38165443011547], [-3.0964373967180068, 53.38183416884735]], [[-3.089222697630594, 53.381900231135944], [-3.08862147142112, 53.38190571664969], [-3.0886122995493928, 53.38154623824836], [-3.088912910147896, 53.381543495905596], [-3.0889174973245437, 53.38172323509127], [-3.0892181091391606, 53.381720491973844], [-3.089222697630594, 53.381900231135944]], [[-3.114769931642042, 53.38148456090568], [-3.1144693240701105, 53.381487368350385], [-3.114464629333462, 53.381307630700725], [-3.114765235640013, 53.38130482327429], [-3.114769931642042, 53.38148456090568]], [[-3.0753899148176367, 53.38184589207903], [-3.075089300747958, 53.381848600383194], [-3.0750802428655533, 53.3814891203733], [-3.0753808544042953, 53.38148641210442], [-3.0753899148176367, 53.38184589207903]], [[-3.0738868439823426, 53.38185942603165], [-3.0735862296692824, 53.38186213055173], [-3.0735817070311127, 53.38168239046153], [-3.0738823200786953, 53.381679685959064], [-3.0738868439823426, 53.38185942603165]], [[-3.0868086349232398, 53.381562676412095], [-3.0865080239798197, 53.38156541345725], [-3.0865034469759514, 53.38138567412312], [-3.086804056653938, 53.381382937095786], [-3.0868086349232398, 53.381562676412095]], [[-3.0774896728512173, 53.38164717289821], [-3.0771890603883145, 53.38164988648242], [-3.0771845226132517, 53.38147014659818], [-3.077485133810699, 53.38146743303166], [-3.0774896728512173, 53.38164717289821]], [[-3.0723792543545727, 53.38169320090326], [-3.072078641063953, 53.38169590162166], [-3.072069608588113, 53.381336421248136], [-3.072370219347811, 53.38133372056492], [-3.0723792543545727, 53.38169320090326]], [[-3.1144599346472974, 53.38112789304531], [-3.1141593295556294, 53.38113069969668], [-3.1141499428654473, 53.3807712243321], [-3.1138493402540055, 53.38077403019016], [-3.1138399562963386, 53.38041455476611], [-3.113539356165085, 53.38041735983087], [-3.113525284402848, 53.37987814659699], [-3.1129240915807666, 53.3798837543467], [-3.1129475321170035, 53.38078244322376], [-3.1132481348797687, 53.38077963963598], [-3.1132528244036, 53.38095937737593], [-3.1129522203754907, 53.38096218098197], [-3.112956908684392, 53.381141918734436], [-3.11265630334051, 53.38114472160197], [-3.11264224236108, 53.38060550827257], [-3.112041039114194, 53.380611111627815], [-3.112036354752488, 53.38043137380338], [-3.1117357543187985, 53.38043417432764], [-3.1117451205619315, 53.38079365000723], [-3.1111439144821826, 53.380799248858374], [-3.111120511905103, 53.37990055943413], [-3.1105193182771047, 53.379906155076036], [-3.1105380301156953, 53.38062510677267], [-3.1099368261640685, 53.38063069953329], [-3.109941501718802, 53.38081043747954], [-3.109640898402228, 53.3808132327429], [-3.1096315498737, 53.38045375680829], [-3.109330949037524, 53.380456551278506], [-3.1093262761139657, 53.3802768132844], [-3.109025676492852, 53.38027960697966], [-3.109044363427253, 53.38099855899446], [-3.1087437586945725, 53.38100135200576], [-3.1087344176575917, 53.380641875973424], [-3.1084338154053817, 53.380644668191565], [-3.1084291462275524, 53.38046493014863], [-3.1081285451904597, 53.38046772159182], [-3.1081238773281554, 53.380287983524966], [-3.1078232775061827, 53.380290774193234], [-3.1078279441031724, 53.380470512278265], [-3.1075273429657035, 53.38047330220795], [-3.1075320083475453, 53.38065304030541], [-3.1066302008381927, 53.3806614056084], [-3.106625539252341, 53.380481667456465], [-3.1063249379142834, 53.38048445435911], [-3.1063295982348, 53.38066419252921], [-3.106028995581295, 53.38066697869325], [-3.106038313841965, 53.38102645505251], [-3.105737708607651, 53.38102924049609], [-3.1057330507176264, 53.38084950230118], [-3.1054324466985825, 53.38085228696981], [-3.105418477125033, 53.38031307229631], [-3.105719077348072, 53.38031028768206], [-3.105714419658394, 53.380130549464226], [-3.1063156174235873, 53.38012497800175], [-3.106320277643878, 53.38030471618329], [-3.1075226776340297, 53.38029356410477], [-3.107513347121182, 53.379934087881175], [-3.108114541754128, 53.37992850737407], [-3.1081098740424045, 53.379748769290025], [-3.1090116618195243, 53.37974039290836], [-3.1090069903622157, 53.37956065487313], [-3.1093075849222154, 53.379557861250625], [-3.1093029122498965, 53.37937812322787], [-3.1096035054944067, 53.37937532886683], [-3.1095988316071006, 53.37919559085651], [-3.1105006072433428, 53.379187203287685], [-3.110495929610651, 53.379007465326275], [-3.1110971105862477, 53.37900186986656], [-3.1110924304734557, 53.37882213193585], [-3.111393019620575, 53.378819333089154], [-3.111388338292923, 53.37863959517093], [-3.1116889261245206, 53.378636795585756], [-3.1116842435820353, 53.37845705768004], [-3.1122854165638225, 53.37845145627604], [-3.1122807315413774, 53.378271718401066], [-3.1128819017913467, 53.37826611400677], [-3.112877214288996, 53.37808637616255], [-3.11377896549047, 53.37807796395072], [-3.113774274243147, 53.37789822615554], [-3.114074856610978, 53.37789542058983], [-3.11407016414899, 53.37771568280721], [-3.1143707452012546, 53.377712876503075], [-3.1143660515246254, 53.377533138732986], [-3.1149672109475426, 53.377527523891274], [-3.11496251479122, 53.377347786152], [-3.1155636714819916, 53.37734216832019], [-3.115558972846035, 53.37716243061177], [-3.1158595498505774, 53.377159620579164], [-3.11585485000009, 53.3769798828833], [-3.1161554256890476, 53.37697707211234], [-3.116150724624058, 53.37679733442905], [-3.1170524475924783, 53.37678889763118], [-3.1170477427829715, 53.3766091599971], [-3.117348315739598, 53.37660634623616], [-3.1173436097156704, 53.37642660861466], [-3.1176441813566913, 53.376423794115404], [-3.1176394741183717, 53.3762440565065], [-3.117940044443785, 53.37624124126896], [-3.1179353359911026, 53.37606150367263], [-3.11823590500091, 53.37605868769678], [-3.1182311953338897, 53.37587895011309], [-3.118832330671649, 53.37587331592818], [-3.118827618525368, 53.375693578375426], [-3.119428751130565, 53.375687941200745], [-3.1194193219302906, 53.37532846615143], [-3.119719885627005, 53.37532564646589], [-3.1197151698379986, 53.37514590895098], [-3.120015732219102, 53.37514308852718], [-3.1200110152159097, 53.374963351024924], [-3.1209126982601867, 53.37495488526908], [-3.1209079775130824, 53.3747751478162], [-3.1212085371614675, 53.374772324402784], [-3.1212227033497246, 53.37531153668905], [-3.1218238300834984, 53.37530588748207], [-3.1218285547776246, 53.37548562486257], [-3.1221291193332306, 53.375482799105754], [-3.1221338453430856, 53.37566253646212], [-3.1224344111128044, 53.375659709930304], [-3.1224438658148546, 53.37601918458899], [-3.122744434063637, 53.376016357263744], [-3.122749162755874, 53.37619609456606], [-3.1224485932421246, 53.37619892190973], [-3.1224533207202265, 53.376378659224734], [-3.122753891498954, 53.37637583186267], [-3.1227822650252217, 53.377454255521634], [-3.1230828433432674, 53.37745142729243], [-3.1230970345881275, 53.3779906389892], [-3.123397616650572, 53.37798780994808], [-3.123407080265048, 53.37834728434705], [-3.1231064956723604, 53.378350113425014], [-3.1231112262907774, 53.37852985063432], [-3.1228106403820806, 53.378532678974025], [-3.1228200992411934, 53.37889215341227], [-3.1219183336190444, 53.37890063400167], [-3.1219230593293292, 53.37908037126739], [-3.1216224694217787, 53.37908319663553], [-3.1216271939176785, 53.379262933913914], [-3.121026011419785, 53.379268582416834], [-3.1210165675395625, 53.37890910778075], [-3.1207159787448364, 53.37891193086038], [-3.120706537598046, 53.37855245616457], [-3.1204059512828963, 53.37855527845073], [-3.1204106705657497, 53.37873501581987], [-3.120110082934692, 53.37873783736771], [-3.1201195191222704, 53.37909731212553], [-3.119818928910113, 53.379100132953425], [-3.1198236458147983, 53.379279870342096], [-3.1195230542867156, 53.37928269043164], [-3.1195277699769033, 53.379462427832934], [-3.1189265842381886, 53.37946806577856], [-3.1189360107097293, 53.37982754063738], [-3.118635415233862, 53.37983035851181], [-3.118630703237998, 53.37965062106693], [-3.1183301089767084, 53.37965343816627], [-3.1183206876674423, 53.37929396322257], [-3.1174189121710816, 53.379302409870256], [-3.1174330328238344, 53.379841622442214], [-3.1171324370947566, 53.37984443653299], [-3.117137142814971, 53.380024174063834], [-3.1174377398093123, 53.380021359954725], [-3.117442446845408, 53.3802010974615], [-3.1171418485857862, 53.38020391158892], [-3.117146554407204, 53.38038364910829], [-3.1165453552055813, 53.380389275129545], [-3.1165359486744952, 53.380029800011805], [-3.1168365457700267, 53.38002698741619], [-3.116817728253758, 53.37930803718514], [-3.116216544134093, 53.379313661473134], [-3.1162212459068277, 53.37949339907612], [-3.1156200590544754, 53.37949902037384], [-3.115629457690629, 53.379858495635844], [-3.1153288616581505, 53.37986130518622], [-3.1153382579658846, 53.38022078046185], [-3.1150376593523323, 53.380223589292065], [-3.1150423563166814, 53.38040332693957], [-3.114741756387324, 53.38040613503133], [-3.11474645213687, 53.3805858726914], [-3.1144458508917063, 53.38058868004469], [-3.1144599346472974, 53.38112789304531]], [[-3.1135581192208965, 53.381136310729104], [-3.113257513977859, 53.38113911511017], [-3.1132528244036, 53.38095937737593], [-3.1135534283812816, 53.38095657301315], [-3.1135581192208965, 53.381136310729104]], [[-3.0982271878118666, 53.38127836927407], [-3.097625972166949, 53.381283900088036], [-3.0976213483922193, 53.38110416141096], [-3.0982225615063497, 53.381098630633], [-3.0982271878118666, 53.38127836927407]], [[-3.116860068803602, 53.38092567507595], [-3.1165594653815325, 53.38092848776314], [-3.1165547619389713, 53.38074875022434], [-3.1168553640957057, 53.38074593755545], [-3.116860068803602, 53.38092567507595]], [[-3.1051364979887692, 53.38103480911288], [-3.104835892604229, 53.381037592286106], [-3.1048312385102905, 53.380857854036805], [-3.104230030121808, 53.38086341807671], [-3.104225378608618, 53.38068367978546], [-3.1051271873202264, 53.3806753326448], [-3.1051364979887692, 53.38103480911288]], [[-3.0955171009272515, 53.381123495295164], [-3.0952164939479285, 53.38112625425148], [-3.095211880345989, 53.38094651542482], [-3.0955124860599263, 53.38094375648643], [-3.0955171009272515, 53.381123495295164]], [[-3.0864988700213014, 53.38120593478327], [-3.0861982615595176, 53.381208671035985], [-3.086193685919494, 53.381028931672596], [-3.0864942931158703, 53.38102619543769], [-3.0864988700213014, 53.38120593478327]], [[-3.1183583741202434, 53.380731862859676], [-3.1180577722166003, 53.38073467931234], [-3.118053062498018, 53.38055494185945], [-3.118353663136345, 53.38055212542513], [-3.1183583741202434, 53.380731862859676]], [[-3.110843311366803, 53.380802047148805], [-3.110542708201103, 53.38080484468249], [-3.1105380301156953, 53.38062510677267], [-3.1108386320160597, 53.38062230925722], [-3.110843311366803, 53.380802047148805]], [[-3.082887003514883, 53.381058980308495], [-3.0819851800099984, 53.38106715949844], [-3.0819806221347674, 53.380887419880395], [-3.0828824418434433, 53.3808792407437], [-3.082887003514883, 53.381058980308495]], [[-3.086489716259657, 53.38084645608641], [-3.0861891103286734, 53.380849192303494], [-3.086184534787056, 53.380669452928664], [-3.086485139452659, 53.380666716729394], [-3.086489716259657, 53.38084645608641]], [[-3.0843854737099843, 53.38086559371354], [-3.084084867434866, 53.380868324633134], [-3.0840803007509314, 53.38068858513372], [-3.0843809057606646, 53.38068585423189], [-3.0843854737099843, 53.38086559371354]], [[-3.1015060296986103, 53.380169464945595], [-3.1012054300411163, 53.380172238947196], [-3.101200791381004, 53.37999250045215], [-3.101501389773192, 53.379989726468594], [-3.1015060296986103, 53.380169464945595]], [[-3.100585686357603, 53.37945883052115], [-3.1002850916116502, 53.37946160218028], [-3.100280456946806, 53.379281863608185], [-3.1005810504275066, 53.37927909196708], [-3.100585686357603, 53.37945883052115]], [[-3.1137273645441925, 53.37610084788849], [-3.113126224958216, 53.376106456384655], [-3.113116848683555, 53.3757469805894], [-3.1125157139558226, 53.37575258598601], [-3.1125016575115, 53.375213372140614], [-3.113102784649618, 53.37520776685348], [-3.113107472610524, 53.37538750477118], [-3.113408037368903, 53.37538470097446], [-3.1134033481430756, 53.37520496307501], [-3.1140044749787203, 53.375199353248235], [-3.113995091618723, 53.37483987750521], [-3.1142956524310845, 53.37483707149344], [-3.11430503832088, 53.37519654719993], [-3.1146056016125807, 53.37519374039502], [-3.1146149902340645, 53.375553216042015], [-3.1143144244125147, 53.37555602288348], [-3.1143191175340226, 53.37573576071666], [-3.1140185503970637, 53.37573856681977], [-3.1140232423040746, 53.37591830466549], [-3.1137226738517074, 53.37592111003026], [-3.1137273645441925, 53.37610084788849]], [[-3.1152067280445483, 53.37518812451539], [-3.1146056016125807, 53.37519374039502], [-3.1145915190589024, 53.37465452688152], [-3.11519263790153, 53.3746489111116], [-3.1151879412881867, 53.374469173298856], [-3.115488499368898, 53.3744663642973], [-3.115483801541205, 53.37428662649713], [-3.1160849150213865, 53.374281006260844], [-3.1160755144582244, 53.373921530716466], [-3.1163760685928645, 53.37391871950008], [-3.1163713671222824, 53.3737389817376], [-3.1172730254284398, 53.37373054360392], [-3.1172683202140363, 53.37355080589065], [-3.117869422968971, 53.373545176722025], [-3.117864715275608, 53.373365439039674], [-3.118165265312384, 53.373362623338856], [-3.1181605564048747, 53.373182885669095], [-3.118761653797011, 53.3731772520345], [-3.118756942410638, 53.37299751439569], [-3.119057489765985, 53.3729946964619], [-3.119052777165537, 53.372814958835704], [-3.119653869194753, 53.372809320735236], [-3.119649154115541, 53.37262958314001], [-3.1202502434125496, 53.37262394205012], [-3.12025496102119, 53.3728036796086], [-3.1205555068583317, 53.37280085791049], [-3.120560225782422, 53.37298059544487], [-3.120860772833555, 53.372977772971815], [-3.1208513325066716, 53.37261829793408], [-3.1205507879849765, 53.37262112037037], [-3.120546069162358, 53.37244138282451], [-3.120245525854629, 53.37244420448588], [-3.1202408083474293, 53.37226446691593], [-3.1205413503904715, 53.372261645272914], [-3.120531912998901, 53.37190217015254], [-3.12083245246188, 53.371899347789764], [-3.120827732577547, 53.37171961023934], [-3.121428808821968, 53.371713963281046], [-3.1214240864591196, 53.37153422576164], [-3.1220251599711957, 53.37152857581411], [-3.122020435129889, 53.371348838325765], [-3.1223209705451214, 53.37134601223565], [-3.1223162444900123, 53.37116627475998], [-3.122917312638833, 53.37116062034706], [-3.1229220412231418, 53.37134035778592], [-3.123222576485901, 53.37133752942631], [-3.123227306385659, 53.37151726684101], [-3.122325696651043, 53.37152574970558], [-3.122330422807776, 53.3717054871698], [-3.122029884863301, 53.37170831329672], [-3.1220346098062053, 53.37188805077357], [-3.121734070546289, 53.37189087616239], [-3.1217387942753376, 53.37207061365193], [-3.122039334799908, 53.372067788244706], [-3.122048784939719, 53.37242726316974], [-3.1223493279428403, 53.37242443696921], [-3.122354054353643, 53.372604174404714], [-3.1226545985706444, 53.372601347429246], [-3.1226404156966354, 53.37206213516074], [-3.122940956068765, 53.37205930748398], [-3.1229314985442733, 53.371699832646435], [-3.123833111767688, 53.37169134518759], [-3.12382364685885, 53.371331870437615], [-3.124424717028281, 53.37132620842294], [-3.124429451986478, 53.37150594576392], [-3.1247299882594497, 53.37150311360341], [-3.1247347245331762, 53.3716828509202], [-3.1244341869955834, 53.37168568309918], [-3.124438922055596, 53.371865420428676], [-3.1247394608578243, 53.371862588231274], [-3.124744197233394, 53.37204232553661], [-3.125345277214366, 53.37203665883537], [-3.125354755176948, 53.372396133355], [-3.1256552976203498, 53.372393298832705], [-3.1256600379427546, 53.372573036065454], [-3.1253594942346656, 53.37257587060619], [-3.1253642333433365, 53.37275560785167], [-3.1250636883195932, 53.37275844165437], [-3.1250684262145008, 53.37293817891255], [-3.125368972502959, 53.372935345091406], [-3.1253737117135345, 53.373115082325384], [-3.1250731641603484, 53.37311791616497], [-3.125082640204867, 53.37347739065263], [-3.124481539886682, 53.37348305613597], [-3.124486275455813, 53.373662793408066], [-3.123885172404423, 53.37366845590206], [-3.1238804393648367, 53.37348871859307], [-3.1226782377105997, 53.373500034428666], [-3.1226735097809435, 53.373320297040244], [-3.121471312372423, 53.37333160069736], [-3.1214760352430235, 53.37351133815936], [-3.120574382859112, 53.37351980801356], [-3.12056966378281, 53.37334007049639], [-3.1211707628933123, 53.37333442472025], [-3.121166041338243, 53.37315468723411], [-3.1202643963906374, 53.37316315470835], [-3.1202691141514465, 53.373342892249624], [-3.1199685644693593, 53.37334571324634], [-3.1199779976135984, 53.373705188348396], [-3.1190763406744653, 53.37371364690931], [-3.1190810535282605, 53.37389338450682], [-3.118780499849057, 53.37389620253234], [-3.11877107672172, 53.37353672729489], [-3.1181699742705224, 53.3735423610029], [-3.1181746832792894, 53.373722098661155], [-3.117874130712951, 53.37372491439862], [-3.1178788385075507, 53.373904652069534], [-3.1166766226769553, 53.373915907527106], [-3.1166860282994193, 53.37427538299824], [-3.1163854716856787, 53.37427819500783], [-3.1163901733079116, 53.37445793275311], [-3.115789057399098, 53.37446355453916], [-3.1157984557357548, 53.374823030085714], [-3.1154978951758188, 53.37482583988046], [-3.115502593155046, 53.37500557766341], [-3.1152020312797095, 53.37500838671986], [-3.1152067280445483, 53.37518812451539]], [[-3.123523111697807, 53.3713347003102], [-3.123222576485901, 53.37133752942631], [-3.1232178466369955, 53.37115779200588], [-3.1235183805843043, 53.3711549629082], [-3.123523111697807, 53.3713347003102]]]}, "properties": {"kind": "max_footprint", "threshold_pct": 4.0}}, {"type": "Feature", "geometry": {"type": "Polygon", "coordinates": [[[-3.1169400565789624, 53.38398121204656], [-3.1169353510109086, 53.3838014746236], [-3.1166347273416317, 53.38380428760387], [-3.1166394316441224, 53.38398402504519], [-3.1169400565789624, 53.38398121204656]]]}, "properties": {"kind": "max_footprint", "threshold_pct": 7.0}}, {"type": "Feature", "geometry": {"type": "Polygon", "coordinates": [[[-3.1172312678465763, 53.383618923476085], [-3.1172265611141894, 53.38343918605995], [-3.1169259400266074, 53.38344199976044], [-3.1169306454934564, 53.383621737194886], [-3.1172312678465763, 53.383618923476085]]]}, "properties": {"kind": "max_footprint", "threshold_pct": 7.0}}, {"type": "Feature", "geometry": {"type": "Polygon", "coordinates": [[[-3.118739091963408, 53.38378458084823], [-3.118734378852658, 53.38360484352954], [-3.119035000901876, 53.383602025269724], [-3.1190161439036572, 53.38288307601097], [-3.118414909878647, 53.38288871162696], [-3.1184196215211712, 53.383068448986954], [-3.1181190031671617, 53.38307126567808], [-3.1181331346021826, 53.38361047777866], [-3.1178325124009527, 53.38361329376798], [-3.1178372217150563, 53.38379303114169], [-3.118739091963408, 53.38378458084823]]]}, "properties": {"kind": "max_footprint", "threshold_pct": 7.0}}, {"type": "Feature", "geometry": {"type": "Polygon", "coordinates": [[[-3.1057004468898644, 53.37959133477636], [-3.1056957894005213, 53.3794115965356], [-3.105395195503883, 53.37941438105919], [-3.1053998517279733, 53.37959411931807], [-3.1057004468898644, 53.37959133477636]]]}, "properties": {"kind": "max_footprint", "threshold_pct": 7.0}}, {"type": "Feature", "geometry": {"type": "Polygon", "coordinates": [[[-3.1155401788074153, 53.376443479720756], [-3.115535480424059, 53.37626374198366], [-3.114934338913673, 53.37626935959598], [-3.1149390347670325, 53.37644909736966], [-3.1155401788074153, 53.376443479720756]]]}, "properties": {"kind": "max_footprint", "threshold_pct": 7.0}}, {"type": "Feature", "geometry": {"type": "Polygon", "coordinates": [[[-3.11730125777727, 53.374808969763095], [-3.117296552259319, 53.37462923208423], [-3.1166954341241406, 53.374634858446434], [-3.1167001371123515, 53.374814596161926], [-3.11730125777727, 53.374808969763095]]]}, "properties": {"kind": "max_footprint", "threshold_pct": 7.0}}, {"type": "Feature", "geometry": {"type": "Polygon", "coordinates": [[[-3.119992147710302, 53.374244400958496], [-3.1199874309606876, 53.37406466342752], [-3.11968687616873, 53.37406748374111], [-3.119691591653521, 53.374247221290446], [-3.119992147710302, 53.374244400958496]]]}, "properties": {"kind": "max_footprint", "threshold_pct": 7.0}}, {"type": "Feature", "geometry": {"type": "Polygon", "coordinates": [[[-3.122086587531102, 53.37386516264034], [-3.1220818620293587, 53.3736854252266], [-3.1217813101222767, 53.37368825079938], [-3.1217860343592294, 53.373867988231545], [-3.122086587531102, 53.37386516264034]]]}, "properties": {"kind": "max_footprint", "threshold_pct": 7.0}}, {"type": "Feature", "geometry": {"type": "Polygon", "coordinates": [[[-3.1208230127439602, 53.371539872683186], [-3.120808853547658, 53.371000659980275], [-3.1205083204077675, 53.37100348225114], [-3.1205036020417274, 53.37082374465365], [-3.1211046657416146, 53.37081809939215], [-3.121099944897177, 53.37063836182569], [-3.120799414337167, 53.3706411848163], [-3.120794694808032, 53.3704614472257], [-3.120193636064905, 53.37046709090074], [-3.120212504369325, 53.371186041375665], [-3.1205130388245346, 53.37118321984289], [-3.120522475810256, 53.3715426950092], [-3.1208230127439602, 53.371539872683186]]]}, "properties": {"kind": "max_footprint", "threshold_pct": 7.0}}, {"type": "Feature", "geometry": {"type": "Polygon", "coordinates": [[[-3.120815123045904, 53.38268641378064], [-3.1208104013810054, 53.382506676556105], [-3.1214116295323766, 53.38250102890464], [-3.1214069053873597, 53.38232129171114], [-3.121707518121404, 53.3823184667686], [-3.121698067452925, 53.381958992401174], [-3.122299287706858, 53.38195334031932], [-3.1222945599180325, 53.38177360316382], [-3.122595168703341, 53.38177077600614], [-3.1225998977575693, 53.38195051314322], [-3.1238023374517363, 53.38193919687094], [-3.123797603335906, 53.381759459807554], [-3.1240982118668095, 53.38175662886595], [-3.1241029472480384, 53.3819363659109], [-3.124403556993419, 53.381933534194076], [-3.124398820346793, 53.381753797167555], [-3.1250000371539395, 53.38174813150046], [-3.12499529802748, 53.38156839450508], [-3.1252959050892337, 53.38156556055482], [-3.1252864244584786, 53.38120608658376], [-3.125887633367604, 53.38120041648674], [-3.125882890598007, 53.38102067952954], [-3.1264840967724497, 53.381015006442425], [-3.126474606324984, 53.38065553258466], [-3.126775206805036, 53.38065269494292], [-3.126765714031095, 53.380293221099144], [-3.1270663119295286, 53.380290382737634], [-3.127061564353847, 53.38011064582564], [-3.1276627574670095, 53.38010496686936], [-3.1276532574078093, 53.37974549310209], [-3.1279538513572867, 53.37974265252584], [-3.127949100139076, 53.37956291565208], [-3.1282496927722367, 53.37956007433763], [-3.1282449403399055, 53.379380337476654], [-3.1285455316567528, 53.37937749542398], [-3.128536024415014, 53.379018021721784], [-3.1288366131503667, 53.37901517894943], [-3.1288318583410013, 53.378835442108226], [-3.129132445760056, 53.3788325985977], [-3.1291229337644086, 53.37847312493511], [-3.1294235186020285, 53.37847028070492], [-3.129409247196764, 53.37793107022354], [-3.1297098281878903, 53.37792822529222], [-3.1297003116433135, 53.37756875164631], [-3.130000890053121, 53.377565905995425], [-3.129991371183094, 53.377206432363565], [-3.1302919470116244, 53.37720358599307], [-3.1302871863883435, 53.3770238491871], [-3.130587760900656, 53.37702100207848], [-3.1305782372776436, 53.37666152848635], [-3.1311793810886193, 53.37665583207337], [-3.1311650884482596, 53.37611662175339], [-3.131465656481996, 53.37611377246761], [-3.131451360507869, 53.37557456215161], [-3.131751924695575, 53.37557171216489], [-3.131728092772369, 53.374673028282785], [-3.132028650584445, 53.37467017763228], [-3.132004813618365, 53.373771493699394], [-3.132305365055146, 53.373768642385144], [-3.1322767547989074, 53.372690221587554], [-3.1325772985960296, 53.37268736962816], [-3.1325629903659937, 53.37214815920753], [-3.132262450362883, 53.372151011111214], [-3.132238610661434, 53.3712523268691], [-3.131938076930143, 53.37125517792343], [-3.1319237775180824, 53.37071596725357], [-3.131623247529236, 53.37071881749573], [-3.1316089523719355, 53.370179606718466], [-3.1313084261254285, 53.37018245614852], [-3.1313036624399486, 53.370002719192726], [-3.1310031374067253, 53.37000556784778], [-3.130998375036942, 53.36982583086769], [-3.130397327345874, 53.3698315258713], [-3.1303878078177596, 53.36947205181973], [-3.1300872864243927, 53.36947489814982], [-3.130073011309293, 53.36893568697379], [-3.1297724936580615, 53.36893853249184], [-3.1297677366530774, 53.36875879540315], [-3.129467220215111, 53.36876164014625], [-3.12946246452566, 53.36858190303331], [-3.1291619493009586, 53.368584747001464], [-3.1291571949270116, 53.36840500986425], [-3.128856680915577, 53.368407853057484], [-3.1288519278571076, 53.36822811589602], [-3.128551415058942, 53.36823095831433], [-3.128560918698232, 53.36859043266853], [-3.128861434025145, 53.36858759021321], [-3.1288709403975767, 53.36894706450743], [-3.128570422541863, 53.368949906999774], [-3.128575174540308, 53.3691296441568], [-3.1282746553690868, 53.36913248591121], [-3.128279406154184, 53.36931222308098], [-3.127978885667451, 53.369315064097485], [-3.127974136146788, 53.3691353269092], [-3.127673616873432, 53.36913816715077], [-3.127668868668254, 53.36895842993825], [-3.127368350608274, 53.36896126940491], [-3.1273541100922055, 53.368422057677485], [-3.1264525669857086, 53.368430571372535], [-3.126443081149669, 53.36807109674801], [-3.1261425692075715, 53.36807393309661], [-3.1261378276303797, 53.36789419575726], [-3.1258373169016536, 53.36789703133096], [-3.1258467975783053, 53.36825650604085], [-3.124945257500294, 53.36826500833433], [-3.12494052092957, 53.368085270926905], [-3.1246400087327357, 53.36808810349348], [-3.1246447440390956, 53.368267840919344], [-3.1243442305269906, 53.36827067274794], [-3.124353698763664, 53.36863014761934], [-3.124053182671897, 53.36863297872839], [-3.124062648583329, 53.3689924536137], [-3.1234616111895086, 53.36899811363625], [-3.123456880737191, 53.36881837615962], [-3.1228558456687905, 53.36882403311962], [-3.1228605735922663, 53.36900377063309], [-3.1225600547173946, 53.369006597996865], [-3.122564781427263, 53.36918633552299], [-3.121963740996214, 53.36919198801805], [-3.1219779138439336, 53.369731200672476], [-3.121677389758824, 53.3697340258405], [-3.121672666689939, 53.369554288276376], [-3.1213721438185313, 53.3695571126696], [-3.121367422064889, 53.36937737508135], [-3.1210669004071847, 53.36938019869972], [-3.121085782668386, 53.37009914909185], [-3.1207852559019815, 53.37010197202731], [-3.1207899753296373, 53.37028170962938], [-3.121090503360563, 53.37027888667552], [-3.1210952241034944, 53.37045862425349], [-3.121395753348202, 53.37045580052478], [-3.121400475406434, 53.37063553807861], [-3.121701005864923, 53.37063271357505], [-3.1216915592701446, 53.37027323849844], [-3.1219920871487736, 53.37027041327521], [-3.1219968116853045, 53.37045015079798], [-3.1225978698192316, 53.370444498045295], [-3.1225931427536358, 53.370264760559316], [-3.122893670479845, 53.37026193306667], [-3.122888942200552, 53.37008219559339], [-3.123189468611409, 53.37007936736269], [-3.123194198155218, 53.370259104817556], [-3.1237952533534097, 53.37025344604995], [-3.1238094498771827, 53.37079265826961], [-3.1241099811935973, 53.37078982769581], [-3.124114714734511, 53.37096956507246], [-3.1247157797437914, 53.37096390161855], [-3.1247205158647584, 53.37114363895257], [-3.125021049557609, 53.371140806072454], [-3.125025786994087, 53.371320543382275], [-3.1253263219005976, 53.37131770972723], [-3.125331060652617, 53.371497447012864], [-3.125631596772787, 53.37149461258284], [-3.1256363368403735, 53.3716743498443], [-3.1259368741741986, 53.371671514639324], [-3.1259321328419927, 53.37149177739632], [-3.126232668860225, 53.37148894145332], [-3.126237411457048, 53.37166867867785], [-3.12653794868891, 53.37166584195987], [-3.1265569246447114, 53.37238479072668], [-3.1262563823542444, 53.37238762751853], [-3.126270611062557, 53.37292683908877], [-3.1259700649270012, 53.37292967517953], [-3.1259748066670334, 53.373109412376586], [-3.125674259215769, 53.37311224772925], [-3.125683740319283, 53.37347172214309], [-3.1247820900712386, 53.373480223772575], [-3.124786826905141, 53.37365996102623], [-3.124486275455813, 53.373662793408066], [-3.1244910110758592, 53.373842530674445], [-3.1238899054948983, 53.37384819320529], [-3.123885172404423, 53.37366845590206], [-3.122382413885633, 53.37368259889724], [-3.1223965943376983, 53.37422181106604], [-3.122096038687012, 53.37422463745061], [-3.122119667465964, 53.37512332437584], [-3.122420229440943, 53.37512049789924], [-3.1224296838380226, 53.37547997259235], [-3.1227302482919876, 53.37547714532234], [-3.1227255198031227, 53.37529740799709], [-3.1230260829413323, 53.37529457998886], [-3.1230402723552304, 53.37583379189223], [-3.123641406068619, 53.37582813349545], [-3.1236603361189195, 53.37654708247223], [-3.123359764227775, 53.37654991212261], [-3.1233644956025595, 53.37672964937089], [-3.123063922395538, 53.37673247828307], [-3.1230733827676787, 53.37709195279924], [-3.123373958504755, 53.3770891238502], [-3.123397616650572, 53.37798780994808], [-3.123698198662138, 53.37798498015025], [-3.123707664806856, 53.37834445451237], [-3.124008249297767, 53.37834162392103], [-3.1240129837116086, 53.37852136107504], [-3.123411812148607, 53.37852702153793], [-3.1234212760683695, 53.378886495902464], [-3.1240224526920146, 53.378880835365855], [-3.124017718176357, 53.378701098223324], [-3.1243183051466543, 53.37869826683841], [-3.1243277767592277, 53.37905774108087], [-3.1240271872585836, 53.37906057250266], [-3.1240319218760617, 53.37924030963372], [-3.1237313310593118, 53.379243140317236], [-3.1237265977070274, 53.37906340316775], [-3.1225242389919683, 53.379074718260995], [-3.1225289672834675, 53.379254455484194], [-3.1228295583037267, 53.37925162782751], [-3.122834287911281, 53.37943136502655], [-3.123134880145894, 53.37942853659475], [-3.123139611069528, 53.37960827376959], [-3.123440204518494, 53.37960544456266], [-3.1234449367582378, 53.37978518171337], [-3.123144342044035, 53.37978801093874], [-3.1231490730694147, 53.379967748102125], [-3.1228484770390885, 53.3799705765892], [-3.1228579367119256, 53.38033005093559], [-3.122557338100193, 53.38033287870273], [-3.122562066747612, 53.380512615885756], [-3.122261466819739, 53.380515442914565], [-3.1222661942526977, 53.38069518011026], [-3.1219655930086807, 53.38069800640071], [-3.1219703192271546, 53.38087774360908], [-3.121369114056024, 53.38088339395655], [-3.121373837794649, 53.38106313119599], [-3.1210732338675453, 53.381065955252986], [-3.1210779563916153, 53.38124569250503], [-3.120476745854369, 53.38125133838551], [-3.120490906139008, 53.38179055021755], [-3.1198896878064537, 53.38179619318121], [-3.119894405472033, 53.38197593048382], [-3.120195015929091, 53.381973109362015], [-3.120209173026533, 53.38251232118034], [-3.119908558773169, 53.38251514235727], [-3.1199132766416815, 53.38269487963695], [-3.120815123045904, 53.38268641378064]], [[-3.1234899949714197, 53.37007653837555], [-3.123189468611409, 53.37007936736269], [-3.123184739118446, 53.36989962990207], [-3.122583688774905, 53.369905285570184], [-3.1225789618617683, 53.36972554806698], [-3.122879485794465, 53.369722720629575], [-3.122874757667669, 53.36954298313906], [-3.123175280285058, 53.369540154963616], [-3.1231800096763296, 53.36971989243572], [-3.1234805335073483, 53.369717063485396], [-3.1234899949714197, 53.37007653837555]]]}, "properties": {"kind": "max_footprint", "threshold_pct": 7.0}}, {"type": "Feature", "geometry": {"type": "Polygon", "coordinates": [[[-3.1237881352569676, 53.3813999856635], [-3.123783401293862, 53.38122024858287], [-3.124384610712522, 53.38121458605352], [-3.1243798742696325, 53.38103484900405], [-3.124680477637227, 53.381032016622655], [-3.1246710023735993, 53.38067254254335], [-3.124971603159604, 53.38066970944212], [-3.1249668643389064, 53.38048997241231], [-3.1258686625952183, 53.38048146862346], [-3.1258639200296185, 53.380301731643286], [-3.126465116081623, 53.38029605870394], [-3.1264603710364796, 53.38011632175495], [-3.1267609677206827, 53.38011348416867], [-3.126756221461308, 53.37993374723244], [-3.1270568168292163, 53.37993090890788], [-3.127052069355636, 53.37975117198438], [-3.1276532574078093, 53.37974549310209], [-3.127643757552916, 53.379386019311845], [-3.1282449403399055, 53.379380337476654], [-3.128240187958676, 53.379200600609906], [-3.128540778010326, 53.37919775857575], [-3.128536024415014, 53.379018021721784], [-3.1288366131503667, 53.37901517894943], [-3.1288271035827613, 53.37865570526128], [-3.1291276897366616, 53.37865286176927], [-3.1291134219733214, 53.378113651249535], [-3.1294140042806986, 53.3781108070564], [-3.1294044901639775, 53.377751333384914], [-3.12970506989002, 53.37774848847214], [-3.12969555344777, 53.377389014814746], [-3.129996130592519, 53.37738616918238], [-3.1299866118248443, 53.377026695539065], [-3.1302871863883435, 53.3770238491871], [-3.130272904825631, 53.37648463873467], [-3.1308740462090454, 53.37647894387205], [-3.130864520363298, 53.37611947028255], [-3.1311650884482596, 53.37611662175339], [-3.131150796268928, 53.37557741138172], [-3.131451360507869, 53.37557456215161], [-3.1314418301146363, 53.3752150885789], [-3.131742391772546, 53.375212238629274], [-3.131728092772369, 53.374673028282785], [-3.132028650584445, 53.37467017763228], [-3.132004813618365, 53.373771493699394], [-3.132305365055146, 53.373768642385144], [-3.1322433784992008, 53.37143206372901], [-3.1319428435033214, 53.37143491480191], [-3.1319237775180824, 53.37071596725357], [-3.131623247529236, 53.37071881749573], [-3.1316137173731406, 53.37035934364997], [-3.131313189862125, 53.370362193098565], [-3.1313036624399486, 53.370002719192726], [-3.1310031374067253, 53.37000556784778], [-3.130998375036942, 53.36982583086769], [-3.130397327345874, 53.3698315258713], [-3.1303925675562323, 53.369651788848394], [-3.1300920448984053, 53.369654635196994], [-3.1300777696298367, 53.36911542403821], [-3.1294767317473973, 53.36912111435493], [-3.129467220215111, 53.36876164014625], [-3.1291667037260185, 53.36876448413294], [-3.129176212729479, 53.36912395837865], [-3.128575174540308, 53.3691296441568], [-3.128594183044977, 53.369848592727394], [-3.127993134535807, 53.36985427562784], [-3.127983635239173, 53.36949480128], [-3.127683113436929, 53.369497641558546], [-3.1276783651296576, 53.36931790435754], [-3.127377844540815, 53.36932074386114], [-3.127368350608274, 53.36896126940491], [-3.1270678324972607, 53.36896410811512], [-3.12705834129766, 53.36860463359894], [-3.126457309980213, 53.36861030867619], [-3.1264525669857086, 53.368430571372535], [-3.1252505087965874, 53.36844191237615], [-3.125255246733542, 53.36862164975364], [-3.1249547307945016, 53.36862448313197], [-3.124959467517988, 53.368804220522165], [-3.1246589502636213, 53.36880705316252], [-3.1246684213345195, 53.36916652796259], [-3.1240673816153675, 53.36917219104773], [-3.124072114698294, 53.369351928476036], [-3.1237715934979393, 53.369354758902396], [-3.1237857892586014, 53.36989397120816], [-3.1240863142523785, 53.369891140726516], [-3.1240957808761993, 53.37025061553145], [-3.1243963083481026, 53.37024778425648], [-3.124405777704546, 53.3706072590016], [-3.1247063076546135, 53.37060442693327], [-3.1247110436737433, 53.370784164278774], [-3.1250115748374463, 53.37078133143553], [-3.125021049557609, 53.371140806072454], [-3.125622116790496, 53.37113513804272], [-3.1256268567561603, 53.37131487531565], [-3.1262279263143897, 53.37130920422305], [-3.126232668860225, 53.37148894145332], [-3.1265332048274685, 53.37148610475381], [-3.1265426926013533, 53.37184557916018], [-3.126843231046842, 53.371842741667216], [-3.126852721554043, 53.37220221601367], [-3.126552180579252, 53.37220505354357], [-3.12657115714712, 53.37292400224149], [-3.126270611062557, 53.37292683908877], [-3.1262753540673165, 53.373106576267354], [-3.1259748066670334, 53.373109412376586], [-3.1259795484580475, 53.37328914956791], [-3.1262800971230704, 53.373286313440246], [-3.126284840229821, 53.373466050607355], [-3.1259842903000448, 53.37346888675351], [-3.1259985161319337, 53.37400809827579], [-3.1256979623568277, 53.37401093372078], [-3.1256932216266753, 53.37383119653397], [-3.1250921164531555, 53.373836865117326], [-3.125096854653716, 53.37401660234106], [-3.1247963007257344, 53.37401943551635], [-3.124801037712429, 53.374199172752796], [-3.124199927174064, 53.374204836870554], [-3.1242046616820374, 53.37438457413814], [-3.1236035484104003, 53.37439023526646], [-3.1236082804395964, 53.374569972565155], [-3.123307722462612, 53.374572802012885], [-3.1233124532778325, 53.374752539324284], [-3.122711334641567, 53.37475819598679], [-3.1227160629779127, 53.3749379333293], [-3.123317184143917, 53.37493227662994], [-3.1233361081169324, 53.37565122579518], [-3.1236366736832553, 53.375648396236926], [-3.123631941348774, 53.375468658972636], [-3.1239325055992904, 53.3754658286762], [-3.1239372391986944, 53.37564556592205], [-3.1242378046632355, 53.37564273485055], [-3.1242425395784714, 53.37582247207222], [-3.124543106257038, 53.37581964022567], [-3.1245478424881323, 53.37599937742317], [-3.124848410380722, 53.37599654480155], [-3.124857885525627, 53.37635601914245], [-3.1245573151031003, 53.376358851800944], [-3.124562051486974, 53.376538588981205], [-3.124261479748531, 53.37654142090151], [-3.1242804207332178, 53.377260369638975], [-3.1245809975317536, 53.37725753764491], [-3.1245857341702723, 53.377437274796485], [-3.12428515610668, 53.377440106809], [-3.12428989153106, 53.377619843973264], [-3.124590470859724, 53.377617011942306], [-3.1246141550709736, 53.37851569758539], [-3.124914740674262, 53.37851286470554], [-3.1249194789344674, 53.37869260179849], [-3.1246188920660285, 53.37869543469679], [-3.124637840555619, 53.379414383084985], [-3.124337248575499, 53.37941721530037], [-3.124341984560022, 53.37959695240151], [-3.1240413912637552, 53.37959978387862], [-3.1240461260339702, 53.37977952099247], [-3.1237455314215543, 53.37978235173128], [-3.1237549985842152, 53.3801418259786], [-3.124055595727143, 53.380138995202934], [-3.124065065623977, 53.380498469390446], [-3.1237644659504826, 53.38050130020299], [-3.1237739335203627, 53.38086077440441], [-3.123473331265344, 53.38086360449709], [-3.1234780638613087, 53.38104334160762], [-3.12257625299496, 53.38105182740034], [-3.122585710747446, 53.381411301714714], [-3.1231869231039666, 53.38140564520265], [-3.1231821916715767, 53.38122590808518], [-3.1234827965081653, 53.38122307871242], [-3.123487529205915, 53.38140281581147], [-3.1237881352569676, 53.3813999856635]]]}, "properties": {"kind": "max_footprint", "threshold_pct": 10.0}}]}