{"type": "FeatureCollection", "features": [{"type": "Feature", "geometry": {"type": "Polygon", "coordinates": [[[-3.130459209268168, 53.37216810664651], [-3.1304544488132287, 53.37198836969826], [-3.130754987859067, 53.3719855223522], [-3.130750226190676, 53.37180578541674], [-3.129848612693535, 53.37181432512981], [-3.1298438548702006, 53.37163458813299], [-3.1295433182001196, 53.371637433172495], [-3.1295480747588305, 53.37181717018782], [-3.1292475367729864, 53.371820014489316], [-3.1292522921182, 53.37199975151743], [-3.1295528313686822, 53.371996907197406], [-3.1295575880296727, 53.37217664420125], [-3.1298581284936633, 53.372173799106186], [-3.1298533705680227, 53.37199406212085], [-3.13015390971621, 53.37199121628782], [-3.1301586689065, 53.37217095325461], [-3.130459209268168, 53.37216810664651]]]}, "properties": {"kind": "max_footprint", "threshold_pct": 4.0}}, {"type": "Feature", "geometry": {"type": "Polygon", "coordinates": [[[-3.1304544488132287, 53.37198836969826], [-3.1304496884094712, 53.37180863274427], [-3.1301491505770866, 53.371811479315284], [-3.13015390971621, 53.37199121628782], [-3.1304544488132287, 53.37198836969826]]]}, "properties": {"kind": "max_footprint", "threshold_pct": 7.0}}, {"type": "Feature", "geometry": {"type": "Polygon", "coordinates": [[[-3.1298533705680227, 53.37199406212085], [-3.129848612693535, 53.37181432512981], [-3.1295480747588305, 53.37181717018782], [-3.1295528313686822, 53.371996907197406], [-3.1298533705680227, 53.37199406212085]]]}, "properties": {"kind": "max_footprint", "threshold_pct": 7.0}}, {"type": "Feature", "geometry": {"type": "Polygon", "coordinates": [[[-3.1304544488132287, 53.37198836969826], [-3.1304496884094712, 53.37180863274427], [-3.1301491505770866, 53.371811479315284], [-3.13015390971621, 53.37199121628782], [-3.1304544488132287, 53.37198836969826]]]}, "properties": {"kind": "max_footprint", "threshold_pct": 10.0}}]}