{"type": "FeatureCollection", "features": [{"type": "Feature", "geometry": {"type": "Polygon", "coordinates": [[[-3.0823321085063675, 53.40659285461542], [-3.0823275449314615, 53.40641311579149], [-3.082026758391066, 53.4064158424206], [-3.0820313206986327, 53.406595581262295], [-3.0823321085063675, 53.40659285461542]]]}, "properties": {"kind": "max_footprint", "threshold_pct": 4.0}}, {"type": "Feature", "geometry": {"type": "Polygon", "coordinates": [[[-3.082026758391066, 53.4064158424206], [-3.0820221961325833, 53.406236103573185], [-3.081721410810427, 53.40623882942705], [-3.0817259718015833, 53.406418568292224], [-3.082026758391066, 53.4064158424206]]]}, "properties": {"kind": "max_footprint", "threshold_pct": 4.0}}, {"type": "Feature", "geometry": {"type": "Polygon", "coordinates": [[[-3.08200850965165, 53.40569688699664], [-3.082003947589504, 53.405517148126364], [-3.081703167336514, 53.40551987390922], [-3.0817077281313856, 53.40569961279724], [-3.08200850965165, 53.40569688699664]]]}, "properties": {"kind": "max_footprint", "threshold_pct": 4.0}}, {"type": "Feature", "geometry": {"type": "Polygon", "coordinates": [[[-3.0858957727530805, 53.404762689407235], [-3.0858866162217145, 53.404403212066285], [-3.0849843000422976, 53.404411416362734], [-3.0849888744818097, 53.40459115508949], [-3.08528964785803, 53.404588421063636], [-3.0852942236139524, 53.40476815976689], [-3.0858957727530805, 53.404762689407235]]]}, "properties": {"kind": "max_footprint", "threshold_pct": 4.0}}, {"type": "Feature", "geometry": {"type": "Polygon", "coordinates": [[[-3.0846789547609155, 53.40423441086307], [-3.0846743816869857, 53.40405467210706], [-3.0840728422915418, 53.40406013626484], [-3.0840774128311583, 53.40423987505643], [-3.0846789547609155, 53.40423441086307]]]}, "properties": {"kind": "max_footprint", "threshold_pct": 4.0}}, {"type": "Feature", "geometry": {"type": "Polygon", "coordinates": [[[-3.0903935932627378, 53.40418234992027], [-3.090384399012695, 53.40382287308078], [-3.088880561173998, 53.40383659965979], [-3.08888515193864, 53.404016338171814], [-3.0897874585915277, 53.40400810444299], [-3.0897920532069953, 53.40418784289566], [-3.0903935932627378, 53.40418234992027]]]}, "properties": {"kind": "max_footprint", "threshold_pct": 4.0}}, {"type": "Feature", "geometry": {"type": "Polygon", "coordinates": [[[-3.088880561173998, 53.40383659965979], [-3.088875970458744, 53.40365686114204], [-3.08827443751168, 53.40366234643605], [-3.088279025692696, 53.40384208498952], [-3.088880561173998, 53.40383659965979]]]}, "properties": {"kind": "max_footprint", "threshold_pct": 4.0}}, {"type": "Feature", "geometry": {"type": "Polygon", "coordinates": [[[-3.0894453518454523, 53.402393203284255], [-3.0894361661865077, 53.402033726223024], [-3.0882331461037325, 53.40204469919736], [-3.0882285584163016, 53.401864960586686], [-3.087927804539169, 53.401867701919016], [-3.0879232181680636, 53.40168796328474], [-3.087622465508561, 53.40169070384187], [-3.0876178804537533, 53.40151096518405], [-3.0873171290118826, 53.40151370496599], [-3.0873125452733423, 53.401333966284604], [-3.087011795049105, 53.401336705291314], [-3.087007212626808, 53.40115696658636], [-3.0867064636202044, 53.40115970481791], [-3.0867156259802155, 53.401519182257765], [-3.0864148743904485, 53.40152191976765], [-3.0864194543774217, 53.40170165849682], [-3.08702096004159, 53.401696182684056], [-3.0870255426117814, 53.401875921371854], [-3.087326296636896, 53.40187318231159], [-3.087330880523372, 53.40205292097583], [-3.0879323909596166, 53.40204744054755], [-3.087936977429404, 53.402227179170346], [-3.088237733840518, 53.4022244378023], [-3.08824232162666, 53.40240417640156], [-3.0894453518454523, 53.402393203284255]]]}, "properties": {"kind": "max_footprint", "threshold_pct": 4.0}}, {"type": "Feature", "geometry": {"type": "Polygon", "coordinates": [[[-3.0972233985845397, 53.4007039398908], [-3.0972141479377404, 53.400344463659536], [-3.096913405682377, 53.40034722756842], [-3.096908781700453, 53.40016748942616], [-3.096307299574189, 53.40017301493602], [-3.096311921022431, 53.400352753114234], [-3.09661266337727, 53.400349990719974], [-3.096621908956627, 53.40070946702325], [-3.0972233985845397, 53.4007039398908]]]}, "properties": {"kind": "max_footprint", "threshold_pct": 4.0}}, {"type": "Feature", "geometry": {"type": "Polygon", "coordinates": [[[-3.0942482386033285, 53.401989713148104], [-3.09423901259905, 53.40163023663735], [-3.0939382609785517, 53.40163299309879], [-3.093933649317795, 53.40145325481687], [-3.0933321484618626, 53.401458765431855], [-3.093327539384575, 53.40127902710831], [-3.0930267901491577, 53.40128178126187], [-3.093012967015509, 53.40074256620309], [-3.0924114759973977, 53.400748072130554], [-3.0924068709190746, 53.400568333730334], [-3.091805382236558, 53.40057383659266], [-3.091800779741503, 53.40039409815087], [-3.0915000365928353, 53.400396848428144], [-3.0914954354141453, 53.40021710996271], [-3.0911946934828323, 53.40021985946477], [-3.09119009362048, 53.4000401209757], [-3.090889352906522, 53.40004286970254], [-3.090893951502033, 53.4002226082095], [-3.090593209471764, 53.40022535619693], [-3.0906024042774773, 53.4005848332295], [-3.0909031488414676, 53.40058208520626], [-3.090907747585395, 53.40076182369608], [-3.0912084933667945, 53.40075907489761], [-3.0912130934270885, 53.400938813363794], [-3.0918145873752048, 53.400933313459085], [-3.0918191900187995, 53.40111305188372], [-3.0924206863026695, 53.40110754891386], [-3.092425291529619, 53.40128728729692], [-3.0927260408641666, 53.40128453465805], [-3.092735254000572, 53.401644011371154], [-3.0930360058194384, 53.40164125793909], [-3.0930406137289363, 53.40182099626911], [-3.09334136676519, 53.401818242061765], [-3.0933459759912316, 53.401997980368144], [-3.0942482386033285, 53.401989713148104]]]}, "properties": {"kind": "max_footprint", "threshold_pct": 4.0}}, {"type": "Feature", "geometry": {"type": "Polygon", "coordinates": [[[-3.0954004584139185, 53.40000155928312], [-3.095386605917843, 53.39946234453512], [-3.0959880782078915, 53.39945682371294], [-3.0959788383917983, 53.39909734725758], [-3.0950766374828196, 53.399105627247046], [-3.0950812535657333, 53.39928536553151], [-3.0938783132582364, 53.39929639498745], [-3.093882924323698, 53.39947613333805], [-3.0944843971102634, 53.39947062008874], [-3.094493624457194, 53.39983009670095], [-3.0950951021124222, 53.39982458035061], [-3.0950997183939704, 53.4000043186122], [-3.0954004584139185, 53.40000155928312]]]}, "properties": {"kind": "max_footprint", "threshold_pct": 4.0}}, {"type": "Feature", "geometry": {"type": "Polygon", "coordinates": [[[-3.095372753868818, 53.3989231297356], [-3.095363519417816, 53.39856365317396], [-3.09506278953202, 53.39856641235926], [-3.0950720214495635, 53.398925888956846], [-3.095372753868818, 53.3989231297356]]]}, "properties": {"kind": "max_footprint", "threshold_pct": 4.0}}, {"type": "Feature", "geometry": {"type": "Polygon", "coordinates": [[[-3.09387370224238, 53.399116656631136], [-3.0938690912761246, 53.39893691826909], [-3.0941698238939215, 53.39893416207693], [-3.0941652117105307, 53.39875442372712], [-3.0938644803594717, 53.39875717990133], [-3.0938598694924204, 53.398577441527834], [-3.0932584091749624, 53.39858295156855], [-3.0932538008909347, 53.39840321315345], [-3.09265234290861, 53.398408720129254], [-3.092656948659213, 53.39858845858022], [-3.092957678941868, 53.398585705453016], [-3.092962286008742, 53.39876544388032], [-3.093263017508564, 53.39876268997793], [-3.093267625891739, 53.39894242838158], [-3.0935683586087266, 53.39893967370398], [-3.093572968308229, 53.39911941208396], [-3.09387370224238, 53.399116656631136]]]}, "properties": {"kind": "max_footprint", "threshold_pct": 4.0}}, {"type": "Feature", "geometry": {"type": "Polygon", "coordinates": [[[-3.09265234290861, 53.398408720129254], [-3.0926477372075536, 53.39822898167255], [-3.092347009408768, 53.398231734006636], [-3.092351613843125, 53.39841147248125], [-3.09265234290861, 53.398408720129254]]]}, "properties": {"kind": "max_footprint", "threshold_pct": 4.0}}, {"type": "Feature", "geometry": {"type": "Polygon", "coordinates": [[[-3.092347009408768, 53.398231734006636], [-3.0923424050239428, 53.39805199552629], [-3.0920416784423135, 53.3980547470852], [-3.0920462815604504, 53.39823448558346], [-3.092347009408768, 53.398231734006636]]]}, "properties": {"kind": "max_footprint", "threshold_pct": 4.0}}, {"type": "Feature", "geometry": {"type": "Polygon", "coordinates": [[[-3.091130299912664, 53.397703520097245], [-3.0911257007430186, 53.39752378152808], [-3.0908249777633947, 53.397526530004285], [-3.09082957566639, 53.397706268591364], [-3.091130299912664, 53.397703520097245]]]}, "properties": {"kind": "max_footprint", "threshold_pct": 4.0}}, {"type": "Feature", "geometry": {"type": "Polygon", "coordinates": [[[-3.0977601021954912, 53.39818207613354], [-3.097755475010412, 53.39800233797664], [-3.098056200648639, 53.39799957203005], [-3.098051572246675, 53.39781983388544], [-3.0986530208404295, 53.397814299756575], [-3.098657651775712, 53.397994037865125], [-3.0992591027035195, 53.39798850067122], [-3.099245202447253, 53.39744928643656], [-3.098944480808196, 53.397452055358016], [-3.098939848755741, 53.3972723172503], [-3.0986391283334718, 53.39727508539651], [-3.098634497597448, 53.39709534726504], [-3.098033059136695, 53.397100881249735], [-3.0980284309836663, 53.396921143076504], [-3.0971262767189582, 53.39692943832036], [-3.0971216524154515, 53.39674970008738], [-3.0965202185234015, 53.39675522642788], [-3.096515596802773, 53.39657548815317], [-3.096214881048735, 53.39657825016962], [-3.0962102606443773, 53.39639851187118], [-3.095909546107194, 53.39640127311244], [-3.09590030798065, 53.39604179646246], [-3.0955995959268514, 53.39604455691056], [-3.095594978204623, 53.395864818559], [-3.0949935564810565, 53.39587033714767], [-3.0949889413415073, 53.39569059875445], [-3.0940868121833747, 53.39569887090467], [-3.0940914235234103, 53.39587860935176], [-3.094392134558915, 53.39587585270757], [-3.094396747215073, 53.396055591131024], [-3.0946974594674774, 53.39605283371169], [-3.0947020734397857, 53.39623257211144], [-3.095303500328751, 53.39622705496528], [-3.09530811688378, 53.39640679332336], [-3.095608831520324, 53.396404033596504], [-3.0956134493915712, 53.39658377193089], [-3.095914165244996, 53.39658101142886], [-3.0959187844324876, 53.39676074973955], [-3.096219501502795, 53.39675798846232], [-3.0962241220065576, 53.396937726749286], [-3.096825558531217, 53.39693220188722], [-3.0968301816178747, 53.397111940132504], [-3.097130901072209, 53.39710917654764], [-3.0971355254752053, 53.39728891476918], [-3.0974362461464033, 53.397286150409094], [-3.0974408718657656, 53.397465888606895], [-3.0968394279403797, 53.39747141660585], [-3.0968532977971344, 53.398010631272946], [-3.0971540235846473, 53.398007867598096], [-3.097158648236376, 53.39818760579102], [-3.0977601021954912, 53.39818207613354]]]}, "properties": {"kind": "max_footprint", "threshold_pct": 4.0}}, {"type": "Feature", "geometry": {"type": "Polygon", "coordinates": [[[-3.101919182973361, 53.39616616645789], [-3.101914538604499, 53.39598642849065], [-3.102215249612037, 53.39598365214159], [-3.1022106040266335, 53.3958039141867], [-3.101909894285595, 53.39580669051768], [-3.1019052500166495, 53.39562695253902], [-3.1016045414921414, 53.395629728094725], [-3.101595255637052, 53.395270252084], [-3.100993843504095, 53.395275800851635], [-3.100998483873744, 53.395455538895995], [-3.1000963615005945, 53.39546385642287], [-3.1000917249303344, 53.395284118324334], [-3.0997910186393156, 53.3952868893009], [-3.099795653943112, 53.395466627417484], [-3.0994949463357693, 53.39546939765493], [-3.099499580422946, 53.39564913578382], [-3.0998002892967684, 53.395646365528336], [-3.0998049247002872, 53.39582610363346], [-3.10010563479074, 53.39582333260275], [-3.1001102715106263, 53.39600307068411], [-3.100711694074901, 53.395997526315035], [-3.1007163333776995, 53.39617726435455], [-3.101919182973361, 53.39616616645789]]]}, "properties": {"kind": "max_footprint", "threshold_pct": 4.0}}, {"type": "Feature", "geometry": {"type": "Polygon", "coordinates": [[[-3.1061058402591653, 53.395228539788164], [-3.106101178409909, 53.39504880204588], [-3.1058004743853833, 53.39505158814761], [-3.1058051349682034, 53.39523132590803], [-3.1061058402591653, 53.395228539788164]]]}, "properties": {"kind": "max_footprint", "threshold_pct": 4.0}}, {"type": "Feature", "geometry": {"type": "Polygon", "coordinates": [[[-3.098296744429314, 53.39566020923395], [-3.098282857514927, 53.3951209946137], [-3.0991849731866807, 53.39511269082413], [-3.0991803405154803, 53.394932952660014], [-3.1003831556476897, 53.39492187041246], [-3.1003785179606247, 53.394742132314796], [-3.1000778155187896, 53.39474490399437], [-3.1000731791480187, 53.39456516587293], [-3.099772477922722, 53.3945679367773], [-3.0997678428682187, 53.39438819863209], [-3.0994671428594627, 53.39439096876127], [-3.099471776647569, 53.39457070692452], [-3.097667567950416, 53.39458731190773], [-3.0976583156207624, 53.3942278353592], [-3.097056917389055, 53.394233364224384], [-3.0970615409962243, 53.39441310253753], [-3.0973622414033395, 53.394410338465505], [-3.0973714912997, 53.39476981503861], [-3.097070788359765, 53.39477257914663], [-3.097080035922245, 53.39513205573283], [-3.0973807413950545, 53.3951292915888], [-3.097385366517356, 53.39530902985531], [-3.0970846597780883, 53.39531179401735], [-3.0970892836836703, 53.39549153229615], [-3.0976906996453955, 53.39548600317888], [-3.0976953261336853, 53.39566574141594], [-3.098296744429314, 53.39566020923395]], [[-3.0976768204791174, 53.39494678843337], [-3.0973761163225015, 53.394949553316565], [-3.0973714912997, 53.39476981503861], [-3.0976721941898857, 53.39476705017341], [-3.0976768204791174, 53.39494678843337]]]}, "properties": {"kind": "max_footprint", "threshold_pct": 4.0}}, {"type": "Feature", "geometry": {"type": "Polygon", "coordinates": [[[-3.1012759835503596, 53.39455407468397], [-3.101262059540694, 53.394014860502004], [-3.1009613623141026, 53.39401763438076], [-3.1009706424045427, 53.39437711054394], [-3.1006699425952933, 53.39437988370169], [-3.1006745814489842, 53.39455962179272], [-3.1012759835503596, 53.39455407468397]]]}, "properties": {"kind": "max_footprint", "threshold_pct": 4.0}}, {"type": "Feature", "geometry": {"type": "Polygon", "coordinates": [[[-3.1042922993104938, 53.394885769442055], [-3.1042829910595557, 53.394526293711266], [-3.104583691535363, 53.3945235114497], [-3.1045790362186003, 53.39434377359383], [-3.104879735377948, 53.39434099059323], [-3.1048750788448887, 53.39416125274976], [-3.104574380951912, 53.39416403573224], [-3.1045697257352973, 53.3939842978649], [-3.104269029058606, 53.39398708007212], [-3.104273683008862, 53.39416681795756], [-3.103972985015753, 53.39416959942574], [-3.1039683323318554, 53.393989861522186], [-3.1030662418513866, 53.39399820132963], [-3.1030755396710235, 53.39435767723966], [-3.1033762390806046, 53.39435489802477], [-3.1033855396330563, 53.39471437387571], [-3.103686241525408, 53.39471159386746], [-3.1036908931430793, 53.39489133176623], [-3.1042922993104938, 53.394885769442055]]]}, "properties": {"kind": "max_footprint", "threshold_pct": 4.0}}, {"type": "Feature", "geometry": {"type": "Polygon", "coordinates": [[[-3.0988657426924364, 53.39439650674822], [-3.098856480331262, 53.39403703033237], [-3.0985557827057777, 53.39403979815408], [-3.098565042534193, 53.39439927460595], [-3.0988657426924364, 53.39439650674822]]]}, "properties": {"kind": "max_footprint", "threshold_pct": 4.0}}, {"type": "Feature", "geometry": {"type": "Polygon", "coordinates": [[[-3.097056917389055, 53.394233364224384], [-3.0970522938316196, 53.39405362590552], [-3.096751595907537, 53.39405638918439], [-3.0967562181985966, 53.39423612752125], [-3.097056917389055, 53.394233364224384]]]}, "properties": {"kind": "max_footprint", "threshold_pct": 4.0}}, {"type": "Feature", "geometry": {"type": "Polygon", "coordinates": [[[-3.1021641509208773, 53.394006534322905], [-3.1021595058851155, 53.393826796305035], [-3.1012574183039847, 53.39383512242989], [-3.101262059540694, 53.394014860502004], [-3.1021641509208773, 53.394006534322905]]]}, "properties": {"kind": "max_footprint", "threshold_pct": 4.0}}, {"type": "Feature", "geometry": {"type": "Polygon", "coordinates": [[[-3.1009613623141026, 53.39401763438076], [-3.1009567223437458, 53.39383789629058], [-3.1006560263335987, 53.39384066939416], [-3.1006606650376014, 53.39402040750238], [-3.1009613623141026, 53.39401763438076]]]}, "properties": {"kind": "max_footprint", "threshold_pct": 4.0}}, {"type": "Feature", "geometry": {"type": "Polygon", "coordinates": [[[-3.0985557827057777, 53.39403979815408], [-3.09855115286627, 53.39386005991955], [-3.097949759998632, 53.3938655932555], [-3.0979543873054203, 53.394045331526065], [-3.0985557827057777, 53.39403979815408]]]}, "properties": {"kind": "max_footprint", "threshold_pct": 4.0}}, {"type": "Feature", "geometry": {"type": "Polygon", "coordinates": [[[-3.104565070568755, 53.39380455999186], [-3.1045604154522852, 53.39362482211308], [-3.104259721308269, 53.39362760428403], [-3.104264375158408, 53.39380734218092], [-3.104565070568755, 53.39380455999186]]]}, "properties": {"kind": "max_footprint", "threshold_pct": 4.0}}, {"type": "Feature", "geometry": {"type": "Polygon", "coordinates": [[[-3.09915254553471, 53.39385452355508], [-3.0991479132123128, 53.39367478535089], [-3.098847218169344, 53.39367755389367], [-3.098851849225396, 53.39385729211588], [-3.09915254553471, 53.39385452355508]]]}, "properties": {"kind": "max_footprint", "threshold_pct": 4.0}}, {"type": "Feature", "geometry": {"type": "Polygon", "coordinates": [[[-3.1000453619706487, 53.39348673702405], [-3.1000407259489573, 53.39330699886252], [-3.0994393411774936, 53.393312539661494], [-3.099443974666554, 53.39349227785912], [-3.1000453619706487, 53.39348673702405]]]}, "properties": {"kind": "max_footprint", "threshold_pct": 4.0}}, {"type": "Feature", "geometry": {"type": "Polygon", "coordinates": [[[-3.100637472016532, 53.39312171690395], [-3.1006328335619973, 53.392941978767084], [-3.1003321438335223, 53.39294475102322], [-3.1003367810217712, 53.393124489178156], [-3.100637472016532, 53.39312171690395]]]}, "properties": {"kind": "max_footprint", "threshold_pct": 4.0}}, {"type": "Feature", "geometry": {"type": "Polygon", "coordinates": [[[-3.109371514937585, 53.39358020440956], [-3.109362164333106, 53.393220729216004], [-3.108760782665545, 53.39322631695578], [-3.1087561099712966, 53.393046579314024], [-3.1084554203283994, 53.39304937203007], [-3.108450748950675, 53.392869634364374], [-3.1081500605237995, 53.392872426305125], [-3.1081453904625755, 53.39269268861552], [-3.107544015990652, 53.39269827018941], [-3.107548683519365, 53.392878007915364], [-3.107849372046692, 53.39287521748879], [-3.1078540408918784, 53.39305495519085], [-3.1081547306352553, 53.39305216398901], [-3.108164071008863, 53.39341163933957], [-3.1087654554100546, 53.39340605459183], [-3.108770128204825, 53.393585792222126], [-3.109371514937585, 53.39358020440956]]]}, "properties": {"kind": "max_footprint", "threshold_pct": 4.0}}, {"type": "Feature", "geometry": {"type": "Polygon", "coordinates": [[[-3.108436735118976, 53.39233042133292], [-3.1084320639422307, 53.3921506836443], [-3.108131380580287, 53.39215347551233], [-3.10813605049082, 53.392333213219125], [-3.108436735118976, 53.39233042133292]]]}, "properties": {"kind": "max_footprint", "threshold_pct": 4.0}}, {"type": "Feature", "geometry": {"type": "Polygon", "coordinates": [[[-3.100003639570523, 53.39186909336419], [-3.099999003997595, 53.39168935515113], [-3.0996983230330115, 53.391692125766774], [-3.0997029573397468, 53.39187186399788], [-3.100003639570523, 53.39186909336419]]]}, "properties": {"kind": "max_footprint", "threshold_pct": 4.0}}, {"type": "Feature", "geometry": {"type": "Polygon", "coordinates": [[[-3.1030615930165766, 53.39381846336604], [-3.1030569442317693, 53.393638725396706], [-3.1033576385759334, 53.393635946254214], [-3.1033529885748097, 53.39345620829725], [-3.1039543745804345, 53.39345064777714], [-3.1039497220967145, 53.39327090985066], [-3.104250413758164, 53.393268128473046], [-3.1042550675081877, 53.3934478663814], [-3.104555760385886, 53.393445084228546], [-3.104551105369557, 53.393265346338325], [-3.1048517969308804, 53.39326256344649], [-3.104847140698331, 53.393082825568634], [-3.1042457600581947, 53.393088390558965], [-3.1042411064082813, 53.392908652639136], [-3.1045417954871084, 53.39290587054065], [-3.104537140620986, 53.39272613263322], [-3.104837828383481, 53.392723349795766], [-3.1048331723011784, 53.39254361190074], [-3.105133858747345, 53.392540828324314], [-3.1051292014488885, 53.39236109044169], [-3.1045278310389453, 53.39236665680119], [-3.1045231763230254, 53.39218691887659], [-3.1042224923091704, 53.392189700902584], [-3.1042178389095225, 53.39200996295414], [-3.1039171561118266, 53.39201274420496], [-3.103903200011738, 53.39147353027085], [-3.1042038790108872, 53.39147074907439], [-3.1041992258114415, 53.391291011103014], [-3.1038985480784453, 53.391293792281374], [-3.1038938961951894, 53.39111405428615], [-3.1035932196783023, 53.391116834689356], [-3.1036025209625513, 53.39147631071028], [-3.103301841863345, 53.39147909039262], [-3.1033157903663335, 53.39201830443534], [-3.1030151074185657, 53.39202108341493], [-3.1030197557533685, 53.39220082143581], [-3.102418387175431, 53.392206377159944], [-3.1024137413730517, 53.392026639102866], [-3.1021130582753336, 53.39202941581122], [-3.10210376935287, 53.39166993964373], [-3.1015024080723594, 53.3916754907169], [-3.1015070499762385, 53.39185522883967], [-3.1012063679948967, 53.391858003258726], [-3.1012202902074537, 53.39239721764685], [-3.100919604377548, 53.39239999136302], [-3.100928883569666, 53.392759467629276], [-3.1012295719320737, 53.392756693876976], [-3.1012481359803337, 53.39347564626849], [-3.102450909191286, 53.39346454339906], [-3.1024602016455836, 53.39382401941582], [-3.1030615930165766, 53.39381846336604]]]}, "properties": {"kind": "max_footprint", "threshold_pct": 4.0}}, {"type": "Feature", "geometry": {"type": "Polygon", "coordinates": [[[-3.104495249078848, 53.39110849120862], [-3.1044905947133703, 53.39092875324389], [-3.104189919562693, 53.39093153514308], [-3.1041945726620437, 53.39111127312591], [-3.104495249078848, 53.39110849120862]]]}, "properties": {"kind": "max_footprint", "threshold_pct": 4.0}}, {"type": "Feature", "geometry": {"type": "Polygon", "coordinates": [[[-3.1044719777520564, 53.39020980132777], [-3.1044673236368725, 53.39003006333441], [-3.1041666548166256, 53.390032845143], [-3.1041713076657502, 53.39021258315448], [-3.1044719777520564, 53.39020980132777]]]}, "properties": {"kind": "max_footprint", "threshold_pct": 4.0}}, {"type": "Feature", "geometry": {"type": "Polygon", "coordinates": [[[-3.120313005698075, 53.38646653960371], [-3.120308285498222, 53.38628680246289], [-3.1200076446672855, 53.38628962402565], [-3.1200123636013903, 53.38646936118486], [-3.120313005698075, 53.38646653960371]]]}, "properties": {"kind": "max_footprint", "threshold_pct": 4.0}}, {"type": "Feature", "geometry": {"type": "Polygon", "coordinates": [[[-3.11151943449742, 53.383672254714035], [-3.1115147518103803, 53.383492516950604], [-3.1112141297636873, 53.38349531627124], [-3.111218811185176, 53.3836750540529], [-3.11151943449742, 53.383672254714035]]]}, "properties": {"kind": "max_footprint", "threshold_pct": 4.0}}, {"type": "Feature", "geometry": {"type": "Polygon", "coordinates": [[[-3.1247420718183094, 53.383368597578546], [-3.1247373334986666, 53.383188860616364], [-3.1244367149460603, 53.383191693219096], [-3.1244414520001973, 53.383371430199716], [-3.1247420718183094, 53.383368597578546]]]}, "properties": {"kind": "max_footprint", "threshold_pct": 4.0}}, {"type": "Feature", "geometry": {"type": "Polygon", "coordinates": [[[-3.1112141297636873, 53.38349531627124], [-3.1112094483925423, 53.38331557848383], [-3.110908827561045, 53.38331837702939], [-3.1109135076666514, 53.383498114835035], [-3.1112141297636873, 53.38349531627124]]]}, "properties": {"kind": "max_footprint", "threshold_pct": 4.0}}, {"type": "Feature", "geometry": {"type": "Polygon", "coordinates": [[[-3.116869478371168, 53.3812851500997], [-3.1168647735620882, 53.38110541259068], [-3.1165641688746715, 53.38110822529621], [-3.116568872418389, 53.38128796282352], [-3.116869478371168, 53.3812851500997]]]}, "properties": {"kind": "max_footprint", "threshold_pct": 4.0}}, {"type": "Feature", "geometry": {"type": "Polygon", "coordinates": [[[-3.1159770625387453, 53.38165306111156], [-3.1159723614246477, 53.381473323559085], [-3.1156717540547936, 53.38147613403091], [-3.115667054256626, 53.38129639645439], [-3.1153664481016095, 53.38129920615114], [-3.115361749619347, 53.3811194685506], [-3.114760539688482, 53.38112508563717], [-3.1147558437874494, 53.38094534799431], [-3.1141546361853027, 53.38095096201727], [-3.1141593295556294, 53.38113069969668], [-3.1144599346472974, 53.38112789304531], [-3.114464629333462, 53.381307630700725], [-3.114765235640013, 53.38130482327429], [-3.114769931642042, 53.38148456090568], [-3.115371146634397, 53.38147894374595], [-3.1153758452177125, 53.38165868133503], [-3.1159770625387453, 53.38165306111156]]]}, "properties": {"kind": "max_footprint", "threshold_pct": 4.0}}, {"type": "Feature", "geometry": {"type": "Polygon", "coordinates": [[[-3.1195183386472345, 53.379102953024585], [-3.11949476121042, 53.378204265903314], [-3.1188935931842092, 53.378209903591944], [-3.1189124449109813, 53.37892885344729], [-3.1192130340100674, 53.37892603490789], [-3.119217748333649, 53.379105772339024], [-3.1195183386472345, 53.379102953024585]]]}, "properties": {"kind": "max_footprint", "threshold_pct": 4.0}}, {"type": "Feature", "geometry": {"type": "Polygon", "coordinates": [[[-3.121288818270563, 53.3778278600088], [-3.12128409544615, 53.37764812266612], [-3.120983515558131, 53.37765094637372], [-3.1209740725917965, 53.37729147163436], [-3.1203729177237585, 53.37729711670607], [-3.120368198846849, 53.37711737929102], [-3.1200676226017663, 53.37712020067348], [-3.1200629050406348, 53.37694046323433], [-3.1197623300098685, 53.37694328384177], [-3.1197717626527597, 53.3773027587511], [-3.1200723402136217, 53.377299938106894], [-3.120077057876205, 53.37747967553459], [-3.1203776366514075, 53.377476854115365], [-3.1203823556298, 53.37765659151892], [-3.120682935619343, 53.377653769324674], [-3.1206876559135694, 53.37783350670412], [-3.121288818270563, 53.3778278600088]]]}, "properties": {"kind": "max_footprint", "threshold_pct": 4.0}}, {"type": "Feature", "geometry": {"type": "Polygon", "coordinates": [[[-3.106641953906272, 53.39270663687203], [-3.1066372902264905, 53.39252689908585], [-3.107238662467109, 53.39252132209085], [-3.1072339963050313, 53.39234158433527], [-3.107534681083835, 53.3923387947203], [-3.10751601187262, 53.39161984371333], [-3.1066139725800044, 53.39162821006902], [-3.106609309201186, 53.39144847224846], [-3.107210666247455, 53.39144289547139], [-3.107206000386498, 53.391263157681415], [-3.1087093857929657, 53.39124920258112], [-3.108704713651534, 53.39106946487632], [-3.109306064930191, 53.39106387757322], [-3.109315414327854, 53.39142335290433], [-3.109616092424041, 53.39142055808081], [-3.1096254445551517, 53.391780033352596], [-3.1099261251333687, 53.39177723773561], [-3.1099308025405485, 53.391956975344684], [-3.1105321660784044, 53.39195138180309], [-3.1105368460682827, 53.39213111937002], [-3.110837529027905, 53.39212832144537], [-3.1108328477718334, 53.391948583896685], [-3.111734892549963, 53.391940185635036], [-3.1117302075457065, 53.39176044813531], [-3.1108281665661113, 53.39176884634224], [-3.1108188043057172, 53.39140937121618], [-3.110518126410786, 53.39141216906792], [-3.110513446622251, 53.39123243147806], [-3.1102127699431263, 53.391235228554535], [-3.110203413049296, 53.390875753321204], [-3.10990273885209, 53.3908785496042], [-3.1098980617467533, 53.390698811960725], [-3.1104994075586467, 53.39069321867412], [-3.110504087196182, 53.390872956281164], [-3.1111054353389433, 53.39086735992998], [-3.111100753169213, 53.3906876223594], [-3.1114014258989635, 53.39068482306647], [-3.111396742513508, 53.390505085508366], [-3.111697413926805, 53.390502285476636], [-3.1116927293256533, 53.390322547931035], [-3.1119933994224946, 53.390319747160525], [-3.1119887136056743, 53.39014000962746], [-3.1122893823860633, 53.39013720811816], [-3.1122846953535994, 53.389957470597594], [-3.1134873649067587, 53.38994625706331], [-3.113477980864917, 53.38958678215101], [-3.1137786455950454, 53.389583976911425], [-3.113783338856744, 53.38976371435217], [-3.114384670697573, 53.3897581015655], [-3.1143799749038585, 53.3895783641613], [-3.115281968488262, 53.38956993935858], [-3.115267870016329, 53.38903072727623], [-3.1149672093366574, 53.389033536245904], [-3.114962511213051, 53.38885379885538], [-3.114661851748802, 53.388856607049796], [-3.114643064823331, 53.38813765735711], [-3.114943719223909, 53.38813484923583], [-3.1149484171454036, 53.38831458664933], [-3.1158503838416154, 53.38830615768887], [-3.1158456821224316, 53.38812642033029], [-3.1161463363208255, 53.38812360918118], [-3.116141633386327, 53.387943871835155], [-3.1167429390995984, 53.38793824730269], [-3.1167335283189015, 53.387578772666714], [-3.1173348287663147, 53.38757314517973], [-3.1173301209202, 53.38739340788978], [-3.117630769802128, 53.38739059302922], [-3.117626060740822, 53.38721085575187], [-3.1182273558210847, 53.38720522379657], [-3.1182226442788057, 53.38702548655016], [-3.11852329047713, 53.38702266945547], [-3.118509152356978, 53.38648345773688], [-3.1188097947072793, 53.386480639940295], [-3.118805080836177, 53.38630090270765], [-3.1200076446672855, 53.38628962402565], [-3.120002925783932, 53.38610988686072], [-3.120303565349134, 53.386107065316324], [-3.120298845250807, 53.385927328164044], [-3.1209001216974706, 53.385921682841314], [-3.120895399118494, 53.385741945720056], [-3.120594762186256, 53.385744768741475], [-3.12059004092376, 53.38556503159608], [-3.1196881336195337, 53.385573496063884], [-3.119683416204853, 53.38539375885762], [-3.1193827816009754, 53.38539657881475], [-3.1193780655026946, 53.385216841584395], [-3.1196786988409038, 53.38521402164562], [-3.119673981527686, 53.38503428442791], [-3.1202752455205904, 53.385028642316485], [-3.120279965365115, 53.38520837949747], [-3.1211818647707044, 53.38519991059866], [-3.121186588462984, 53.38537964771876], [-3.1217878570107276, 53.38537399796503], [-3.121783130787122, 53.385194260881725], [-3.1223843966002325, 53.3851886081373], [-3.1223749392429356, 53.384829134027115], [-3.122675569541935, 53.38482630655641], [-3.122670839673946, 53.38464656951112], [-3.1220695815563353, 53.384652223658854], [-3.1220648542704246, 53.384472486571], [-3.121764226400964, 53.384475312491155], [-3.121750048644998, 53.38393610113799], [-3.1220506727177186, 53.38393327527304], [-3.122045945635154, 53.383753538162225], [-3.122346568391487, 53.38375071155883], [-3.1223418400942187, 53.38357097446072], [-3.123243704261457, 53.383562490164785], [-3.1232389722184646, 53.38338275311617], [-3.1229383521457796, 53.38338558195321], [-3.122928890743461, 53.38302610780194], [-3.123229508285141, 53.38302327900173], [-3.1232247763948093, 53.3828435419359], [-3.123525392620122, 53.38284071239731], [-3.1235301257759347, 53.3830204494447], [-3.124431977942866, 53.38301195623275], [-3.124427240990611, 53.38283221924065], [-3.1247278570122456, 53.382829386674814], [-3.124723118845465, 53.38264964969542], [-3.125624962808203, 53.382641147512416], [-3.125601253757233, 53.38174246280624], [-3.125901861982404, 53.38173962732395], [-3.125892376188202, 53.38138015343823], [-3.126192981831622, 53.381377317236115], [-3.1261882377456716, 53.38119758030311], [-3.126789446348748, 53.381191905665524], [-3.126784699783138, 53.381012168763746], [-3.1270853027427825, 53.38100933032828], [-3.1270805549628884, 53.380829593439245], [-3.1273811566061562, 53.3808267542655], [-3.127376407612008, 53.38064701738921], [-3.1276770079389, 53.38064417747724], [-3.127667507573227, 53.38028470374441], [-3.12736690977691, 53.380287543619396], [-3.1273621609359608, 53.38010780672586], [-3.1276627574670095, 53.38010496686936], [-3.1276532574078093, 53.37974549310209], [-3.1279538513572867, 53.37974265252584], [-3.1279443489719543, 53.37938317877259], [-3.1285455316567528, 53.37937749542398], [-3.128540778010326, 53.37919775857575], [-3.1288413680108618, 53.3791949157849], [-3.1288366131503667, 53.37901517894943], [-3.129137201834591, 53.37901233542038], [-3.1291134219733214, 53.378113651249535], [-3.129714586536926, 53.378107962106576], [-3.1297098281878903, 53.37792822529222], [-3.1300104091278524, 53.37792537960426], [-3.130000890053121, 53.377565905995425], [-3.1303014684117505, 53.37756305958782], [-3.1302919470116244, 53.37720358599307], [-3.1305925227889655, 53.37720073886594], [-3.130587760900656, 53.37702100207848], [-3.1299866118248443, 53.377026695539065], [-3.1299770932618665, 53.376667221872786], [-3.1311793810886193, 53.37665583207337], [-3.1311650884482596, 53.37611662175339], [-3.130864520363298, 53.37611947028255], [-3.130854994722397, 53.37575999667007], [-3.131155560277482, 53.37575714817802], [-3.1311365045506028, 53.37503820095834], [-3.1314370649948717, 53.37503535178389], [-3.1314132401645547, 53.37413666772287], [-3.1317137942334106, 53.3741338178846], [-3.131704262130327, 53.373774344257114], [-3.1314037105910475, 53.37377719405825], [-3.1313989458811387, 53.373597457217315], [-3.1316994961556497, 53.37359460743473], [-3.1316613702028864, 53.37215671264904], [-3.131360830046027, 53.37215956228318], [-3.131346537453053, 53.37162035158809], [-3.130745464573478, 53.371626048475555], [-3.1307407030074734, 53.371446311528615], [-3.130440167755496, 53.37144915881905], [-3.130435407505277, 53.37126942184783], [-3.129233271044097, 53.37128080337055], [-3.129238026235936, 53.371460540415896], [-3.1289374907282004, 53.37146338392386], [-3.1289327368009587, 53.37128364686002], [-3.1283316681613664, 53.37128933156945], [-3.1283364195594103, 53.371469068670315], [-3.1274348124231337, 53.371477590116285], [-3.127439560078421, 53.3716573272669], [-3.126838485869769, 53.371663004485384], [-3.126843231046842, 53.371842741667216], [-3.1265426926013533, 53.37184557916018], [-3.12653794868891, 53.37166584195987], [-3.1259368741741986, 53.371671514639324], [-3.1259416155573807, 53.37185125187658], [-3.1256410769589213, 53.371854087100004], [-3.12565055734891, 53.37221356159421], [-3.1253500161701817, 53.37221639609806], [-3.1253594942346656, 53.37257587060619], [-3.1256600379427546, 53.372573036065454], [-3.1256789997420413, 53.37329198493905], [-3.125378450975067, 53.37329481955363], [-3.125383190287553, 53.37347455677614], [-3.125683740319283, 53.37347172214309], [-3.1256979623568277, 53.37401093372078], [-3.125096854653716, 53.37401660234106], [-3.1250921164531555, 53.373836865117326], [-3.1244910110758592, 53.373842530674445], [-3.124505218241504, 53.3743817424391], [-3.1242046616820374, 53.37438457413814], [-3.12421886551139, 53.37492378590646], [-3.124519425865418, 53.37492095415212], [-3.1245288978692978, 53.37528042859876], [-3.1239277720507834, 53.3752860914246], [-3.123923038553172, 53.37510635416728], [-3.123321915060869, 53.37511201392986], [-3.1233313770473767, 53.37547148851249], [-3.12303081269511, 53.375474317295726], [-3.1230402723552304, 53.37583379189223], [-3.1233408392373594, 53.37583096307216], [-3.123345570408656, 53.37601070034337], [-3.1236461385048653, 53.37600787074825], [-3.1236603361189195, 53.37654708247223], [-3.123359764227775, 53.37654991212261], [-3.1233692270282205, 53.37690938661342], [-3.122166928834939, 53.37692069779593], [-3.122176381718554, 53.37728017241107], [-3.122476958873224, 53.37727734571362], [-3.1224816866563256, 53.37745708299418], [-3.1227822650252217, 53.377454255521634], [-3.122801181726385, 53.378173204512855], [-3.1231017651048116, 53.37817037620998], [-3.1231112262907774, 53.37852985063432], [-3.122510054422529, 53.378535506557036], [-3.1225053263343976, 53.37835576931091], [-3.1222047415891496, 53.37835859611883], [-3.1222000148169893, 53.37817885884855], [-3.121298264071739, 53.37818733467697], [-3.1213124331543916, 53.37872654663616], [-3.1207112581460614, 53.37873219351534], [-3.1207159787448364, 53.37891193086038], [-3.120415389899349, 53.3789147531833], [-3.1204342677412216, 53.37963370257955], [-3.120133673784145, 53.379636524219265], [-3.1201289555127856, 53.37945678686043], [-3.1195277699769033, 53.379462427832934], [-3.1195324857177997, 53.379642165228496], [-3.119231891608556, 53.37964498459803], [-3.1192366061349155, 53.37982472200623], [-3.118334819707323, 53.37983317562952], [-3.1183301089767084, 53.37965343816627], [-3.118029514664765, 53.37965625450888], [-3.118024805250041, 53.37947651702159], [-3.1171230258061327, 53.379484961454104], [-3.117127731425145, 53.37966469899641], [-3.1165265423457074, 53.379670324871114], [-3.1165406519147507, 53.38020953757354], [-3.1171418485857862, 53.38020391158892], [-3.1171324370947566, 53.37984443653299], [-3.1177336285022963, 53.37983880759471], [-3.11773833675304, 53.380018545088895], [-3.118038933646138, 53.38001572946633], [-3.118053062498018, 53.38055494185945], [-3.118353663136345, 53.38055212542513], [-3.1183583741202434, 53.380731862859676], [-3.1180577722166003, 53.38073467931234], [-3.1180766115973877, 53.381453629066584], [-3.11777600458169, 53.38145644483585], [-3.1177807132881195, 53.38163618227839], [-3.1174801049564, 53.38163899730922], [-3.117470690124935, 53.3812795223817], [-3.116869478371168, 53.3812851500997], [-3.1168835931019707, 53.38182436259231], [-3.1165829833530236, 53.38182717537109], [-3.116592390895688, 53.38218665037414], [-3.11689300317548, 53.382183837558706], [-3.116897708288131, 53.382363575033295], [-3.1165970947428954, 53.38236638786705], [-3.1166065025890597, 53.38272586283566], [-3.1160052702849876, 53.382731486305985], [-3.1160005688675563, 53.38255174878791], [-3.115699953905148, 53.382554559369545], [-3.115690553752861, 53.3821950842796], [-3.1150893287382426, 53.38220070309925], [-3.1151081191212544, 53.382919653402574], [-3.1154087367156986, 53.38291684429797], [-3.115418134741327, 53.38327631937863], [-3.114516274213399, 53.38328474453173], [-3.1145209695054255, 53.38346448211833], [-3.114821590997442, 53.3834616744725], [-3.1148309842640747, 53.38382114959192], [-3.1151316082366836, 53.383818341152676], [-3.115141004236504, 53.384177816212585], [-3.11484037773274, 53.3841806246884], [-3.114845074542838, 53.38436036222803], [-3.114544446722965, 53.38436316996527], [-3.1145350556844633, 53.3840036948437], [-3.113933804955614, 53.38400930797449], [-3.113929112043251, 53.38382957036855], [-3.1136284878686897, 53.38383237578041], [-3.1136331795154795, 53.38401211340462], [-3.1133325540248915, 53.3840149180779], [-3.113346625471187, 53.38455413097095], [-3.1136472547585803, 53.38455132624288], [-3.113651946607192, 53.38473106384414], [-3.1133513160541706, 53.38473386859049], [-3.113360697371471, 53.385093343812386], [-3.1127594310515128, 53.38509895110747], [-3.1127406787437777, 53.38438000049469], [-3.112440050570713, 53.38438280293391], [-3.1124306772505346, 53.384023327556626], [-3.112130051558263, 53.38402612920251], [-3.1121253662393498, 53.38384639148702], [-3.11182474176227, 53.383849192357786], [-3.111820057759308, 53.383669454618335], [-3.11151943449742, 53.383672254714035], [-3.1115288000225756, 53.38403173022371], [-3.1118294258156056, 53.38402893009153], [-3.111834109919314, 53.38420866781952], [-3.1121347369275623, 53.38420586691226], [-3.112148793337786, 53.38474508000714], [-3.1118481625326835, 53.384747880969144], [-3.111857531193473, 53.38510735637353], [-3.112158164529882, 53.38510455537506], [-3.112190965289569, 53.3863627189822], [-3.1118903230931654, 53.38636552010836], [-3.1118809537270664, 53.38600604478423], [-3.1115803140117784, 53.38600884511699], [-3.111570947378644, 53.38564936973344], [-3.1109696728598664, 53.38565496805535], [-3.1109649921502522, 53.38547523031851], [-3.110664356081051, 53.3854780283259], [-3.110673715019198, 53.385837503830295], [-3.110373076368251, 53.38584030111722], [-3.110377754647081, 53.38602003887904], [-3.1100771146800916, 53.38602283542726], [-3.1100958232354885, 53.38674178649003], [-3.1097951781551343, 53.38674458235419], [-3.109799854153936, 53.38692432012376], [-3.110100500500091, 53.38692152424137], [-3.1101238875776653, 53.38782021291222], [-3.11042454020272, 53.387817416181846], [-3.1104432558338995, 53.388536366942475], [-3.1098419404062683, 53.38854195979196], [-3.109837263954835, 53.38836222207397], [-3.109536607431492, 53.38836501734506], [-3.109531932296264, 53.388185279603135], [-3.109832587553697, 53.38818248435027], [-3.109827911202854, 53.38800274662081], [-3.108324640742506, 53.388016715224516], [-3.108319970771377, 53.38783697739837], [-3.107718664767337, 53.387842559504776], [-3.107713997378179, 53.38766282163652], [-3.107413345566729, 53.387665611536114], [-3.107432010360971, 53.38838456304735], [-3.107732667235999, 53.38838177307508], [-3.1077420024661047, 53.38874124875997], [-3.10714068360212, 53.38874682802021], [-3.107131353435757, 53.38838735226263], [-3.1065300394348245, 53.38839292842231], [-3.1065393645374386, 53.38875240425251], [-3.106840024094859, 53.38874961651485], [-3.1068493519299905, 53.389109092285814], [-3.1071500139691812, 53.38910630375486], [-3.107154679227974, 53.38928604161358], [-3.106553352567465, 53.389291617954825], [-3.106576666953834, 53.39019030734412], [-3.106275997218215, 53.39019309447], [-3.1062666738453086, 53.38983361869517], [-3.105966006591646, 53.38983640502772], [-3.1059566859513317, 53.3894769291937], [-3.1053553563577347, 53.38948249951522], [-3.1053693297972207, 53.39002171336651], [-3.1050686611271847, 53.390024497446156], [-3.1050779744718673, 53.390383973354645], [-3.104777303219618, 53.39038675671354], [-3.104781958701004, 53.390566494677316], [-3.104481286132596, 53.3905692772973], [-3.1044905947133703, 53.39092875324389], [-3.104791269813991, 53.39092597058768], [-3.104795925445594, 53.39110570853427], [-3.104495249078848, 53.39110849120862], [-3.1045045579599893, 53.39146796712087], [-3.1042038790108872, 53.39147074907439], [-3.104208532260383, 53.39165048704003], [-3.105411252821026, 53.39163935461104], [-3.1054159111852937, 53.39181909249846], [-3.1057165924664063, 53.391816307480404], [-3.105725911877654, 53.39217578320176], [-3.1060265956410453, 53.392172997390354], [-3.1060359177852237, 53.392532473052505], [-3.1063366040309317, 53.39252968644772], [-3.106341266444468, 53.392709424252054], [-3.106641953906272, 53.39270663687203]], [[-3.105101258710083, 53.3912826630256], [-3.104800581127274, 53.39128544647514], [-3.104795925445594, 53.39110570853427], [-3.105096601762265, 53.391102925102864], [-3.105101258710083, 53.3912826630256]], [[-3.1093013903067765, 53.39088413989906], [-3.1083993671117565, 53.39089251966356], [-3.108390025612337, 53.39053304418891], [-3.108690697528741, 53.39053025172749], [-3.1086860255883093, 53.39035051399974], [-3.1089866961883885, 53.3903477207995], [-3.108991369394894, 53.39052745850904], [-3.1092920412107836, 53.39052466453355], [-3.1093013903067765, 53.39088413989906]], [[-3.1068913296711904, 53.39072673297155], [-3.1065906561874814, 53.39072952090892], [-3.1065859930594457, 53.39054978305972], [-3.1068866652770595, 53.3905469951405], [-3.1068913296711904, 53.39072673297155]], [[-3.1065859930594457, 53.39054978305972], [-3.1062853207916774, 53.390552570221914], [-3.106280658979876, 53.39037283234881], [-3.1065813299815628, 53.390370045204776], [-3.1065859930594457, 53.39054978305972]], [[-3.111688044774885, 53.390142810379714], [-3.1101846998654574, 53.39015680278576], [-3.110165987486676, 53.38943785215861], [-3.1116693070756503, 53.38942386011708], [-3.111673991424885, 53.389603597691334], [-3.1119746564575914, 53.38960079699378], [-3.111979342123223, 53.38978053454408], [-3.1116786758245025, 53.38978333525987], [-3.111688044774885, 53.390142810379714]], [[-3.108681353698128, 53.3901707762663], [-3.1083806843138637, 53.390173568691345], [-3.108376013739979, 53.38999383093395], [-3.1086766818581935, 53.38999103852709], [-3.108681353698128, 53.3901707762663]], [[-3.108376013739979, 53.38999383093395], [-3.107774677352861, 53.389999413476616], [-3.10776534141991, 53.38963993787194], [-3.1074646756830955, 53.38964272797139], [-3.1074600090579376, 53.389462990142306], [-3.1077606735287406, 53.38946020006101], [-3.1077560056877775, 53.389280462244336], [-3.1074553424829707, 53.38928325230746], [-3.1074460094836054, 53.388923776620615], [-3.1077466701564607, 53.38892098659383], [-3.1077420024661047, 53.38874124875997], [-3.1080426618228034, 53.388738457994386], [-3.1080660071065185, 53.38963714701546], [-3.1083666727429082, 53.38963435540199], [-3.108376013739979, 53.38999383093395]], [[-3.1098746769746253, 53.38980012365736], [-3.1095740103235134, 53.389802919074086], [-3.109569334786013, 53.38962318137802], [-3.1098700001711053, 53.389620385979505], [-3.1098746769746253, 53.38980012365736]], [[-3.1119699708423574, 53.389421059437765], [-3.1116693070756503, 53.38942386011708], [-3.111659938528322, 53.389064384951354], [-3.112261260947421, 53.38905878290871], [-3.1122659477278405, 53.38923852045796], [-3.1119652852775155, 53.389241321876014], [-3.1119699708423574, 53.389421059437765]], [[-3.1146712455146246, 53.38921608186172], [-3.114370583467943, 53.38921888933572], [-3.114365887825739, 53.38903915191434], [-3.114065226994521, 53.38904195861306], [-3.114060532668773, 53.38886222116768], [-3.114661851748802, 53.388856607049796], [-3.1146712455146246, 53.38921608186172]], [[-3.114643064823331, 53.38813765735711], [-3.114041755870654, 53.38814327132874], [-3.114037061797338, 53.38796353385465], [-3.1137364085111514, 53.38796633968677], [-3.1137317157541933, 53.387786602188704], [-3.1134310636834086, 53.387789407245556], [-3.113412298223622, 53.38707045712286], [-3.1137129452310504, 53.38706765213904], [-3.113717637786134, 53.38724738966006], [-3.1140182860089114, 53.387244583901044], [-3.1140323677745068, 53.38778379637486], [-3.1146336716636713, 53.387778182476346], [-3.114643064823331, 53.38813765735711]], [[-3.116141633386327, 53.387943871835155], [-3.1155403274707383, 53.3879494933398], [-3.1155309268169242, 53.38759001855735], [-3.115831577268278, 53.387587208220104], [-3.1158268757513565, 53.38740747083856], [-3.116127524886307, 53.38740465976268], [-3.116141633386327, 53.387943871835155]], [[-3.111603731476051, 53.386907533475544], [-3.1113030853815458, 53.38691033314257], [-3.1112984030537487, 53.3867305954641], [-3.110997758174685, 53.38673339435598], [-3.110993077163028, 53.38655365665353], [-3.1115943643392328, 53.386548058149316], [-3.111603731476051, 53.386907533475544]], [[-3.1136847909603285, 53.38598922689257], [-3.1133841515475287, 53.38599203176678], [-3.113379460611423, 53.38581229418737], [-3.113680098758499, 53.385809489331436], [-3.1136847909603285, 53.38598922689257]], [[-3.1217736784923926, 53.38483478669794], [-3.121473048040875, 53.384837611898035], [-3.121468323235371, 53.38465787477914], [-3.1217689524212657, 53.38465504959742], [-3.1217736784923926, 53.38483478669794]], [[-3.1183866410875054, 53.38181028734657], [-3.117785422045186, 53.38181591971523], [-3.1177807132881195, 53.38163618227839], [-3.11838192979964, 53.38163054994644], [-3.1183866410875054, 53.38181028734657]], [[-3.125892376188202, 53.38138015343823], [-3.1255917704937803, 53.38138298888358], [-3.125587028938537, 53.38120325191364], [-3.125887633367604, 53.38120041648674], [-3.125892376188202, 53.38138015343823]], [[-3.119861382878308, 53.38071776924498], [-3.1195607812280928, 53.38072058948143], [-3.119551349188483, 53.38036111475341], [-3.1198519483080824, 53.380358294553695], [-3.119861382878308, 53.38071776924498]], [[-3.1204531463950897, 53.38035265188401], [-3.1201525473769554, 53.38035547359723], [-3.120147828902646, 53.38017573626134], [-3.119847231099059, 53.38017855719943], [-3.11984251394076, 53.37999881983943], [-3.120443706966653, 53.379993177243264], [-3.1204531463950897, 53.38035265188401]], [[-3.119551349188483, 53.38036111475341], [-3.1189501507971635, 53.38036675288261], [-3.118940724021524, 53.38000727805819], [-3.1192413207119705, 53.38000445940868], [-3.1192460353397222, 53.380184196805395], [-3.119546633244746, 53.38018137738078], [-3.119551349188483, 53.38036111475341]]]}, "properties": {"kind": "max_footprint", "threshold_pct": 4.0}}, {"type": "Feature", "geometry": {"type": "Polygon", "coordinates": [[[-3.109893384691722, 53.3905190743115], [-3.1098887076869945, 53.390339336656574], [-3.109588037237743, 53.3903421321279], [-3.1095927129763985, 53.390521869801056], [-3.109893384691722, 53.3905190743115]]]}, "properties": {"kind": "max_footprint", "threshold_pct": 7.0}}, {"type": "Feature", "geometry": {"type": "Polygon", "coordinates": [[[-3.1083853549379836, 53.39035330644298], [-3.1083806843138637, 53.390173568691345], [-3.108080014879365, 53.39017636035936], [-3.1080846842374203, 53.39035609812918], [-3.1083853549379836, 53.39035330644298]]]}, "properties": {"kind": "max_footprint", "threshold_pct": 7.0}}, {"type": "Feature", "geometry": {"type": "Polygon", "coordinates": [[[-3.1125806745694593, 53.389774930841476], [-3.112575986371803, 53.38959519332767], [-3.1122753214399013, 53.38959799553923], [-3.112280008371546, 53.38977773307128], [-3.1125806745694593, 53.389774930841476]]]}, "properties": {"kind": "max_footprint", "threshold_pct": 7.0}}, {"type": "Feature", "geometry": {"type": "Polygon", "coordinates": [[[-3.114055838393513, 53.388682483716536], [-3.1140511441687404, 53.38850274625967], [-3.1137504870848547, 53.38850555214659], [-3.113745794176483, 53.38832581466573], [-3.113445138308037, 53.38832861977739], [-3.1134545216434137, 53.388688094769954], [-3.114055838393513, 53.388682483716536]]]}, "properties": {"kind": "max_footprint", "threshold_pct": 7.0}}, {"type": "Feature", "geometry": {"type": "Polygon", "coordinates": [[[-3.113445138308037, 53.38832861977739], [-3.1134404467160364, 53.388148882272525], [-3.113139792063035, 53.38815168660898], [-3.113144482389134, 53.38833142413211], [-3.113445138308037, 53.38832861977739]]]}, "properties": {"kind": "max_footprint", "threshold_pct": 7.0}}, {"type": "Feature", "geometry": {"type": "Polygon", "coordinates": [[[-3.113139792063035, 53.38815168660898], [-3.11313510178738, 53.38797194908009], [-3.112834448349822, 53.38797475264131], [-3.112839137359589, 53.38815449018845], [-3.113139792063035, 53.38815168660898]]]}, "properties": {"kind": "max_footprint", "threshold_pct": 7.0}}, {"type": "Feature", "geometry": {"type": "Polygon", "coordinates": [[[-3.11163183409543, 53.38798595931664], [-3.111627150199599, 53.38780622169079], [-3.111326497775908, 53.387809021449], [-3.1113311804058608, 53.38798875909307], [-3.11163183409543, 53.38798595931664]]]}, "properties": {"kind": "max_footprint", "threshold_pct": 7.0}}, {"type": "Feature", "geometry": {"type": "Polygon", "coordinates": [[[-3.111326497775908, 53.387809021449], [-3.1113218151963165, 53.38762928379918], [-3.1110211639881284, 53.38763208278218], [-3.1110258453018544, 53.38781182045024], [-3.111326497775908, 53.387809021449]]]}, "properties": {"kind": "max_footprint", "threshold_pct": 7.0}}, {"type": "Feature", "geometry": {"type": "Polygon", "coordinates": [[[-3.1110164827247497, 53.38745234510842], [-3.111011801511716, 53.38727260742891], [-3.1107111527848734, 53.38727540561851], [-3.1107158327320668, 53.387455143316245], [-3.1110164827247497, 53.38745234510842]]]}, "properties": {"kind": "max_footprint", "threshold_pct": 7.0}}, {"type": "Feature", "geometry": {"type": "Polygon", "coordinates": [[[-3.1110071203490284, 53.387092869743654], [-3.110997758174685, 53.38673339435598], [-3.110697113245277, 53.38673619249091], [-3.1107064728880096, 53.387095667915034], [-3.1110071203490284, 53.387092869743654]]]}, "properties": {"kind": "max_footprint", "threshold_pct": 7.0}}, {"type": "Feature", "geometry": {"type": "Polygon", "coordinates": [[[-3.110993077163028, 53.38655365665353], [-3.110979034430109, 53.38601444351182], [-3.110377754647081, 53.38602003887904], [-3.1103871113556822, 53.38637951438544], [-3.1106877538038624, 53.38637671704386], [-3.1106924334994055, 53.38655645477026], [-3.110993077163028, 53.38655365665353]]]}, "properties": {"kind": "max_footprint", "threshold_pct": 7.0}}, {"type": "Feature", "geometry": {"type": "Polygon", "coordinates": [[[-3.1127922495311755, 53.38635711445913], [-3.112778184165939, 53.38581790162854], [-3.1124775458675575, 53.38582070421377], [-3.1124916074355773, 53.38635991709912], [-3.1127922495311755, 53.38635711445913]]]}, "properties": {"kind": "max_footprint", "threshold_pct": 7.0}}, {"type": "Feature", "geometry": {"type": "Polygon", "coordinates": [[[-3.1133841515475287, 53.38599203176678], [-3.113374769725763, 53.38563255660222], [-3.1130741327939506, 53.38563536068299], [-3.1130835120842804, 53.385994835884084], [-3.1133841515475287, 53.38599203176678]]]}, "properties": {"kind": "max_footprint", "threshold_pct": 7.0}}, {"type": "Feature", "geometry": {"type": "Polygon", "coordinates": [[[-3.11578456437434, 53.38578983414674], [-3.1157798633630223, 53.385610096707865], [-3.11547922683517, 53.38561290684379], [-3.115483926580782, 53.38579264430098], [-3.11578456437434, 53.38578983414674]]]}, "properties": {"kind": "max_footprint", "threshold_pct": 7.0}}, {"type": "Feature", "geometry": {"type": "Polygon", "coordinates": [[[-3.1142719855861682, 53.38544440228249], [-3.114267291004358, 53.385264664740674], [-3.113966656755304, 53.38526747105557], [-3.1139713500714334, 53.385447208615645], [-3.1142719855861682, 53.38544440228249]]]}, "properties": {"kind": "max_footprint", "threshold_pct": 7.0}}, {"type": "Feature", "geometry": {"type": "Polygon", "coordinates": [[[-3.1130694432244366, 53.38545562307385], [-3.1130647537053555, 53.385275885458995], [-3.1127641192544906, 53.38527868874634], [-3.1127688075078868, 53.38545842637949], [-3.1130694432244366, 53.38545562307385]]]}, "properties": {"kind": "max_footprint", "threshold_pct": 7.0}}, {"type": "Feature", "geometry": {"type": "Polygon", "coordinates": [[[-3.117874898051146, 53.38523092992501], [-3.1178701883318656, 53.38505119259716], [-3.1175695559552112, 53.38505400797632], [-3.117574264408831, 53.3852337453225], [-3.117874898051146, 53.38523092992501]]]}, "properties": {"kind": "max_footprint", "threshold_pct": 7.0}}, {"type": "Feature", "geometry": {"type": "Polygon", "coordinates": [[[-3.1148685593509917, 53.38525904984021], [-3.1148638622883364, 53.38507931232923], [-3.1145632294059347, 53.385082120139636], [-3.1145679252029272, 53.38526185766889], [-3.1148685593509917, 53.38525904984021]]]}, "properties": {"kind": "max_footprint", "threshold_pct": 7.0}}, {"type": "Feature", "geometry": {"type": "Polygon", "coordinates": [[[-3.113966656755304, 53.38526747105557], [-3.1139572702744656, 53.38490799591821], [-3.1136566385062614, 53.384910801439695], [-3.113666022455776, 53.385270276613596], [-3.113966656755304, 53.38526747105557]]]}, "properties": {"kind": "max_footprint", "threshold_pct": 7.0}}, {"type": "Feature", "geometry": {"type": "Polygon", "coordinates": [[[-3.1172689235279205, 53.3850568225986], [-3.117264216390582, 53.38487708522836], [-3.1169635851783153, 53.38487989907543], [-3.1169682910500063, 53.385059636463986], [-3.1172689235279205, 53.3850568225986]]]}, "properties": {"kind": "max_footprint", "threshold_pct": 7.0}}, {"type": "Feature", "geometry": {"type": "Polygon", "coordinates": [[[-3.119373349455132, 53.38503710434831], [-3.119368633458287, 53.384857367106484], [-3.1199698950213843, 53.38485172654555], [-3.119965176544002, 53.38467198933472], [-3.119664547053445, 53.384674809975245], [-3.1196598298924187, 53.38449507274031], [-3.1193592016167453, 53.384497892605616], [-3.119354485772047, 53.38431815534657], [-3.1187532315997712, 53.38432379276988], [-3.118757944913268, 53.38450353006565], [-3.1184573164854896, 53.38450634766038], [-3.118466740733298, 53.38486582227136], [-3.1178654786632376, 53.3848714552636], [-3.1178701883318656, 53.38505119259716], [-3.119373349455132, 53.38503710434831]]]}, "properties": {"kind": "max_footprint", "threshold_pct": 7.0}}, {"type": "Feature", "geometry": {"type": "Polygon", "coordinates": [[[-3.1175601391998784, 53.38469453326677], [-3.1175460144466345, 53.38415532115942], [-3.1172453883474374, 53.38415813569006], [-3.117259509303866, 53.38469734785239], [-3.1175601391998784, 53.38469453326677]]]}, "properties": {"kind": "max_footprint", "threshold_pct": 7.0}}, {"type": "Feature", "geometry": {"type": "Polygon", "coordinates": [[[-3.1190444297051703, 53.38396149986466], [-3.119035000901876, 53.383602025269724], [-3.118734378852658, 53.38360484352954], [-3.118743805124843, 53.38396431816119], [-3.1190444297051703, 53.38396149986466]]]}, "properties": {"kind": "max_footprint", "threshold_pct": 7.0}}, {"type": "Feature", "geometry": {"type": "Polygon", "coordinates": [[[-3.117607225002034, 53.38649190658513], [-3.117602516193943, 53.386312169279094], [-3.1173018749067483, 53.38631498402968], [-3.1172924599739575, 53.38595550936377], [-3.1169918211676064, 53.3859583233208], [-3.116987115042866, 53.3857785859609], [-3.116686477451617, 53.38578139914272], [-3.1166723631781243, 53.38524218697368], [-3.1163717293333453, 53.38524499934364], [-3.116357619312158, 53.38470578706803], [-3.1166582493599924, 53.38470297475302], [-3.1166535448551365, 53.38452323733466], [-3.116352916072924, 53.38452604963138], [-3.116343509746191, 53.384166574740824], [-3.1160428834446012, 53.38416938624404], [-3.116019374840636, 53.38327069882576], [-3.115718754816255, 53.38327350948061], [-3.1157281555750864, 53.38363298450173], [-3.11542753296909, 53.38363579443636], [-3.115465127901584, 53.38507369443784], [-3.115765760632405, 53.38507088435682], [-3.1157798633630223, 53.385610096707865], [-3.1160804998403195, 53.385607285815055], [-3.1160852021173406, 53.38578702323563], [-3.116385839809771, 53.38578421156762], [-3.116399950741456, 53.386323423739995], [-3.1167005921804902, 53.386320611260125], [-3.1167052971913165, 53.386500348621155], [-3.117607225002034, 53.38649190658513]]]}, "properties": {"kind": "max_footprint", "threshold_pct": 7.0}}, {"type": "Feature", "geometry": {"type": "Polygon", "coordinates": [[[-3.122633002561134, 53.38320867294226], [-3.1226282731509083, 53.38302893584532], [-3.1223276555074975, 53.383031763131896], [-3.122332383652224, 53.38321150024724], [-3.122633002561134, 53.38320867294226]]]}, "properties": {"kind": "max_footprint", "threshold_pct": 7.0}}, {"type": "Feature", "geometry": {"type": "Polygon", "coordinates": [[[-3.1181237135948456, 53.38325100305067], [-3.118114292790133, 53.38289152829974], [-3.117813675650964, 53.38289434421572], [-3.117808966590071, 53.38271460681329], [-3.117508350665743, 53.38271742195409], [-3.11752247420386, 53.383256634199114], [-3.1181237135948456, 53.38325100305067]]]}, "properties": {"kind": "max_footprint", "threshold_pct": 7.0}}, {"type": "Feature", "geometry": {"type": "Polygon", "coordinates": [[[-3.1172077346907905, 53.3827202363381], [-3.117203028211475, 53.382540498893306], [-3.1169024134513785, 53.38254331250217], [-3.116907118665225, 53.38272304996528], [-3.1172077346907905, 53.3827202363381]]]}, "properties": {"kind": "max_footprint", "threshold_pct": 7.0}}, {"type": "Feature", "geometry": {"type": "Polygon", "coordinates": [[[-3.121148800347108, 53.38394175059737], [-3.1211440770612047, 53.38376201343137], [-3.1214446999700005, 53.3837591890985], [-3.1214399754693525, 53.383579451945174], [-3.1208387321320523, 53.3835850998173], [-3.120834010213266, 53.38340536262144], [-3.1205333897339678, 53.38340818540388], [-3.1205239485797507, 53.38304871095819], [-3.120223330580707, 53.38305153294705], [-3.120218611345234, 53.38287179569721], [-3.11991799456093, 53.382874616910875], [-3.1199132766416815, 53.38269487963695], [-3.1211157384124446, 53.38268359031493], [-3.1211204613935934, 53.38286332751534], [-3.121421077974818, 53.38286050327443], [-3.1214163537281956, 53.38268076609242], [-3.1220175842072755, 53.38267511537694], [-3.1220128574805392, 53.382495378225975], [-3.121712243531866, 53.3824982039437], [-3.121707518121404, 53.3823184667686], [-3.1214069053873597, 53.38232129171114], [-3.121402181293145, 53.3821415545119], [-3.120500346582559, 53.38215002474355], [-3.1205050668804746, 53.38232976199797], [-3.1199038409553905, 53.382335405071856], [-3.1198991231883455, 53.382155667780694], [-3.119598511415133, 53.38215848816408], [-3.119579645915881, 53.381439538868655], [-3.1198802526274863, 53.38143671855874], [-3.119875535114098, 53.381256981238906], [-3.120176140509605, 53.3812541601906], [-3.120171421781593, 53.38107442288341], [-3.119570213470558, 53.38108006418653], [-3.1195607812280928, 53.38072058948143], [-3.119260179527167, 53.380723408961124], [-3.119255464747319, 53.38054367158163], [-3.118954864261009, 53.38054649028619], [-3.1189595777755414, 53.38072622768407], [-3.1186589759732293, 53.38072904565025], [-3.1186731130249146, 53.38126825786448], [-3.118973718623257, 53.38126543984324], [-3.118978432340538, 53.38144517721813], [-3.1183772185624377, 53.38145081254054], [-3.11838192979964, 53.38163054994644], [-3.1189831461085085, 53.38162491458733], [-3.118992573796519, 53.38198438930848], [-3.1186919631366146, 53.381987207403135], [-3.1186966757912318, 53.38216694477345], [-3.118095451788551, 53.382172578729055], [-3.1181001619629667, 53.38235231613033], [-3.11840077525508, 53.38234949951258], [-3.118414909878647, 53.38288871162696], [-3.118715526916494, 53.38288589419737], [-3.118724952783211, 53.383245368874924], [-3.119025572301375, 53.383242550651815], [-3.119030286576276, 53.38342228796362], [-3.1193309073092634, 53.383419468965336], [-3.119335622900396, 53.38359920625306], [-3.119636244848204, 53.38359638647958], [-3.119640961755595, 53.38377612374321], [-3.1202422080301115, 53.38377048188899], [-3.1202469275193434, 53.38395021911011], [-3.121148800347108, 53.38394175059737]]]}, "properties": {"kind": "max_footprint", "threshold_pct": 7.0}}, {"type": "Feature", "geometry": {"type": "Polygon", "coordinates": [[[-3.1186495515254693, 53.38036957081209], [-3.1186448393775956, 53.38018983338439], [-3.11834424132052, 53.38019265053878], [-3.118348952203103, 53.38037238798482], [-3.1186495515254693, 53.38036957081209]]]}, "properties": {"kind": "max_footprint", "threshold_pct": 7.0}}, {"type": "Feature", "geometry": {"type": "Polygon", "coordinates": [[[-3.1210685113942587, 53.380886217995176], [-3.1210496220089237, 53.38016726890663], [-3.121350219609478, 53.38016444494158], [-3.1213454961248255, 53.37998470767348], [-3.120744303403479, 53.37999035481006], [-3.1207537453624723, 53.38034982941408], [-3.1204531463950897, 53.38035265188401], [-3.120457866185437, 53.38053238919581], [-3.1201572659020043, 53.38053521092738], [-3.1201619844777926, 53.380714948251764], [-3.120462586026538, 53.380712126501805], [-3.1204673059183934, 53.38089186380212], [-3.1210685113942587, 53.380886217995176]]]}, "properties": {"kind": "max_footprint", "threshold_pct": 7.0}}, {"type": "Feature", "geometry": {"type": "Polygon", "coordinates": [[[-3.119847231099059, 53.38017855719943], [-3.11984251394076, 53.37999881983943], [-3.1195419173517194, 53.380001640002426], [-3.119546633244746, 53.38018137738078], [-3.119847231099059, 53.38017855719943]]]}, "properties": {"kind": "max_footprint", "threshold_pct": 7.0}}, {"type": "Feature", "geometry": {"type": "Polygon", "coordinates": [[[-3.1222331032894917, 53.379437019619985], [-3.1222283762123633, 53.37925728238415], [-3.1219277850904295, 53.37926010852738], [-3.1219325109023464, 53.37943984578165], [-3.1222331032894917, 53.379437019619985]]]}, "properties": {"kind": "max_footprint", "threshold_pct": 7.0}}, {"type": "Feature", "geometry": {"type": "Polygon", "coordinates": [[[-3.128540778010326, 53.37919775857575], [-3.128531270870818, 53.37883828486206], [-3.127930095777123, 53.37884396809966], [-3.1279348467909798, 53.37902370499638], [-3.1282354356285476, 53.37902086373744], [-3.128240187958676, 53.379200600609906], [-3.128540778010326, 53.37919775857575]]]}, "properties": {"kind": "max_footprint", "threshold_pct": 7.0}}, {"type": "Feature", "geometry": {"type": "Polygon", "coordinates": [[[-3.1241266249180355, 53.38283505104966], [-3.124121889282187, 53.38265531403339], [-3.124723118845465, 53.38264964969542], [-3.124718380729639, 53.382469912710306], [-3.12441776723892, 53.38247274523924], [-3.1244130304394817, 53.38229300822993], [-3.1241124181632642, 53.38229583998364], [-3.1241076826801897, 53.38211610295014], [-3.123807071618475, 53.3821189339286], [-3.1238023374517363, 53.38193919687094], [-3.1235017276045225, 53.381942027074196], [-3.123496994754093, 53.38176228999236], [-3.1231963861213856, 53.38176511942039], [-3.1231916545872354, 53.381585382314384], [-3.1228910471690345, 53.381588210967216], [-3.122886316951139, 53.38140847383708], [-3.1237881352569676, 53.3813999856635], [-3.1237928692709835, 53.381579722738394], [-3.124093476536503, 53.38157689181522], [-3.124088741257117, 53.38139715475877], [-3.125291164748369, 53.38138582357215], [-3.125281684219564, 53.381026349589625], [-3.124981080953875, 53.381029183484515], [-3.1249668643389064, 53.38048997241231], [-3.1252674638086524, 53.38048713857276], [-3.125272203894651, 53.38066687558412], [-3.125572804578726, 53.38066404096938], [-3.125577545981009, 53.38084377795654], [-3.1258781478794115, 53.38084094256658], [-3.1258686625952183, 53.38048146862346], [-3.1261692619120107, 53.3804786325137], [-3.126164518081126, 53.38029889555198], [-3.126465116081623, 53.38029605870394], [-3.1264603710364796, 53.38011632175495], [-3.1267609677206827, 53.38011348416867], [-3.1267514752529686, 53.379754010290455], [-3.126450881099265, 53.3797568478398], [-3.1264413913661397, 53.379397373901675], [-3.1261407996918598, 53.379400210657344], [-3.1261360561670313, 53.37922047366119], [-3.1270378272411907, 53.37921196117946], [-3.127033079971805, 53.379032224233015], [-3.127634257902325, 53.37902654549863], [-3.12762950815364, 53.378846808583404], [-3.127930095777123, 53.37884396809966], [-3.1279110922325604, 53.378125020455364], [-3.1282116747444086, 53.37812217928892], [-3.1282164268190393, 53.37830191619011], [-3.1285170105449076, 53.3782990742485], [-3.1285075039165275, 53.3779396004774], [-3.1288080850610682, 53.3779367578161], [-3.128803330558456, 53.37775702094046], [-3.1291039103867844, 53.377754177541014], [-3.1290943990047966, 53.37739470380953], [-3.129996130592519, 53.37738616918238], [-3.129991371183094, 53.377206432363565], [-3.1296907953033886, 53.377209277977435], [-3.129686037210169, 53.37702954113439], [-3.129385462544334, 53.377032385973074], [-3.1293759490413984, 53.37667291223265], [-3.1290753768544364, 53.37667575627765], [-3.12907062144468, 53.376496019380305], [-3.1308740462090454, 53.37647894387205], [-3.130850231978763, 53.375580259855234], [-3.131150796268928, 53.37557741138172], [-3.131131740746937, 53.37485846413908], [-3.1314322999263426, 53.374855614983176], [-3.1314132401645547, 53.37413666772287], [-3.1317137942334106, 53.3741338178846], [-3.131704262130327, 53.373774344257114], [-3.1314037105910475, 53.37377719405825], [-3.1313941812224577, 53.37341772037066], [-3.1316947302322165, 53.37341487060664], [-3.131685198539069, 53.37305539693317], [-3.131384652058778, 53.37305824666008], [-3.131346537453053, 53.37162035158809], [-3.130745464573478, 53.371626048475555], [-3.1307407030074734, 53.371446311528615], [-3.130440167755496, 53.37144915881905], [-3.130435407505277, 53.37126942184783], [-3.129533805236111, 53.3712779591246], [-3.129538561692547, 53.37145769615141], [-3.1289374907282004, 53.37146338392386], [-3.1289327368009587, 53.37128364686002], [-3.1283316681613664, 53.37128933156945], [-3.1283364195594103, 53.371469068670315], [-3.1277353481862873, 53.3714747503908], [-3.1277400971061895, 53.37165448752293], [-3.12713902299961, 53.371660166254394], [-3.1271437694413127, 53.371839903417744], [-3.1265426926013533, 53.37184557916018], [-3.1265474365648016, 53.372025316354744], [-3.126246896803665, 53.37202815310966], [-3.126251639553459, 53.37220789031697], [-3.125951098476673, 53.37221072633385], [-3.1259653232379487, 53.37274993797671], [-3.126265868108793, 53.37274710190443], [-3.126284840229821, 53.373466050607355], [-3.1265853901086014, 53.373463213704646], [-3.12659487900464, 53.3738226879847], [-3.125993774136987, 53.373828361107435], [-3.126003258177867, 53.37418783543843], [-3.1251015929052204, 53.37419633955907], [-3.1251063312076695, 53.37437607677131], [-3.124505218241504, 53.3743817424391], [-3.124524161841897, 53.37510069137831], [-3.124824723409883, 53.37509785884893], [-3.1248294607021774, 53.37527759605094], [-3.1245288978692978, 53.37528042859876], [-3.1245383700768663, 53.375639903022446], [-3.1242378046632355, 53.37564273485055], [-3.12423306979891, 53.37546299762314], [-3.123631941348774, 53.375468658972636], [-3.1236366736832553, 53.375648396236926], [-3.1233361081169324, 53.37565122579518], [-3.1233408392373594, 53.37583096307216], [-3.123641406068619, 53.37582813349545], [-3.1236461385048653, 53.37600787074825], [-3.1242472745446177, 53.37600220928815], [-3.1242662149183307, 53.3767211580945], [-3.12396564186397, 53.3767239892766], [-3.123970375819666, 53.376903726482276], [-3.1242709501390444, 53.37690089528172], [-3.1242804207332178, 53.377260369638975], [-3.1236792669834093, 53.37726603135716], [-3.123683999826755, 53.37744576856405], [-3.123383421610449, 53.37744859830658], [-3.123392884919653, 53.37780807273996], [-3.123693465666118, 53.37780524296059], [-3.123712397955555, 53.378524191684825], [-3.123411812148607, 53.37852702153793], [-3.123416544083047, 53.37870675872305], [-3.1222141952859523, 53.378718070642165], [-3.1222094684121378, 53.37853833338337], [-3.121908882350918, 53.378541159452986], [-3.1219183336190444, 53.37890063400167], [-3.122218922210593, 53.37889780789524], [-3.122223649186063, 53.37907754514256], [-3.1225242389919683, 53.379074718260995], [-3.1225336956258087, 53.37943419270163], [-3.1222331032894917, 53.379437019619985], [-3.1222472848258667, 53.3799762312931], [-3.121946688643002, 53.37997905750996], [-3.121956140724199, 53.38033853196682], [-3.122256739437614, 53.38033570571315], [-3.122261466819739, 53.380515442914565], [-3.122862666624636, 53.380509788100184], [-3.1228768566679457, 53.381048999559525], [-3.1222756492711254, 53.38105465448441], [-3.122270921736492, 53.3808749173002], [-3.1219703192271546, 53.38087774360908], [-3.1219750454964514, 53.381057480811684], [-3.1216744416709545, 53.38106030638222], [-3.1216933421949062, 53.381779255208855], [-3.1219939510818824, 53.38177642956474], [-3.1220034041795537, 53.382135903906835], [-3.1226046268626515, 53.3821302502746], [-3.122614085225383, 53.38248972452011], [-3.123215312766801, 53.382484067787026], [-3.1232200445553624, 53.38266380486432], [-3.123821274424153, 53.38265814506718], [-3.1238260087945355, 53.382837882101896], [-3.1241266249180355, 53.38283505104966]], [[-3.1240413912637552, 53.37959978387862], [-3.123440204518494, 53.37960544456266], [-3.1234354723296365, 53.37942570740623], [-3.123134880145894, 53.37942853659475], [-3.123125418451238, 53.3790690622278], [-3.1225242389919683, 53.379074718260995], [-3.1225195107513133, 53.378894981032104], [-3.123721864405641, 53.37888366601252], [-3.1237313310593118, 53.379243140317236], [-3.1240319218760617, 53.37924030963372], [-3.1240224526920146, 53.378880835365855], [-3.1246236291120204, 53.378875171802456], [-3.1246283662089485, 53.379054908902376], [-3.1243277767592277, 53.37905774108087], [-3.124337248575499, 53.37941721530037], [-3.1240366565444524, 53.37942004675903], [-3.1240413912637552, 53.37959978387862]], [[-3.124017718176357, 53.378701098223324], [-3.1237171311551486, 53.378703928851536], [-3.123712397955555, 53.378524191684825], [-3.1240129837116086, 53.37852136107504], [-3.124017718176357, 53.378701098223324]], [[-3.128793821706601, 53.37739754717195], [-3.1281926669568567, 53.37740323162677], [-3.1281736599868175, 53.37668428387277], [-3.128474232327136, 53.376681442097706], [-3.128488491273086, 53.377220652866306], [-3.1287890673573564, 53.377217810279056], [-3.128793821706601, 53.37739754717195]], [[-3.130850231978763, 53.375580259855234], [-3.1305496676373887, 53.37558310757212], [-3.1305449062098685, 53.375403370733], [-3.1308454692863386, 53.37540052303464], [-3.130850231978763, 53.375580259855234]]]}, "properties": {"kind": "max_footprint", "threshold_pct": 7.0}}, {"type": "Feature", "geometry": {"type": "Polygon", "coordinates": [[[-3.1160381816226836, 53.38398964877186], [-3.116028778130536, 53.38363017381029], [-3.1157281555750864, 53.38363298450173], [-3.1157375565361107, 53.383992459499915], [-3.1160381816226836, 53.38398964877186]]]}, "properties": {"kind": "max_footprint", "threshold_pct": 10.0}}, {"type": "Feature", "geometry": {"type": "Polygon", "coordinates": [[[-3.1202374885916324, 53.38359074466211], [-3.120232769203906, 53.383411007429494], [-3.119932148623093, 53.383413828698274], [-3.1199368667452876, 53.38359356594925], [-3.1202374885916324, 53.38359074466211]]]}, "properties": {"kind": "max_footprint", "threshold_pct": 10.0}}, {"type": "Feature", "geometry": {"type": "Polygon", "coordinates": [[[-3.119932148623093, 53.383413828698274], [-3.1199274305516345, 53.38323409144154], [-3.1196268111856003, 53.38323691193512], [-3.1196315279915408, 53.383416649210226], [-3.119932148623093, 53.383413828698274]]]}, "properties": {"kind": "max_footprint", "threshold_pct": 10.0}}, {"type": "Feature", "geometry": {"type": "Polygon", "coordinates": [[[-3.1214116295323766, 53.38250102890464], [-3.1214069053873597, 53.38232129171114], [-3.1205050668804746, 53.38232976199797], [-3.12050978722915, 53.38250949924664], [-3.1214116295323766, 53.38250102890464]]]}, "properties": {"kind": "max_footprint", "threshold_pct": 10.0}}, {"type": "Feature", "geometry": {"type": "Polygon", "coordinates": [[[-3.1195937949642416, 53.38197875084883], [-3.1195890785640716, 53.38179901352785], [-3.119288469270972, 53.381801833117706], [-3.1192931844057337, 53.38198157045705], [-3.1195937949642416, 53.38197875084883]]]}, "properties": {"kind": "max_footprint", "threshold_pct": 10.0}}, {"type": "Feature", "geometry": {"type": "Polygon", "coordinates": [[[-3.119584362214617, 53.38161927620112], [-3.119574929667862, 53.38125980153046], [-3.119875535114098, 53.381256981238906], [-3.1198708176514387, 53.38107724391334], [-3.119570213470558, 53.38108006418653], [-3.1195654973239684, 53.38090032683686], [-3.1192648943577135, 53.380903146334894], [-3.119260179527167, 53.380723408961124], [-3.1189595777755414, 53.38072622768407], [-3.1189831461085085, 53.38162491458733], [-3.119584362214617, 53.38161927620112]]]}, "properties": {"kind": "max_footprint", "threshold_pct": 10.0}}, {"type": "Feature", "geometry": {"type": "Polygon", "coordinates": [[[-3.125873405211815, 53.38066120559789], [-3.1258686625952183, 53.38048146862346], [-3.1255680632274285, 53.380484303976495], [-3.125572804578726, 53.38066404096938], [-3.125873405211815, 53.38066120559789]]]}, "properties": {"kind": "max_footprint", "threshold_pct": 10.0}}, {"type": "Feature", "geometry": {"type": "Polygon", "coordinates": [[[-3.1255680632274285, 53.380484303976495], [-3.125563321927114, 53.380304566977834], [-3.1252627237736244, 53.38030740155567], [-3.1252674638086524, 53.38048713857276], [-3.1255680632274285, 53.380484303976495]]]}, "properties": {"kind": "max_footprint", "threshold_pct": 10.0}}, {"type": "Feature", "geometry": {"type": "Polygon", "coordinates": [[[-3.124088741257117, 53.38139715475877], [-3.124084006028651, 53.38121741769659], [-3.1246852153454583, 53.381211753653695], [-3.124680477637227, 53.381032016622655], [-3.1243798742696325, 53.38103484900405], [-3.1243751378776756, 53.38085511194882], [-3.124074535724479, 53.380857943555], [-3.12406980064877, 53.3806782064756], [-3.123769199709971, 53.380681037306566], [-3.123759732241899, 53.38032156309369], [-3.12466152731375, 53.3803130684411], [-3.1246567898602406, 53.380133331381344], [-3.1243561928191568, 53.3801361636705], [-3.1243514566818495, 53.379956426586574], [-3.1240508608551005, 53.37995925810056], [-3.1240461260339702, 53.37977952099247], [-3.1234449367582378, 53.37978518171337], [-3.123440204518494, 53.37960544456266], [-3.123139611069528, 53.37960827376959], [-3.1231301492731305, 53.379248799414135], [-3.1225289672834675, 53.379254455484194], [-3.122552609503623, 53.380153141513986], [-3.122252012106324, 53.38015596850601], [-3.122256739437614, 53.38033570571315], [-3.1228579367119256, 53.38033005093559], [-3.122862666624636, 53.380509788100184], [-3.123463866226086, 53.38050413025882], [-3.1234780638613087, 53.38104334160762], [-3.1231774602900653, 53.381046170961945], [-3.1231821916715767, 53.38122590808518], [-3.1234827965081653, 53.38122307871242], [-3.123487529205915, 53.38140281581147], [-3.124088741257117, 53.38139715475877]]]}, "properties": {"kind": "max_footprint", "threshold_pct": 10.0}}, {"type": "Feature", "geometry": {"type": "Polygon", "coordinates": [[[-3.1276247584560286, 53.378667071662456], [-3.127615259214023, 53.378307597803314], [-3.127314675334901, 53.37831043747488], [-3.1273241720466305, 53.37866991137101], [-3.1276247584560286, 53.378667071662456]]]}, "properties": {"kind": "max_footprint", "threshold_pct": 10.0}}, {"type": "Feature", "geometry": {"type": "Polygon", "coordinates": [[[-3.1285075039165275, 53.3779396004774], [-3.128502750679003, 53.377759863583236], [-3.1282021707484406, 53.37776270546932], [-3.128206922720878, 53.377942442382], [-3.1285075039165275, 53.3779396004774]]]}, "properties": {"kind": "max_footprint", "threshold_pct": 10.0}}, {"type": "Feature", "geometry": {"type": "Polygon", "coordinates": [[[-3.1282021707484406, 53.37776270546932], [-3.128197418827103, 53.37758296855093], [-3.1278968401105196, 53.377585809661866], [-3.1279015907667844, 53.37776554659877], [-3.1282021707484406, 53.37776270546932]]]}, "properties": {"kind": "max_footprint", "threshold_pct": 10.0}}, {"type": "Feature", "geometry": {"type": "Polygon", "coordinates": [[[-3.126732490929969, 53.37903506246515], [-3.12671825322357, 53.378495851535895], [-3.126417667926182, 53.378498688955865], [-3.1264129233912463, 53.37831895194952], [-3.127314675334901, 53.37831043747488], [-3.127305178827401, 53.377950963555804], [-3.1279063414741315, 53.37794528352995], [-3.1279015907667844, 53.37776554659877], [-3.1276010107340446, 53.377768386971546], [-3.127586762713684, 53.37722917608809], [-3.1272861864250663, 53.37723201564873], [-3.1272814384521177, 53.37705227865762], [-3.1275820134757, 53.377049439115474], [-3.1275772642887807, 53.37686970213712], [-3.1278778379962744, 53.376866861856826], [-3.1278730875954115, 53.37668712489119], [-3.1275725151529246, 53.376689965153], [-3.127567766068135, 53.376510228163134], [-3.12726719483958, 53.37651306764981], [-3.1272624470708354, 53.37633333063574], [-3.12816415680835, 53.37632480996131], [-3.1281689083720385, 53.376504546919904], [-3.1284694794473618, 53.37650170516334], [-3.128464726618693, 53.37632196822325], [-3.1299675749035822, 53.37630774818353], [-3.1299628158011976, 53.37612801133029], [-3.1302633840397536, 53.376125165071], [-3.130268144407099, 53.376304901905684], [-3.1305687138594323, 53.376302054871246], [-3.130573475542938, 53.37648179168167], [-3.1308740462090454, 53.37647894387205], [-3.130854994722397, 53.37575999667007], [-3.130554429116104, 53.37576284440553], [-3.1305449062098685, 53.375403370733], [-3.130244343082206, 53.37540621767475], [-3.1302395829707756, 53.37522648081133], [-3.1305401448335446, 53.37522363388811], [-3.130535383508415, 53.37504389703749], [-3.1308359440551126, 53.375041049376215], [-3.1308454692863386, 53.37540052303464], [-3.131146032311598, 53.37539767457967], [-3.131131740746937, 53.37485846413908], [-3.1314322999263426, 53.374855614983176], [-3.1313941812224577, 53.37341772037066], [-3.1316947302322165, 53.37341487060664], [-3.131685198539069, 53.37305539693317], [-3.131384652058778, 53.37305824666008], [-3.13135130159949, 53.3718000884922], [-3.131050763920686, 53.371802937332724], [-3.131046001038868, 53.37162320041007], [-3.130745464573478, 53.371626048475555], [-3.1307407030074734, 53.371446311528615], [-3.130440167755496, 53.37144915881905], [-3.130435407505277, 53.37126942184783], [-3.129834339376988, 53.37127511412217], [-3.1298390970980194, 53.37145485113046], [-3.1280358838983835, 53.37147190990881], [-3.1280406340829, 53.37165164702244], [-3.1277400971061895, 53.37165448752293], [-3.127744846077149, 53.37183422464929], [-3.126843231046842, 53.371842741667216], [-3.126847976274933, 53.37202247884331], [-3.1265474365648016, 53.372025316354744], [-3.126552180579252, 53.37220505354357], [-3.126251639553459, 53.37220789031697], [-3.1262563823542444, 53.37238762751853], [-3.1265569246447114, 53.37238479072668], [-3.12657115714712, 53.37292400224149], [-3.126270611062557, 53.37292683908877], [-3.1262753540673165, 53.373106576267354], [-3.126575901416605, 53.37310373940161], [-3.1265853901086014, 53.373463213704646], [-3.1268859399363724, 53.37346037604541], [-3.1268906856236516, 53.373640113169806], [-3.1265901345311153, 53.37364295084755], [-3.126609112731287, 53.374361899361745], [-3.126308556528537, 53.37436473635681], [-3.1263227869197667, 53.374903947737614], [-3.1254211066219204, 53.37491245434953], [-3.1254353260881564, 53.37545166584483], [-3.1251347620922574, 53.37545449992432], [-3.1251395007513443, 53.3756342370964], [-3.125440066012163, 53.37563140299846], [-3.125444805987135, 53.37581114014634], [-3.1251442394613824, 53.375813974262726], [-3.125158455897212, 53.37635318572731], [-3.124857885525627, 53.37635601914245], [-3.1248720986250373, 53.37689523061071], [-3.124571524407506, 53.37689806332453], [-3.1245809975317536, 53.37725753764491], [-3.1242804207332178, 53.377260369638975], [-3.12428515610668, 53.377440106809], [-3.1239845779921698, 53.37744293806485], [-3.12399878062281, 53.377982149595766], [-3.1242993625325775, 53.377979318284616], [-3.124304098109714, 53.378159055431674], [-3.1246046812336727, 53.37815622334538], [-3.1246094181268558, 53.378335960468256], [-3.124910002465004, 53.37833312760685], [-3.124914740674262, 53.37851286470554], [-3.12581649717837, 53.37850436152581], [-3.1258212392340274, 53.37868409856339], [-3.125220065751956, 53.37868976814349], [-3.125224805328277, 53.37886950521225], [-3.1255253933599656, 53.378866670782095], [-3.1255301342524278, 53.37904640782665], [-3.126732490929969, 53.37903506246515]], [[-3.1261265692703946, 53.37886099965169], [-3.125825981340676, 53.37886383559523], [-3.1258212392340274, 53.37868409856339], [-3.1261218258985846, 53.37868126263832], [-3.1261265692703946, 53.37886099965169]], [[-3.1254922085400687, 53.37760851130945], [-3.1251916293642426, 53.377611345610404], [-3.125186890144651, 53.37743160850147], [-3.1254874680554097, 53.37742877421897], [-3.1254922085400687, 53.37760851130945]], [[-3.1269856100853954, 53.3772348544527], [-3.126685033694685, 53.37723769250002], [-3.1266755428599615, 53.376878218438115], [-3.1269761167206096, 53.376875380427755], [-3.1269856100853954, 53.3772348544527]]]}, "properties": {"kind": "max_footprint", "threshold_pct": 10.0}}]}