{"type": "FeatureCollection", "features": [{"type": "Feature", "geometry": {"type": "Polygon", "coordinates": [[[-3.1181190031671617, 53.38307126567808], [-3.118114292790133, 53.38289152829974], [-3.117813675650964, 53.38289434421572], [-3.1178183847624994, 53.38307408161238], [-3.1181190031671617, 53.38307126567808]]]}, "properties": {"kind": "max_footprint", "threshold_pct": 4.0}}, {"type": "Feature", "geometry": {"type": "Polygon", "coordinates": [[[-3.1192931844057337, 53.38198157045705], [-3.119288469270972, 53.381801833117706], [-3.118987859927169, 53.38180465195078], [-3.118992573796519, 53.38198438930848], [-3.1192931844057337, 53.38198157045705]]]}, "properties": {"kind": "max_footprint", "threshold_pct": 4.0}}, {"type": "Feature", "geometry": {"type": "Polygon", "coordinates": [[[-3.1234544013903855, 53.380144655997555], [-3.1234449367582378, 53.37978518171337], [-3.123144342044035, 53.37978801093874], [-3.123139611069528, 53.37960827376959], [-3.1228390175696896, 53.379611102219826], [-3.1228484770390885, 53.3799705765892], [-3.1231490730694147, 53.379967748102125], [-3.123153804145669, 53.38014748525978], [-3.1234544013903855, 53.380144655997555]]]}, "properties": {"kind": "max_footprint", "threshold_pct": 4.0}}, {"type": "Feature", "geometry": {"type": "Polygon", "coordinates": [[[-3.1261170825777778, 53.3785015256192], [-3.1261123393079764, 53.37832178859434], [-3.126713507423499, 53.37831611454797], [-3.126708761674459, 53.37813637755434], [-3.127309927055623, 53.37813070051821], [-3.127305178827401, 53.377950963555804], [-3.1279063414741315, 53.37794528352995], [-3.1279015907667844, 53.37776554659877], [-3.126398690092532, 53.37777974089592], [-3.1263939457616585, 53.37760000386658], [-3.1254922085400687, 53.37760851130945], [-3.1254874680554097, 53.37742877421897], [-3.1257880459151948, 53.37742593917981], [-3.1257833042164545, 53.37724620210206], [-3.125482727621722, 53.37724903712274], [-3.1254779872390066, 53.37706930002078], [-3.1257785625686982, 53.37706646501856], [-3.1257738209719257, 53.37688672792931], [-3.126074394985606, 53.376883892188886], [-3.1260791378474053, 53.377063629259666], [-3.126680288251812, 53.37705795547194], [-3.126685033694685, 53.37723769250002], [-3.1272861864250663, 53.37723201564873], [-3.1272766905302203, 53.376872541660745], [-3.1269761167206096, 53.376875380427755], [-3.1269713701147746, 53.376695643406684], [-3.126670797519136, 53.376698481398535], [-3.1266565618028, 53.376159270245395], [-3.127858836699285, 53.376147913959905], [-3.127854086502731, 53.375968176971334], [-3.128154653834242, 53.37596533602688], [-3.1281594052957513, 53.37614507299697], [-3.129361679170588, 53.37613370157901], [-3.1293664357430475, 53.3763134384693], [-3.1299675749035822, 53.37630774818353], [-3.129948538801067, 53.37558880073612], [-3.1302491032448194, 53.375585954532426], [-3.130244343082206, 53.37540621767475], [-3.1305449062098685, 53.375403370733], [-3.130535383508415, 53.37504389703749], [-3.1308359440551126, 53.375041049376215], [-3.130826419028716, 53.37468157569484], [-3.1311269769944907, 53.37467872731406], [-3.1310650528733883, 53.372342148066224], [-3.1313655943461294, 53.37233929917003], [-3.13135130159949, 53.3718000884922], [-3.130750226190676, 53.37180578541675], [-3.130745464573478, 53.371626048475555], [-3.1301443914891296, 53.37163174233702], [-3.1301396324523396, 53.37145200535301], [-3.1298390970980194, 53.37145485113046], [-3.129843854870201, 53.371634588133], [-3.1289422447065527, 53.371643120981965], [-3.1289469987360157, 53.37182285803432], [-3.128045384318487, 53.37183138413032], [-3.1280501346051457, 53.372011121232454], [-3.127749595099166, 53.37201396176993], [-3.127754344172243, 53.37219369888483], [-3.1274538033505515, 53.37219653868429], [-3.127458551210019, 53.37237627581193], [-3.127158009072611, 53.37237911487337], [-3.1271627557184414, 53.37255885201375], [-3.126561668761173, 53.37256452790401], [-3.1265664129286423, 53.37274426507562], [-3.1274680470820932, 53.372735750050005], [-3.127477543158361, 53.37309522426509], [-3.126575901416605, 53.37310373940161], [-3.126580645737098, 53.373283476556004], [-3.1268811943001156, 53.37328063891522], [-3.126900177151285, 53.37399958740146], [-3.126599623529176, 53.37400242511613], [-3.12659487900464, 53.3738226879847], [-3.1262943265963115, 53.37382552492436], [-3.126299069856055, 53.37400526207425], [-3.1259985161319337, 53.37400809827579], [-3.126022226871468, 53.37490678403149], [-3.124519425865418, 53.37492095415212], [-3.1245288978692978, 53.37528042859876], [-3.1248294607021774, 53.37527759605094], [-3.1248389354395743, 53.37563707043772], [-3.125440066012163, 53.37563140299846], [-3.1254495460130705, 53.375990877288466], [-3.124848410380722, 53.37599654480155], [-3.1248436728846793, 53.375816807622506], [-3.1242425395784714, 53.37582247207222], [-3.1242520095616766, 53.37618194649834], [-3.1239514403022866, 53.37618477762515], [-3.123960907959176, 53.37654425206519], [-3.124261479748531, 53.37654142090151], [-3.1242662149183307, 53.3767211580945], [-3.124566787921776, 53.376718326155746], [-3.1245762609441656, 53.37707780048759], [-3.124275685410673, 53.37708063246324], [-3.1242804207332178, 53.377260369638975], [-3.1239798438837663, 53.3772632008764], [-3.1239845779921698, 53.37744293806485], [-3.123383421610449, 53.37744859830658], [-3.123388153239613, 53.37762833552615], [-3.1236887327209906, 53.37762550576519], [-3.123693465666118, 53.37780524296059], [-3.1242946270063583, 53.37779958113181], [-3.1242993625325775, 53.377979318284616], [-3.1252011079563022, 53.37797081981107], [-3.1252058473287723, 53.378150556902774], [-3.1255064302998874, 53.37814772254645], [-3.125511170988442, 53.37832745961396], [-3.1252105867522038, 53.37833029398876], [-3.1252153262265985, 53.37851003106898], [-3.1261170825777778, 53.3785015256192]], [[-3.126708761674459, 53.37813637755434], [-3.1258070132200264, 53.37814488743345], [-3.125802271317337, 53.37796515037864], [-3.126704015976448, 53.377956640554956], [-3.126708761674459, 53.37813637755434]], [[-3.1260696521748046, 53.37670415511238], [-3.1257690794261372, 53.376706990834336], [-3.125764337931332, 53.37652725373361], [-3.125463766396681, 53.376530088680475], [-3.1254495460130705, 53.375990877288466], [-3.1257501137528028, 53.37598804239699], [-3.125754855094665, 53.376167779514944], [-3.126055424048374, 53.37616494384838], [-3.126060166706189, 53.37634468094213], [-3.1263607368738775, 53.376341844500466], [-3.126365480847672, 53.37652158156999], [-3.126064909414999, 53.376524418030115], [-3.1260696521748046, 53.37670415511238]], [[-3.1266565618028, 53.376159270245395], [-3.1263559929510922, 53.37616210742521], [-3.126351249079314, 53.375982370344204], [-3.1266518166660653, 53.37597953318286], [-3.1266565618028, 53.376159270245395]]]}, "properties": {"kind": "max_footprint", "threshold_pct": 4.0}}, {"type": "Feature", "geometry": {"type": "Polygon", "coordinates": [[[-3.128746280514509, 53.375600177984815], [-3.1287415266764405, 53.37542044103451], [-3.1281403997562442, 53.375426125082186], [-3.1281451510644893, 53.37560586206949], [-3.128746280514509, 53.375600177984815]]]}, "properties": {"kind": "max_footprint", "threshold_pct": 7.0}}, {"type": "Feature", "geometry": {"type": "Polygon", "coordinates": [[[-3.129037335008024, 53.37523786093824], [-3.1290325800072973, 53.37505812399498], [-3.128732019153643, 53.3750609671167], [-3.128722511835294, 53.37470149317593], [-3.1281213950341176, 53.37470717707555], [-3.128116643981296, 53.37452744005953], [-3.12781608676892, 53.37453028085597], [-3.1278113370320133, 53.37435054381572], [-3.128111892979558, 53.374347703037785], [-3.1281023911293255, 53.37398822897704], [-3.1278018377114023, 53.373991069718], [-3.1277970881276977, 53.37381133266051], [-3.128698744433845, 53.37380280822348], [-3.128693991106879, 53.37362307121576], [-3.1283934403206928, 53.37362591343282], [-3.1283791844406728, 53.37308670231972], [-3.128980278373452, 53.3730810172401], [-3.128999296433698, 53.373799965231356], [-3.129600400280031, 53.37379427697742], [-3.129609914676048, 53.37415375086452], [-3.129910469052084, 53.374150905565656], [-3.1299152275916295, 53.374330642482064], [-3.130516338719825, 53.37432494957758], [-3.1305210998401845, 53.37450468645117], [-3.1308216565923277, 53.37450183884553], [-3.130812131873164, 53.37414236512969], [-3.1311126860444665, 53.37413951680454], [-3.1310983955553984, 53.37360030624337], [-3.1307978451784417, 53.373603154512836], [-3.130793083049272, 53.37342341762908], [-3.131093632161471, 53.37342056937814], [-3.1310555268537112, 53.37198267424962], [-3.1313560657971466, 53.37197982539054], [-3.13135130159949, 53.3718000884922], [-3.130750226190676, 53.37180578541675], [-3.130745464573478, 53.371626048475555], [-3.129242781478899, 53.371640277455484], [-3.1292475367729864, 53.371820014489316], [-3.128646460647934, 53.37182570082283], [-3.128651213463872, 53.37200543788796], [-3.1280501346051457, 53.372011121232454], [-3.128054884942876, 53.37219085832884], [-3.127754344172243, 53.37219369888483], [-3.1277590932963792, 53.37237343599397], [-3.127458551210019, 53.37237627581193], [-3.127463299120533, 53.37255601293384], [-3.127763842471575, 53.37255317309739], [-3.1277733409751525, 53.37291264728699], [-3.128073886804538, 53.37290980665704], [-3.1280786373976426, 53.37308954372472], [-3.1277780903035333, 53.37309238437319], [-3.127782839682978, 53.373272121453624], [-3.12748229127307, 53.37327496136404], [-3.127506032612379, 53.37417364677261], [-3.126904922991641, 53.37417932450864], [-3.1269144148254338, 53.37453879870582], [-3.1272149721909757, 53.374535960179124], [-3.1272197194492612, 53.374715697250615], [-3.1278208365568974, 53.374710017890486], [-3.1278255863959434, 53.37488975491926], [-3.1281261461380225, 53.37488691408582], [-3.12813089729301, 53.37506665109035], [-3.1284314582488766, 53.37506380948183], [-3.1284362107198342, 53.375243546462094], [-3.129037335008024, 53.37523786093824]]]}, "properties": {"kind": "max_footprint", "threshold_pct": 7.0}}, {"type": "Feature", "geometry": {"type": "Polygon", "coordinates": [[[-3.130812131873164, 53.37414236512969], [-3.130793083049272, 53.37342341762908], [-3.131093632161471, 53.37342056937814], [-3.131050763920686, 53.371802937332724], [-3.130750226190676, 53.37180578541675], [-3.130745464573478, 53.371626048475555], [-3.129242781478899, 53.371640277455484], [-3.1292475367729864, 53.371820014489316], [-3.1289469987360157, 53.37182285803432], [-3.128951752816593, 53.37200259508096], [-3.128350674060051, 53.372008279938456], [-3.1283554256624364, 53.372188017016356], [-3.128054884942876, 53.37219085832884], [-3.128059635331679, 53.37237059541951], [-3.128360177315907, 53.372367754088515], [-3.128369680776112, 53.3727272282156], [-3.128970769650037, 53.372721543210034], [-3.128980278373452, 53.3730810172401], [-3.129280825263171, 53.37307817356549], [-3.1292855809662874, 53.3732579105534], [-3.1295861290696076, 53.37325506610371], [-3.1295908860886024, 53.37343480306736], [-3.1298914354055234, 53.37343195784261], [-3.129896193740422, 53.373611694782], [-3.1301967442709406, 53.37360884878216], [-3.1302062636237777, 53.37396832260662], [-3.1305068166326757, 53.37396547581315], [-3.130511577650655, 53.374145212698245], [-3.130812131873164, 53.37414236512969]]]}, "properties": {"kind": "max_footprint", "threshold_pct": 10.0}}]}