{"type": "FeatureCollection", "features": [{"type": "Feature", "geometry": {"type": "Polygon", "coordinates": [[[-3.100924243948656, 53.39257972949902], [-3.100919604377548, 53.39239999136302], [-3.1006189184977395, 53.39240276432211], [-3.1006235568026024, 53.392582502476145], [-3.100924243948656, 53.39257972949902]]]}, "properties": {"kind": "max_footprint", "threshold_pct": 4.0}}, {"type": "Feature", "geometry": {"type": "Polygon", "coordinates": [[[-3.1074973434645994, 53.39090089261466], [-3.1074880095617687, 53.39054141703096], [-3.1071873374445036, 53.39054420646424], [-3.1071966688151353, 53.39090368208429], [-3.1074973434645994, 53.39090089261466]]]}, "properties": {"kind": "max_footprint", "threshold_pct": 4.0}}, {"type": "Feature", "geometry": {"type": "Polygon", "coordinates": [[[-3.1071826718344613, 53.39036446864562], [-3.1071686753054144, 53.38982525515539], [-3.1068680082022055, 53.389828043758996], [-3.1068820009330955, 53.3903672573037], [-3.1071826718344613, 53.39036446864562]]]}, "properties": {"kind": "max_footprint", "threshold_pct": 4.0}}, {"type": "Feature", "geometry": {"type": "Polygon", "coordinates": [[[-3.111058615907703, 53.389069983966024], [-3.11105393424153, 53.38889024633812], [-3.110452613951425, 53.388895842288406], [-3.1104479348675005, 53.3887161046183], [-3.1101472759129036, 53.388718901439745], [-3.1101566315991658, 53.38907837681064], [-3.111058615907703, 53.389069983966024]]]}, "properties": {"kind": "max_footprint", "threshold_pct": 4.0}}, {"type": "Feature", "geometry": {"type": "Polygon", "coordinates": [[[-3.1119465435220874, 53.388522371571696], [-3.111941858209209, 53.388342633981274], [-3.111641202038218, 53.38834543455115], [-3.1116458860851774, 53.3885251721598], [-3.1119465435220874, 53.388522371571696]]]}, "properties": {"kind": "max_footprint", "threshold_pct": 4.0}}, {"type": "Feature", "geometry": {"type": "Polygon", "coordinates": [[[-3.1125197319326965, 53.387438342715036], [-3.1125150443904794, 53.38725860512672], [-3.1122143959154984, 53.38726140710102], [-3.11221908219188, 53.387441144707594], [-3.1125197319326965, 53.387438342715036]]]}, "properties": {"kind": "max_footprint", "threshold_pct": 4.0}}, {"type": "Feature", "geometry": {"type": "Polygon", "coordinates": [[[-3.1155168262153308, 53.38705080634064], [-3.1155121261158985, 53.3868710689236], [-3.115211480677277, 53.38687387843069], [-3.1152067818941807, 53.38669414098964], [-3.1155074260670133, 53.38669133150083], [-3.1155027260686765, 53.38651159407233], [-3.115803368925189, 53.38650878384489], [-3.1157939665486474, 53.3861493090073], [-3.115493326223639, 53.386152119198115], [-3.1154980261208847, 53.386331856638094], [-3.1148967427877525, 53.386337474785606], [-3.1149014402040236, 53.38651721225642], [-3.113999511028185, 53.38652563385569], [-3.1140088984175884, 53.386885108889835], [-3.114610189648447, 53.386879495174135], [-3.114614885950475, 53.387059232646045], [-3.1155168262153308, 53.38705080634064]]]}, "properties": {"kind": "max_footprint", "threshold_pct": 4.0}}, {"type": "Feature", "geometry": {"type": "Polygon", "coordinates": [[[-3.1179031574304967, 53.38630935377159], [-3.1178984474073066, 53.386129616478165], [-3.1172971674150394, 53.386135246699595], [-3.1173018749067483, 53.38631498402968], [-3.1179031574304967, 53.38630935377159]]]}, "properties": {"kind": "max_footprint", "threshold_pct": 4.0}}, {"type": "Feature", "geometry": {"type": "Polygon", "coordinates": [[[-3.113393533571089, 53.3863515069084], [-3.1133841515475287, 53.38599203176678], [-3.1130835120842804, 53.385994835884084], [-3.1130928915763514, 53.38635431106222], [-3.113393533571089, 53.3863515069084]]]}, "properties": {"kind": "max_footprint", "threshold_pct": 4.0}}, {"type": "Feature", "geometry": {"type": "Polygon", "coordinates": [[[-3.117593098729683, 53.38595269464983], [-3.117588390073513, 53.3857729573266], [-3.1172877525835014, 53.38577577202221], [-3.1172924599739575, 53.38595550936377], [-3.117593098729683, 53.38595269464983]]]}, "properties": {"kind": "max_footprint", "threshold_pct": 4.0}}, {"type": "Feature", "geometry": {"type": "Polygon", "coordinates": [[[-3.1169918211676064, 53.3859583233208], [-3.116987115042866, 53.3857785859609], [-3.116686477451617, 53.38578139914272], [-3.1166911823106425, 53.385961136520905], [-3.1169918211676064, 53.3859583233208]]]}, "properties": {"kind": "max_footprint", "threshold_pct": 4.0}}, {"type": "Feature", "geometry": {"type": "Polygon", "coordinates": [[[-3.117306582449085, 53.38649472135403], [-3.1173018749067483, 53.38631498402968], [-3.117001233568927, 53.386317798023356], [-3.1169965273429607, 53.38613806067494], [-3.116695887220267, 53.386140873893375], [-3.1166911823106425, 53.385961136520905], [-3.1163905434030803, 53.38596394896414], [-3.116385839809771, 53.38578421156762], [-3.11578456437434, 53.38578983414674], [-3.1157798633630223, 53.385610096707865], [-3.11547922683517, 53.38561290684379], [-3.1154886263769384, 53.38597238175241], [-3.115789265436216, 53.385969571579885], [-3.1157939665486474, 53.3861493090073], [-3.1160946068230975, 53.38614649805957], [-3.116099309251833, 53.386326235462924], [-3.116399950741456, 53.386323423739995], [-3.116404654486522, 53.3865031611193], [-3.117306582449085, 53.38649472135403]]]}, "properties": {"kind": "max_footprint", "threshold_pct": 4.0}}, {"type": "Feature", "geometry": {"type": "Polygon", "coordinates": [[[-3.116686477451617, 53.38578139914272], [-3.1166723631781243, 53.38524218697368], [-3.1163717293333453, 53.38524499934364], [-3.116357619312158, 53.38470578706803], [-3.116056989213745, 53.38470859862617], [-3.1160757976138678, 53.385427548388776], [-3.1163764327749037, 53.385424736757365], [-3.116385839809771, 53.38578421156762], [-3.116686477451617, 53.38578139914272]]]}, "properties": {"kind": "max_footprint", "threshold_pct": 4.0}}, {"type": "Feature", "geometry": {"type": "Polygon", "coordinates": [[[-3.1127641192544906, 53.38527868874634], [-3.1127500547968117, 53.38473947581256], [-3.112449424092501, 53.384742278288286], [-3.112440050570713, 53.38438280293391], [-3.111838794073395, 53.384388405541785], [-3.111843478277852, 53.38456814325833], [-3.1121441078173233, 53.38456534231458], [-3.11215347890864, 53.384924817693964], [-3.1124541109289985, 53.38492201595687], [-3.1124634847532056, 53.385281491276835], [-3.1127641192544906, 53.38527868874634]]]}, "properties": {"kind": "max_footprint", "threshold_pct": 4.0}}, {"type": "Feature", "geometry": {"type": "Polygon", "coordinates": [[[-3.1252864244584786, 53.38120608658376], [-3.125281684219564, 53.381026349589625], [-3.124680477637227, 53.381032016622655], [-3.1246852153454583, 53.381211753653695], [-3.1252864244584786, 53.38120608658376]]]}, "properties": {"kind": "max_footprint", "threshold_pct": 4.0}}, {"type": "Feature", "geometry": {"type": "Polygon", "coordinates": [[[-3.1225715241949947, 53.38087209023455], [-3.122566795445879, 53.38069235306301], [-3.1222661942526977, 53.38069518011026], [-3.122270921736492, 53.3808749173002], [-3.1225715241949947, 53.38087209023455]]]}, "properties": {"kind": "max_footprint", "threshold_pct": 4.0}}, {"type": "Feature", "geometry": {"type": "Polygon", "coordinates": [[[-3.1219608668410297, 53.380518269186645], [-3.12195141465819, 53.380158794741256], [-3.121350219609478, 53.38016444494158], [-3.1213596667311627, 53.38052391946055], [-3.1219608668410297, 53.380518269186645]]]}, "properties": {"kind": "max_footprint", "threshold_pct": 4.0}}, {"type": "Feature", "geometry": {"type": "Polygon", "coordinates": [[[-3.117264216390582, 53.38487708522836], [-3.117259509303866, 53.38469734785239], [-3.117860769045256, 53.3846917179243], [-3.1178560594779237, 53.384511980579234], [-3.118156688007037, 53.38450916449823], [-3.1181613988399874, 53.38468890182495], [-3.1187626582774497, 53.38468326735567], [-3.118757944913268, 53.38450353006565], [-3.1184573164854896, 53.38450634766038], [-3.1184526044375973, 53.38432661034628], [-3.1187532315997712, 53.38432379276988], [-3.1187485183369654, 53.38414405546841], [-3.1196503957225508, 53.38413559825323], [-3.1196598298924187, 53.38449507274031], [-3.1193592016167453, 53.384497892605616], [-3.1193639175121577, 53.38467762985891], [-3.1202658059838173, 53.38466916793734], [-3.1202610862915643, 53.38448943073912], [-3.120561714415011, 53.384486608603254], [-3.1205569935079174, 53.384306871417685], [-3.1208576203149967, 53.38430404854335], [-3.120852898193088, 53.38412431137043], [-3.1205522726515924, 53.384127134226404], [-3.120547551846036, 53.383947397029374], [-3.1202469275193434, 53.38395021911011], [-3.1202374885916324, 53.38359074466211], [-3.1199368667452876, 53.38359356594925], [-3.119932148623093, 53.383413828698274], [-3.1196315279915408, 53.383416649210226], [-3.1196268111856003, 53.38323691193512], [-3.1199274305516345, 53.38323409144154], [-3.11991799456093, 53.382874616910875], [-3.120218611345234, 53.38287179569721], [-3.120223330580707, 53.38305153294705], [-3.1205239485797507, 53.38304871095819], [-3.120514507628588, 53.38268923648954], [-3.120213892160509, 53.38269205844165], [-3.120195015929091, 53.381973109362015], [-3.1204956263354044, 53.38197028748342], [-3.120500346582559, 53.38215002474355], [-3.1211015697737325, 53.38214437867926], [-3.1211157384124446, 53.38268359031493], [-3.1214163537281956, 53.38268076609242], [-3.121421077974818, 53.38286050327443], [-3.1217216945052386, 53.3828576782767], [-3.121712243531866, 53.3824982039437], [-3.122614085225383, 53.38248972452011], [-3.12260935601859, 53.38230998740021], [-3.123210581029123, 53.38230433070396], [-3.123205849342328, 53.38212459361518], [-3.123807071618475, 53.3821189339286], [-3.1238023374517363, 53.38193919687094], [-3.1235017276045225, 53.381942027074196], [-3.123487529205915, 53.38140281581147], [-3.124088741257117, 53.38139715475877], [-3.124084006028651, 53.38121741769659], [-3.124384610712522, 53.38121458605352], [-3.1243798742696325, 53.38103484900405], [-3.124680477637227, 53.381032016622655], [-3.1246757399799403, 53.38085227958588], [-3.1243751378776756, 53.38085511194882], [-3.124370401536649, 53.38067537488784], [-3.12406980064877, 53.3806782064756], [-3.124074535724479, 53.380857943555], [-3.123473331265344, 53.38086360449709], [-3.1234827965081653, 53.38122307871242], [-3.1231821916715767, 53.38122590808518], [-3.123172728959433, 53.380866433833], [-3.1228721266026462, 53.380869262412155], [-3.122886316951139, 53.38140847383708], [-3.122285104492901, 53.38141412883559], [-3.1222803768565943, 53.38123439166286], [-3.1219797718165725, 53.38123721800855], [-3.1219703192271546, 53.38087774360908], [-3.1216697166669936, 53.38088056916119], [-3.121664991713843, 53.38070083193446], [-3.1213643903681954, 53.380703656711425], [-3.1213596667311627, 53.38052391946055], [-3.1210590666000297, 53.380526743462376], [-3.1210637889717527, 53.38070648073165], [-3.120462586026538, 53.380712126501805], [-3.1204673059183934, 53.38089186380212], [-3.1201667031043225, 53.38089468557045], [-3.120171421781593, 53.38107442288341], [-3.1204720258610035, 53.381071601096686], [-3.120476745854369, 53.38125133838551], [-3.120777351148378, 53.38124851582365], [-3.120786793818123, 53.38160799034732], [-3.120486185993371, 53.38161081294594], [-3.1204814658984903, 53.38143107566857], [-3.12018085928836, 53.38143389749205], [-3.120176140509605, 53.3812541601906], [-3.119875535114098, 53.381256981238906], [-3.119866100239509, 53.38089750658203], [-3.1195654973239684, 53.38090032683686], [-3.1195607812280928, 53.38072058948143], [-3.119260179527167, 53.380723408961124], [-3.119255464747319, 53.38054367158163], [-3.1198566655678324, 53.38053803190221], [-3.1198519483080824, 53.380358294553695], [-3.119551349188483, 53.38036111475341], [-3.119546633244746, 53.38018137738078], [-3.1192460353397222, 53.380184196805395], [-3.1192413207119705, 53.38000445940868], [-3.118940724021524, 53.38000727805819], [-3.118945437384001, 53.38018701547325], [-3.1186448393775956, 53.38018983338439], [-3.1186636882731174, 53.38090878306073], [-3.118964291340759, 53.38090596507619], [-3.1189690049566643, 53.38108570246259], [-3.119269609238962, 53.381082883702945], [-3.119274324170911, 53.38126262106524], [-3.118973718623257, 53.38126543984324], [-3.1189831461085085, 53.38162491458733], [-3.1186825379794123, 53.38162773264528], [-3.118687250532674, 53.38180747002706], [-3.1183866410875054, 53.38181028734657], [-3.1183913524260314, 53.38199002474097], [-3.117790130852887, 53.381995657146305], [-3.117785422045186, 53.38181591971523], [-3.1174848124480654, 53.38181873476437], [-3.1174801049564, 53.38163899730922], [-3.1168788881411085, 53.381644625100506], [-3.1168741832308413, 53.381464887602945], [-3.1165735760126867, 53.381467700345105], [-3.116568872418389, 53.38128796282352], [-3.1162682664150285, 53.38129077479059], [-3.1162635641366743, 53.38111103724496], [-3.1159629593481117, 53.38111384843693], [-3.1159723614246477, 53.381473323559085], [-3.11627296874395, 53.381470512330495], [-3.1162823735534944, 53.38182998739308], [-3.1165829833530236, 53.38182717537109], [-3.116592390895688, 53.38218665037414], [-3.11689300317548, 53.382183837558706], [-3.116897708288131, 53.382363575033295], [-3.1171983217827703, 53.38236076144276], [-3.117203028211475, 53.382540498893306], [-3.117503642920958, 53.382537684527634], [-3.117508350665743, 53.38271742195409], [-3.117808966590071, 53.38271460681329], [-3.117813675650964, 53.38289434421572], [-3.117513058461156, 53.382897159374856], [-3.117527182151156, 53.38343637160265], [-3.1172265611141894, 53.38343918605995], [-3.117221854432417, 53.38325944863809], [-3.1169212346103605, 53.38326226232025], [-3.1169306454934564, 53.383621737194886], [-3.1166300230897335, 53.38362455015686], [-3.116625318888424, 53.3834448127041], [-3.116324697699652, 53.3834476248909], [-3.116329400635422, 53.38362736236198], [-3.116028778130536, 53.38363017381029], [-3.116019374840636, 53.38327069882576], [-3.115718754816255, 53.38327350948061], [-3.1157234551703983, 53.38345324699405], [-3.115422833829941, 53.38345605691037], [-3.115432232158772, 53.38381553195661], [-3.115732856030325, 53.383812722003704], [-3.1157469576993355, 53.384351934475156], [-3.116348212884268, 53.38434631218896], [-3.116352916072924, 53.38452604963138], [-3.1166535448551365, 53.38452323733466], [-3.1166582493599924, 53.38470297475302], [-3.1169588793572323, 53.38470016168113], [-3.1169635851783153, 53.38487989907543], [-3.117264216390582, 53.38487708522836]], [[-3.118147266493118, 53.384149689827616], [-3.1178466404951997, 53.38415250587194], [-3.117841931079806, 53.38397276850968], [-3.1181425558121476, 53.38396995248368], [-3.118147266493118, 53.384149689827616]], [[-3.119345054234796, 53.38395868081129], [-3.1190444297051703, 53.38396149986466], [-3.1190397152781717, 53.38378176257004], [-3.11934033854224, 53.383778943535035], [-3.119345054234796, 53.38395868081129]], [[-3.117841931079806, 53.38397276850968], [-3.1175413062968196, 53.383975583778835], [-3.1175318901490803, 53.38361610900046], [-3.1178325124009527, 53.38361329376798], [-3.117841931079806, 53.38397276850968]], [[-3.1166394316441224, 53.38398402504519], [-3.1163388066586917, 53.38398683728694], [-3.1163341036217687, 53.38380709982732], [-3.1166347273416317, 53.38380428760387], [-3.1166394316441224, 53.38398402504519]], [[-3.118739091963408, 53.38378458084823], [-3.1184384685979576, 53.38378739836954], [-3.1184337567527565, 53.383607661032514], [-3.118734378852658, 53.38360484352954], [-3.118739091963408, 53.38378458084823]], [[-3.1184290449582246, 53.38342792368974], [-3.117827803137493, 53.38343355638851], [-3.1178183847624994, 53.38307408161238], [-3.1181190031671617, 53.38307126567808], [-3.1181237135948456, 53.38325100305067], [-3.118424333214363, 53.383248186341206], [-3.1184290449582246, 53.38342792368974]], [[-3.1190208580771692, 53.383062813334284], [-3.1187202398245097, 53.383065631539026], [-3.118701388496528, 53.382346682138035], [-3.119302614827372, 53.38234104511856], [-3.119316760840129, 53.382880257067754], [-3.1190161439036572, 53.38288307601097], [-3.1190208580771692, 53.383062813334284]], [[-3.118414909878647, 53.38288871162696], [-3.118114292790133, 53.38289152829974], [-3.1181095824637572, 53.382711790915685], [-3.118410198286792, 53.38270897426124], [-3.118414909878647, 53.38288871162696]], [[-3.1198991231883455, 53.382155667780694], [-3.119598511415133, 53.38215848816408], [-3.1195937949642416, 53.38197875084883], [-3.119894405472033, 53.38197593048382], [-3.1198991231883455, 53.382155667780694]], [[-3.1195937949642416, 53.38197875084883], [-3.1192931844057337, 53.38198157045705], [-3.119279039153561, 53.381442358421786], [-3.119579645915881, 53.381439538868655], [-3.119584362214617, 53.38161927620112], [-3.119884970191604, 53.38161645587284], [-3.1198896878064537, 53.38179619318121], [-3.1195890785640716, 53.38179901352785], [-3.1195937949642416, 53.38197875084883]]]}, "properties": {"kind": "max_footprint", "threshold_pct": 4.0}}, {"type": "Feature", "geometry": {"type": "Polygon", "coordinates": [[[-3.120744303403479, 53.37999035481006], [-3.1207395825001316, 53.37981061749946], [-3.1204389873285616, 53.37981343991427], [-3.120443706966653, 53.379993177243264], [-3.120744303403479, 53.37999035481006]]]}, "properties": {"kind": "max_footprint", "threshold_pct": 4.0}}, {"type": "Feature", "geometry": {"type": "Polygon", "coordinates": [[[-3.1204389873285616, 53.37981343991427], [-3.12042954820463, 53.3794539652391], [-3.1201289555127856, 53.37945678686043], [-3.120138392106242, 53.37981626157236], [-3.1204389873285616, 53.37981343991427]]]}, "properties": {"kind": "max_footprint", "threshold_pct": 4.0}}, {"type": "Feature", "geometry": {"type": "Polygon", "coordinates": [[[-3.12406980064877, 53.3806782064756], [-3.124060330650103, 53.38031873229957], [-3.124360929007391, 53.380315900748684], [-3.1243561928191568, 53.3801361636705], [-3.124957386850382, 53.38013049833545], [-3.1249526481825542, 53.37995076128842], [-3.125854435051413, 53.37994225766573], [-3.125849692638804, 53.37976252066831], [-3.125549098332074, 53.37976535594749], [-3.125544357235692, 53.37958561892588], [-3.1267467290956663, 53.37957427334274], [-3.1267419829894, 53.379394536389285], [-3.127042574561624, 53.37939169812018], [-3.1270378272411907, 53.37921196117946], [-3.12553487519587, 53.37922614486547], [-3.1255253933599656, 53.378866670782095], [-3.126727744976803, 53.37885532549447], [-3.1267229990746697, 53.37867558851806], [-3.1261218258985846, 53.37868126263832], [-3.1261170825777778, 53.3785015256192], [-3.12581649717837, 53.37850436152581], [-3.1258070132200264, 53.37814488743345], [-3.126708761674459, 53.37813637755434], [-3.126704015976448, 53.377956640554956], [-3.1264034344744216, 53.377959477919525], [-3.1263939457616585, 53.37760000386658], [-3.1275962613428576, 53.37758865001613], [-3.1276010107340446, 53.377768386971546], [-3.1291039103867844, 53.377754177541014], [-3.1290991546702234, 53.377574440678146], [-3.1297003116433135, 53.37756875164631], [-3.1296907953033886, 53.377209277977435], [-3.129390219372521, 53.37721212283462], [-3.129385462544334, 53.377032385973074], [-3.129686037210169, 53.37702954113439], [-3.1296670053488946, 53.37631059370474], [-3.130268144407099, 53.376304901905684], [-3.130258623723592, 53.375945428230544], [-3.1308597575172423, 53.375939733479186], [-3.1308454692863386, 53.37540052303464], [-3.1305449062098685, 53.375403370733], [-3.1305401448335446, 53.37522363388811], [-3.131141268405489, 53.37521793777189], [-3.1311365045506028, 53.37503820095834], [-3.1308359440551126, 53.375041049376215], [-3.1308311815163115, 53.374861312538386], [-3.131131740746937, 53.37485846413908], [-3.1311126860444665, 53.37413951680454], [-3.1314132401645547, 53.37413666772287], [-3.13135130159949, 53.3718000884922], [-3.131050763920686, 53.371802937332724], [-3.131046001038868, 53.37162320041007], [-3.130444928056894, 53.371628895784546], [-3.130440167755496, 53.37144915881905], [-3.1286369551693536, 53.37146622667534], [-3.1286417078830957, 53.37164596375195], [-3.127439560078421, 53.3716573272669], [-3.127449055542129, 53.3720168015509], [-3.1271485159340466, 53.37201964057535], [-3.127153262477813, 53.37219937772723], [-3.126552180579252, 53.37220505354357], [-3.1265569246447114, 53.37238479072668], [-3.1262563823542444, 53.37238762751853], [-3.1262611252060215, 53.37256736471436], [-3.126561668761173, 53.37256452790401], [-3.1265664129286423, 53.37274426507562], [-3.1259653232379487, 53.37274993797671], [-3.125989032193022, 53.37364862393332], [-3.126289583387568, 53.37364578776872], [-3.1262943265963115, 53.37382552492436], [-3.1256932216266753, 53.37383119653397], [-3.125702703137952, 53.374190670901875], [-3.1254021480470655, 53.374193505608744], [-3.1254211066219204, 53.37491245434953], [-3.1251205464206966, 53.37491528837366], [-3.125125284926934, 53.37509502556295], [-3.124524161841897, 53.37510069137831], [-3.124533633947621, 53.37546016581348], [-3.12423306979891, 53.37546299762314], [-3.1242378046632355, 53.37564273485055], [-3.1239372391986944, 53.37564556592205], [-3.123941972848993, 53.37582530316215], [-3.1242425395784714, 53.37582247207222], [-3.1242520095616766, 53.37618194649834], [-3.123650870991999, 53.37618760799533], [-3.1236603361189195, 53.37654708247223], [-3.123359764227775, 53.37654991212261], [-3.1233644956025595, 53.37672964937089], [-3.1236650687587093, 53.37672681970207], [-3.123674534190954, 53.37708629414453], [-3.1230733827676787, 53.37709195279924], [-3.1230828433432674, 53.37745142729243], [-3.1227822650252217, 53.377454255521634], [-3.1227917232741014, 53.37781373002871], [-3.1218899804244233, 53.3778222102868], [-3.1218994312860477, 53.37818168488137], [-3.1225005982971075, 53.37817603205904], [-3.1225053263343976, 53.37835576931091], [-3.1222047415891496, 53.37835859611883], [-3.1222094684121378, 53.37853833338337], [-3.122510054422529, 53.378535506557036], [-3.1225195107513133, 53.378894981032104], [-3.122218922210593, 53.37889780789524], [-3.1222141952859523, 53.378718070642165], [-3.121011845675613, 53.378729370454096], [-3.1210071238624377, 53.37854963312172], [-3.120706537598046, 53.37855245616457], [-3.1207159787448364, 53.37891193086038], [-3.121317156283516, 53.37890628394443], [-3.1213218794634274, 53.37908602124695], [-3.1225242389919683, 53.379074718260995], [-3.1225289672834675, 53.379254455484194], [-3.1222283762123633, 53.37925728238415], [-3.1222331032894917, 53.379437019619985], [-3.1216319184643826, 53.37944267118658], [-3.1216271939176785, 53.379262933913914], [-3.1207254200946677, 53.379271405533224], [-3.1207301408457258, 53.379451142861036], [-3.1210307334360587, 53.379448319726265], [-3.1210354555031095, 53.379628057029954], [-3.1216366430618887, 53.379622408453464], [-3.1216413677101995, 53.37980214571464], [-3.122242557596244, 53.379796494074476], [-3.1222472848258667, 53.3799762312931], [-3.1225478809579004, 53.37997340431951], [-3.122562066747612, 53.380512615885756], [-3.122862666624636, 53.380509788100184], [-3.12286739658821, 53.38068952525904], [-3.12406980064877, 53.3806782064756]], [[-3.129385462544334, 53.377032385973074], [-3.1290848878273505, 53.37703523005508], [-3.1290801323153272, 53.37685549316923], [-3.1293807057672924, 53.37685264910573], [-3.129385462544334, 53.377032385973074]]]}, "properties": {"kind": "max_footprint", "threshold_pct": 4.0}}, {"type": "Feature", "geometry": {"type": "Polygon", "coordinates": [[[-3.121989224609287, 53.38159669238507], [-3.1219844981875164, 53.38141695519967], [-3.1216838918313083, 53.38141978080701], [-3.121688616987701, 53.38159951801081], [-3.121989224609287, 53.38159669238507]]]}, "properties": {"kind": "max_footprint", "threshold_pct": 7.0}}, {"type": "Feature", "geometry": {"type": "Polygon", "coordinates": [[[-3.1216838918313083, 53.38141978080701], [-3.1216744416709545, 53.38106030638222], [-3.121373837794649, 53.38106313119599], [-3.1213832854242867, 53.38142260565755], [-3.1216838918313083, 53.38141978080701]]]}, "properties": {"kind": "max_footprint", "threshold_pct": 7.0}}, {"type": "Feature", "geometry": {"type": "Polygon", "coordinates": [[[-3.1210732338675453, 53.381065955252986], [-3.1210685113942587, 53.380886217995176], [-3.1207679086817097, 53.38088904127703], [-3.1207726298896596, 53.381068778553214], [-3.1210732338675453, 53.381065955252986]]]}, "properties": {"kind": "max_footprint", "threshold_pct": 7.0}}, {"type": "Feature", "geometry": {"type": "Polygon", "coordinates": [[[-3.119255464747319, 53.38054367158163], [-3.119250750018172, 53.38036393419639], [-3.1189501507971635, 53.38036675288261], [-3.118954864261009, 53.38054649028619], [-3.119255464747319, 53.38054367158163]]]}, "properties": {"kind": "max_footprint", "threshold_pct": 7.0}}, {"type": "Feature", "geometry": {"type": "Polygon", "coordinates": [[[-3.124337248575499, 53.37941721530037], [-3.1243325126419013, 53.379237478193495], [-3.124633103356814, 53.37923464599655], [-3.1246283662089485, 53.379054908902376], [-3.1240271872585836, 53.37906057250266], [-3.1240366565444524, 53.37942004675903], [-3.124337248575499, 53.37941721530037]]]}, "properties": {"kind": "max_footprint", "threshold_pct": 7.0}}, {"type": "Feature", "geometry": {"type": "Polygon", "coordinates": [[[-3.124905264306695, 53.37815339050241], [-3.1249005261993363, 53.37797365339225], [-3.1252011079563022, 53.37797081981107], [-3.1251916293642426, 53.377611345610404], [-3.124590470859724, 53.377617011942306], [-3.1246046812336727, 53.37815622334538], [-3.124905264306695, 53.37815339050241]]]}, "properties": {"kind": "max_footprint", "threshold_pct": 7.0}}, {"type": "Feature", "geometry": {"type": "Polygon", "coordinates": [[[-3.128478985258012, 53.376861179026314], [-3.128474232327136, 53.376681442097706], [-3.1278730875954115, 53.37668712489119], [-3.1278778379962744, 53.376866861856826], [-3.128478985258012, 53.376861179026314]]]}, "properties": {"kind": "max_footprint", "threshold_pct": 7.0}}, {"type": "Feature", "geometry": {"type": "Polygon", "coordinates": [[[-3.1272719426593754, 53.376692804658155], [-3.12726719483958, 53.37651306764981], [-3.1269666235599756, 53.376515906379844], [-3.1269713701147746, 53.376695643406684], [-3.1272719426593754, 53.376692804658155]]]}, "properties": {"kind": "max_footprint", "threshold_pct": 7.0}}, {"type": "Feature", "geometry": {"type": "Polygon", "coordinates": [[[-3.1263939457616585, 53.37760000386658], [-3.12637496894829, 53.37688105569182], [-3.1257738209719257, 53.37688672792931], [-3.125759596487507, 53.37634751662714], [-3.1263607368738775, 53.376341844500466], [-3.126365480847672, 53.37652158156999], [-3.1269666235599756, 53.376515906379844], [-3.126961877056214, 53.37633616934727], [-3.1266613069905564, 53.37633900730218], [-3.1266565618028, 53.376159270245395], [-3.126957130603487, 53.37615643230896], [-3.1269523842017968, 53.375976695264896], [-3.1266518166660653, 53.37597953318286], [-3.1266423265456553, 53.37562005904057], [-3.127243456506342, 53.37561438252197], [-3.127248204070894, 53.37579411955901], [-3.1284504684393077, 53.37578275736852], [-3.128455221114667, 53.375962494325826], [-3.1290563555221955, 53.37595680865388], [-3.1290468451628533, 53.375597334807544], [-3.128746280514509, 53.375600177984815], [-3.1287367728894857, 53.37524070407848], [-3.129037335008024, 53.37523786093824], [-3.1290420900598757, 53.375417597875774], [-3.1293426533921815, 53.37541475396041], [-3.1293474097600704, 53.37559449087368], [-3.129948538801067, 53.37558880073612], [-3.1299532977499402, 53.37576853760658], [-3.1302538634586137, 53.37576569138436], [-3.130258623723592, 53.375945428230544], [-3.1305591906460166, 53.37594258123318], [-3.1305496676373887, 53.37558310757212], [-3.1302491032448194, 53.375585954532426], [-3.130244343082206, 53.37540621767475], [-3.1305449062098685, 53.375403370733], [-3.1305401448335446, 53.37522363388811], [-3.1308407066451207, 53.3752207862083], [-3.1308216565923277, 53.37450183884553], [-3.131122213293265, 53.374498990483296], [-3.131103159000538, 53.37378004310284], [-3.1314037105910475, 53.37377719405825], [-3.1313894166150047, 53.37323798351824], [-3.1310888688187606, 53.3732408325072], [-3.131084105527262, 53.37306109563047], [-3.131384652058778, 53.37305824666008], [-3.1313560657971466, 53.37197982539054], [-3.1310555268537112, 53.37198267424962], [-3.131046001038868, 53.37162320041007], [-3.130444928056894, 53.371628895784546], [-3.130440167755496, 53.37144915881905], [-3.1286369551693536, 53.37146622667534], [-3.1286417078830957, 53.37164596375195], [-3.1280406340829, 53.37165164702244], [-3.128045384318487, 53.37183138413032], [-3.127744846077149, 53.37183422464929], [-3.127749595099166, 53.37201396176993], [-3.127449055542129, 53.3720168015509], [-3.1274538033505515, 53.37219653868429], [-3.126852721554043, 53.37220221601367], [-3.126876448714884, 53.373100901779324], [-3.126575901416605, 53.37310373940161], [-3.126580645737098, 53.373283476556004], [-3.1262800971230704, 53.373286313440246], [-3.126289583387568, 53.37364578776872], [-3.1265901345311153, 53.37364295084755], [-3.1266043681047253, 53.374182162241794], [-3.1263038131667957, 53.37418499921839], [-3.126299069856055, 53.37400526207425], [-3.1259985161319337, 53.37400809827579], [-3.126003258177867, 53.37418783543843], [-3.125702703137952, 53.374190670901875], [-3.125712184853119, 53.37455014524683], [-3.1260127424226933, 53.37454730974645], [-3.126036453927051, 53.37544599541604], [-3.1257358900330936, 53.375448831008754], [-3.125740631222017, 53.3756285681439], [-3.125440066012163, 53.37563140299846], [-3.1254353260881564, 53.37545166584483], [-3.1251347620922574, 53.37545449992432], [-3.1251442394613824, 53.375813974262726], [-3.125444805987135, 53.37581114014634], [-3.1254542860899743, 53.37617061442489], [-3.1251537170343155, 53.37617344857819], [-3.125158455897212, 53.37635318572731], [-3.124857885525627, 53.37635601914245], [-3.1248626231744896, 53.37653575630426], [-3.124562051486974, 53.376538588981205], [-3.124571524407506, 53.37689806332453], [-3.1242709501390444, 53.37690089528172], [-3.124275685410673, 53.37708063246324], [-3.1245762609441656, 53.37707780048759], [-3.1245809975317536, 53.37725753764491], [-3.1248815742793576, 53.37725470489418], [-3.1248863121829347, 53.37743444202731], [-3.125186890144651, 53.37743160850147], [-3.1251916293642426, 53.377611345610404], [-3.1263939457616585, 53.37760000386658]], [[-3.1263417614887774, 53.37562289616497], [-3.1260411963808936, 53.37562573253275], [-3.126036453927051, 53.37544599541604], [-3.1263370177700183, 53.375443159066734], [-3.1263417614887774, 53.37562289616497]], [[-3.1290278250576975, 53.374878387045975], [-3.1287272654689127, 53.37488123014917], [-3.128722511835294, 53.37470149317593], [-3.1281213950341176, 53.37470717707555], [-3.128116643981296, 53.37452744005953], [-3.129018315311873, 53.37451891313073], [-3.1290278250576975, 53.374878387045975]]]}, "properties": {"kind": "max_footprint", "threshold_pct": 7.0}}, {"type": "Feature", "geometry": {"type": "Polygon", "coordinates": [[[-3.1251774118583464, 53.37707213426637], [-3.1251726727916287, 53.37689239714022], [-3.1248720986250373, 53.37689523061071], [-3.124876836426727, 53.37707496775531], [-3.1251774118583464, 53.37707213426637]]]}, "properties": {"kind": "max_footprint", "threshold_pct": 10.0}}, {"type": "Feature", "geometry": {"type": "Polygon", "coordinates": [[[-3.1305401448335446, 53.37522363388811], [-3.1305306222344784, 53.374864160181126], [-3.1293283845953583, 53.374875543186185], [-3.1293331408098264, 53.37505528011667], [-3.1296337015612172, 53.37505243548176], [-3.1296384590917072, 53.37523217238798], [-3.1305401448335446, 53.37522363388811]]]}, "properties": {"kind": "max_footprint", "threshold_pct": 10.0}}, {"type": "Feature", "geometry": {"type": "Polygon", "coordinates": [[[-3.1274727950947043, 53.37291548716042], [-3.1274680470820932, 53.372735750050005], [-3.127167502415307, 53.372738589148405], [-3.1271722491632064, 53.37291832627731], [-3.1274727950947043, 53.37291548716042]]]}, "properties": {"kind": "max_footprint", "threshold_pct": 10.0}}, {"type": "Feature", "geometry": {"type": "Polygon", "coordinates": [[[-3.1284362107198342, 53.375243546462094], [-3.1284267058290167, 53.374884072495796], [-3.1281261461380225, 53.37488691408582], [-3.1281213950341176, 53.37470717707555], [-3.1278208365568974, 53.374710017890486], [-3.1278113370320133, 53.37435054381572], [-3.1275107810334, 53.37435338383709], [-3.127506032612379, 53.37417364677261], [-3.1284076966605476, 53.374165124494255], [-3.1284029444961687, 53.37398538747953], [-3.128703497811918, 53.373982545225445], [-3.1287177582527854, 53.374521756196906], [-3.129018315311873, 53.37451891313073], [-3.129023070159224, 53.37469865009123], [-3.130225302943563, 53.374687270186634], [-3.1302157831813155, 53.3743277964081], [-3.1308168942071424, 53.37432210199047], [-3.130812131873164, 53.37414236512969], [-3.1311126860444665, 53.37413951680454], [-3.131103159000538, 53.37378004310284], [-3.1314037105910475, 53.37377719405825], [-3.1313941812224577, 53.37341772037066], [-3.131093632161471, 53.37342056937814], [-3.131074579097901, 53.372701621859825], [-3.131375123100004, 53.37269877292655], [-3.1313560657971466, 53.37197982539054], [-3.1310555268537112, 53.37198267424962], [-3.131046001038868, 53.37162320041007], [-3.130444928056894, 53.371628895784546], [-3.130440167755496, 53.37144915881905], [-3.1286369551693536, 53.37146622667534], [-3.128646460647934, 53.37182570082283], [-3.128045384318487, 53.37183138413032], [-3.1280501346051457, 53.372011121232454], [-3.127449055542129, 53.3720168015509], [-3.127463299120533, 53.37255601293384], [-3.127763842471575, 53.37255317309739], [-3.1277733409751525, 53.37291264728699], [-3.1274727950947043, 53.37291548716042], [-3.1274965359234987, 53.37381417262641], [-3.1277970881276977, 53.37381133266051], [-3.1278018377114023, 53.373991069718], [-3.127200730722369, 53.373996748930196], [-3.127186489713119, 53.373457537629584], [-3.1268859399363724, 53.37346037604541], [-3.1268811943001156, 53.37328063891522], [-3.126580645737098, 53.373283476556004], [-3.12659487900464, 53.3738226879847], [-3.1268954313619557, 53.3738198502885], [-3.1269239068633405, 53.37489827288004], [-3.1275250266027945, 53.374892594996105], [-3.127529775228039, 53.37507233203764], [-3.12813089729301, 53.37506665109035], [-3.1281356484990845, 53.37524638808914], [-3.1284362107198342, 53.375243546462094]], [[-3.1302157831813155, 53.3743277964081], [-3.1299152275916295, 53.374330642482064], [-3.129910469052084, 53.374150905565656], [-3.1302110233769582, 53.37414805951024], [-3.1302157831813155, 53.3743277964081]], [[-3.1296051574524637, 53.373974013923835], [-3.1293046042900796, 53.373976858447605], [-3.1292998483824315, 53.37379712148267], [-3.129600400280031, 53.37379427697742], [-3.1296051574524637, 53.373974013923835]]]}, "properties": {"kind": "max_footprint", "threshold_pct": 10.0}}]}