{"type": "FeatureCollection", "features": [{"type": "Feature", "geometry": {"type": "Polygon", "coordinates": [[[-3.117527182151156, 53.38343637160265], [-3.11752247420386, 53.383256634199114], [-3.1178230939246734, 53.3832538190033], [-3.1178183847624994, 53.38307408161238], [-3.1172171478012625, 53.38307971121051], [-3.1172265611141894, 53.38343918605995], [-3.117527182151156, 53.38343637160265]]]}, "properties": {"kind": "max_footprint", "threshold_pct": 4.0}}, {"type": "Feature", "geometry": {"type": "Polygon", "coordinates": [[[-3.1169165292447145, 53.38308252487435], [-3.11691182392967, 53.38290278742267], [-3.1166112065880216, 53.382905600311375], [-3.116615910637569, 53.38308533778134], [-3.1169165292447145, 53.38308252487435]]]}, "properties": {"kind": "max_footprint", "threshold_pct": 4.0}}, {"type": "Feature", "geometry": {"type": "Polygon", "coordinates": [[[-3.1190114297808433, 53.38270333868194], [-3.1190067157087227, 53.38252360134719], [-3.1193073301142507, 53.38252078244069], [-3.119302614827372, 53.38234104511856], [-3.118701388496528, 53.382346682138035], [-3.118706101252502, 53.38252641949689], [-3.117804257579816, 53.38253486940515], [-3.117808966590071, 53.38271460681329], [-3.1190114297808433, 53.38270333868194]]]}, "properties": {"kind": "max_footprint", "threshold_pct": 4.0}}, {"type": "Feature", "geometry": {"type": "Polygon", "coordinates": [[[-3.11840077525508, 53.38234949951258], [-3.118396063815224, 53.38216976212965], [-3.117794839711225, 53.38217539457167], [-3.1177995486202015, 53.382355131991275], [-3.11840077525508, 53.38234949951258]]]}, "properties": {"kind": "max_footprint", "threshold_pct": 4.0}}, {"type": "Feature", "geometry": {"type": "Polygon", "coordinates": [[[-3.117794839711225, 53.38217539457167], [-3.117790130852887, 53.381995657146305], [-3.117188909077195, 53.38200128652446], [-3.117193615404677, 53.38218102398648], [-3.117794839711225, 53.38217539457167]]]}, "properties": {"kind": "max_footprint", "threshold_pct": 4.0}}, {"type": "Feature", "geometry": {"type": "Polygon", "coordinates": [[[-3.118992573796519, 53.38198438930848], [-3.118987859927169, 53.38180465195078], [-3.118687250532674, 53.38180747002706], [-3.1186919631366146, 53.381987207403135], [-3.118992573796519, 53.38198438930848]]]}, "properties": {"kind": "max_footprint", "threshold_pct": 4.0}}, {"type": "Feature", "geometry": {"type": "Polygon", "coordinates": [[[-3.0883300277804424, 53.38226793668556], [-3.088325442986772, 53.38208819748132], [-3.0880248284932796, 53.382090938364016], [-3.088020245014384, 53.38191119913622], [-3.0877196317370728, 53.38191393924427], [-3.0877287962131983, 53.38227341772983], [-3.0883300277804424, 53.38226793668556]]]}, "properties": {"kind": "max_footprint", "threshold_pct": 4.0}}, {"type": "Feature", "geometry": {"type": "Polygon", "coordinates": [[[-3.0958361728841997, 53.381839690687755], [-3.095831556552924, 53.3816599519199], [-3.0955309458269906, 53.381662711686936], [-3.0955355608928246, 53.38184245047274], [-3.0958361728841997, 53.381839690687755]]]}, "properties": {"kind": "max_footprint", "threshold_pct": 4.0}}, {"type": "Feature", "geometry": {"type": "Polygon", "coordinates": [[[-3.0774987510786893, 53.3820066526142], [-3.0774942119405475, 53.38182691275905], [-3.0768929844350006, 53.381832339205985], [-3.076897521042177, 53.382012079096455], [-3.0774987510786893, 53.3820066526142]]]}, "properties": {"kind": "max_footprint", "threshold_pct": 4.0}}, {"type": "Feature", "geometry": {"type": "Polygon", "coordinates": [[[-3.114474018857245, 53.381667105994325], [-3.114464629333462, 53.381307630700725], [-3.1141640229764267, 53.38131043737035], [-3.114173409969432, 53.38166991270053], [-3.114474018857245, 53.381667105994325]]]}, "properties": {"kind": "max_footprint", "threshold_pct": 4.0}}, {"type": "Feature", "geometry": {"type": "Polygon", "coordinates": [[[-3.079001825315507, 53.381993073164224], [-3.078992734433293, 53.381633593625104], [-3.078692122214582, 53.38163631099334], [-3.07870121056585, 53.38199579056785], [-3.079001825315507, 53.381993073164224]]]}, "properties": {"kind": "max_footprint", "threshold_pct": 4.0}}, {"type": "Feature", "geometry": {"type": "Polygon", "coordinates": [[[-3.074793214378343, 53.38203104794454], [-3.074784158929496, 53.38167156791081], [-3.0744835460279014, 53.38167427468371], [-3.074492598945781, 53.38203375475268], [-3.074793214378343, 53.38203104794454]]]}, "properties": {"kind": "max_footprint", "threshold_pct": 4.0}}, {"type": "Feature", "geometry": {"type": "Polygon", "coordinates": [[[-3.0799036692711335, 53.38198491641242], [-3.0798991200091517, 53.38180517669883], [-3.080199733297725, 53.38180245628565], [-3.080195182819201, 53.381622716584076], [-3.079293346603122, 53.38163087550006], [-3.0792978932852546, 53.381810615254764], [-3.0795985066716565, 53.381807896355205], [-3.079603054668161, 53.38198763608651], [-3.0799036692711335, 53.38198491641242]]]}, "properties": {"kind": "max_footprint", "threshold_pct": 4.0}}, {"type": "Feature", "geometry": {"type": "Polygon", "coordinates": [[[-3.0768929844350006, 53.381832339205985], [-3.076888447876611, 53.3816525993098], [-3.0765878353161256, 53.381655311380385], [-3.076592370609044, 53.381835051294225], [-3.0768929844350006, 53.381832339205985]]]}, "properties": {"kind": "max_footprint", "threshold_pct": 4.0}}, {"type": "Feature", "geometry": {"type": "Polygon", "coordinates": [[[-3.0756950603838296, 53.38202292297915], [-3.075690528838598, 53.38184318301804], [-3.076291756734315, 53.38183776262564], [-3.076287222706868, 53.38165802269414], [-3.075385384586608, 53.381666152094596], [-3.0753944450973814, 53.382025632057754], [-3.0756950603838296, 53.38202292297915]]]}, "properties": {"kind": "max_footprint", "threshold_pct": 4.0}}, {"type": "Feature", "geometry": {"type": "Polygon", "coordinates": [[[-3.081406741551895, 53.381971306689756], [-3.081397630422166, 53.381611827434114], [-3.081097018594874, 53.38161455085682], [-3.081092464368938, 53.3814348112027], [-3.0801906323896113, 53.38144297687677], [-3.080195182819201, 53.381622716584076], [-3.0804957947933778, 53.3816199954318], [-3.080500346537364, 53.38179973511565], [-3.0808009597280543, 53.38179701318883], [-3.080805512786464, 53.381976752849255], [-3.081406741551895, 53.381971306689756]]]}, "properties": {"kind": "max_footprint", "threshold_pct": 4.0}}, {"type": "Feature", "geometry": {"type": "Polygon", "coordinates": [[[-3.082308584332583, 53.38196313177435], [-3.082304024946807, 53.38178339220264], [-3.082604637843521, 53.381780665734965], [-3.0825955166881553, 53.3814211866099], [-3.0819942959075, 53.381426638717414], [-3.0820079701213667, 53.381965857502955], [-3.082308584332583, 53.38196313177435]]]}, "properties": {"kind": "max_footprint", "threshold_pct": 4.0}}, {"type": "Feature", "geometry": {"type": "Polygon", "coordinates": [[[-3.0910171829554574, 53.381524278315965], [-3.091012586970153, 53.381344539249724], [-3.0907119779826586, 53.38134728687217], [-3.0907165727025387, 53.381527025956316], [-3.0910171829554574, 53.381524278315965]]]}, "properties": {"kind": "max_footprint", "threshold_pct": 4.0}}, {"type": "Feature", "geometry": {"type": "Polygon", "coordinates": [[[-3.079293346603122, 53.38163087550006], [-3.0792887999698837, 53.381451135739624], [-3.0789881890655053, 53.38145385384696], [-3.078992734433293, 53.381633593625104], [-3.079293346603122, 53.38163087550006]]]}, "properties": {"kind": "max_footprint", "threshold_pct": 4.0}}, {"type": "Feature", "geometry": {"type": "Polygon", "coordinates": [[[-3.075385384586608, 53.381666152094596], [-3.0753808544042953, 53.38148641210442], [-3.074779631278108, 53.381491827885384], [-3.074784158929496, 53.38167156791081], [-3.075385384586608, 53.381666152094596]]]}, "properties": {"kind": "max_footprint", "threshold_pct": 4.0}}, {"type": "Feature", "geometry": {"type": "Polygon", "coordinates": [[[-3.074182933077629, 53.3816769806998], [-3.0741784079571652, 53.38149724063911], [-3.0738777962236954, 53.38149994588078], [-3.0738732724173428, 53.38132020579675], [-3.0735726619006765, 53.381322910264004], [-3.0735817070311127, 53.38168239046153], [-3.074182933077629, 53.3816769806998]]]}, "properties": {"kind": "max_footprint", "threshold_pct": 4.0}}, {"type": "Feature", "geometry": {"type": "Polygon", "coordinates": [[[-3.092515631166009, 53.381330789785615], [-3.0925110289030853, 53.38115105080317], [-3.091609206330159, 53.38115930269827], [-3.0916138047968604, 53.38133904173444], [-3.092515631166009, 53.381330789785615]]]}, "properties": {"kind": "max_footprint", "threshold_pct": 4.0}}, {"type": "Feature", "geometry": {"type": "Polygon", "coordinates": [[[-3.0846997878749103, 53.38140208039439], [-3.0846952185127976, 53.381222340947694], [-3.08439460975599, 53.381225072659646], [-3.084399177852677, 53.38140481212413], [-3.0846997878749103, 53.38140208039439]]]}, "properties": {"kind": "max_footprint", "threshold_pct": 4.0}}, {"type": "Feature", "geometry": {"type": "Polygon", "coordinates": [[[-3.0786875781122474, 53.381456571197525], [-3.0786830340587774, 53.381276831395965], [-3.0783824243220943, 53.38127954797203], [-3.078386967110124, 53.38145928779125], [-3.0786875781122474, 53.381456571197525]]]}, "properties": {"kind": "max_footprint", "threshold_pct": 4.0}}, {"type": "Feature", "geometry": {"type": "Polygon", "coordinates": [[[-3.094027891453162, 53.3816764991701], [-3.0940232827640974, 53.38149676028877], [-3.093722673006028, 53.3814995154971], [-3.093718065631939, 53.38131977659209], [-3.0934174570897404, 53.38132253102565], [-3.0934128510306023, 53.381142792097], [-3.0931122437042755, 53.381145545755835], [-3.093107638960059, 53.380965806803516], [-3.0925064266896536, 53.38097131181501], [-3.0925110289030853, 53.38115105080317], [-3.092811636328433, 53.38114829865792], [-3.092816239856762, 53.38132803762242], [-3.092515631166009, 53.381330789785615], [-3.092520233478423, 53.38151052876231], [-3.0931214533412628, 53.381505023643285], [-3.0931260582340347, 53.38168476257842], [-3.094027891453162, 53.3816764991701]]]}, "properties": {"kind": "max_footprint", "threshold_pct": 4.0}}, {"type": "Feature", "geometry": {"type": "Polygon", "coordinates": [[[-3.0835064762393514, 53.38177248179109], [-3.0834973474912886, 53.3814130027726], [-3.0831967372726425, 53.381415731475165], [-3.083192174237665, 53.381235991939576], [-3.0828915652353777, 53.381238719867575], [-3.082887003514883, 53.381058980308495], [-3.0825863957289563, 53.38106170746193], [-3.0825955166881553, 53.3814211866099], [-3.082896127004927, 53.381418459420935], [-3.082905250691193, 53.38177793851048], [-3.0835064762393514, 53.38177248179109]]]}, "properties": {"kind": "max_footprint", "threshold_pct": 4.0}}, {"type": "Feature", "geometry": {"type": "Polygon", "coordinates": [[[-3.094929724226249, 53.38166822895059], [-3.0949251117408965, 53.38148849012314], [-3.095526330810783, 53.3814829728954], [-3.0955124860599263, 53.38094375648643], [-3.095211880345989, 53.38094651542482], [-3.0952164939479285, 53.38112625425148], [-3.0949158869189928, 53.381129012451034], [-3.09491127458244, 53.38094927360638], [-3.0946106687692927, 53.380952031031185], [-3.0946152798404585, 53.38113176989379], [-3.093713458307396, 53.38114003768137], [-3.093718065631939, 53.38131977659209], [-3.0946198909612086, 53.38131150875067], [-3.0946291133514685, 53.38167098644722], [-3.094929724226249, 53.38166822895059]]]}, "properties": {"kind": "max_footprint", "threshold_pct": 4.0}}, {"type": "Feature", "geometry": {"type": "Polygon", "coordinates": [[[-3.0889037359425813, 53.381184017517086], [-3.088899148913914, 53.38100427831423], [-3.0885985421116584, 53.38100702060342], [-3.0886031278749226, 53.38118675982412], [-3.0889037359425813, 53.381184017517086]]]}, "properties": {"kind": "max_footprint", "threshold_pct": 4.0}}, {"type": "Feature", "geometry": {"type": "Polygon", "coordinates": [[[-3.088015661584775, 53.38173145990269], [-3.088001911591679, 53.38119224216782], [-3.0883025197579514, 53.38118950137436], [-3.08829793526009, 53.381009762135804], [-3.087696721409067, 53.381015242930246], [-3.08770588539245, 53.38137472147304], [-3.0874052758622006, 53.381377460770736], [-3.0874144375117987, 53.38173693932631], [-3.088015661584775, 53.38173145990269]]]}, "properties": {"kind": "max_footprint", "threshold_pct": 4.0}}, {"type": "Feature", "geometry": {"type": "Polygon", "coordinates": [[[-3.0804866914522457, 53.38126051604691], [-3.0804821398551003, 53.381080776345904], [-3.08018153167723, 53.38108349744501], [-3.0801860820089546, 53.38126323716375], [-3.0804866914522457, 53.38126051604691]]]}, "properties": {"kind": "max_footprint", "threshold_pct": 4.0}}, {"type": "Feature", "geometry": {"type": "Polygon", "coordinates": [[[-3.07808181453656, 53.38128226379127], [-3.078077273062807, 53.38110252394862], [-3.0774760558760956, 53.381107953281386], [-3.0774805948189914, 53.381287693159365], [-3.07808181453656, 53.38128226379127]]]}, "properties": {"kind": "max_footprint", "threshold_pct": 4.0}}, {"type": "Feature", "geometry": {"type": "Polygon", "coordinates": [[[-3.0862074129871795, 53.38156814974561], [-3.086193685919494, 53.381028931672596], [-3.085592471379141, 53.381034401872036], [-3.085587898319112, 53.38085466246731], [-3.0852872922405603, 53.380857396414044], [-3.0852918640351934, 53.381037135836564], [-3.0849912566420823, 53.38103986904431], [-3.0850003978480065, 53.381399347907845], [-3.0846997878749103, 53.38140208039439], [-3.0847043572861605, 53.38158181983536], [-3.0853055797140776, 53.381576354069864], [-3.0852964358789916, 53.38121687525337], [-3.085597044488349, 53.381214141271066], [-3.0856061908542936, 53.3815736200519], [-3.0862074129871795, 53.38156814974561]]]}, "properties": {"kind": "max_footprint", "threshold_pct": 4.0}}, {"type": "Feature", "geometry": {"type": "Polygon", "coordinates": [[[-3.084084867434866, 53.380868324633134], [-3.0840803007509314, 53.38068858513372], [-3.0837796956920887, 53.380691315278746], [-3.083784261110638, 53.38087105479596], [-3.084084867434866, 53.380868324633134]]]}, "properties": {"kind": "max_footprint", "threshold_pct": 4.0}}, {"type": "Feature", "geometry": {"type": "Polygon", "coordinates": [[[-3.096132167229217, 53.38165719139608], [-3.0961275496821576, 53.381477452640496], [-3.096728768354916, 53.38147192935843], [-3.096724148326691, 53.38129219063309], [-3.0973253642698997, 53.381286664359834], [-3.0973207417605644, 53.38110692566475], [-3.0976213483922193, 53.38110416141096], [-3.097612100991922, 53.380744684039605], [-3.0979127050431083, 53.380741919065045], [-3.0979080801521865, 53.380562180388786], [-3.097306874530803, 53.380567709545154], [-3.097302252220294, 53.38038797082717], [-3.0967010489307705, 53.380393496920476], [-3.0967102885400997, 53.380752974422705], [-3.097010892740405, 53.38075021171845], [-3.0970155138849567, 53.380929950442955], [-3.0964143029039297, 53.38093547513069], [-3.0964235402805564, 53.381294952634526], [-3.096122932184755, 53.38129771387919], [-3.096118314737006, 53.38111797511214], [-3.0958177078569484, 53.38112073558204], [-3.095831556552924, 53.3816599519199], [-3.096132167229217, 53.38165719139608]]]}, "properties": {"kind": "max_footprint", "threshold_pct": 4.0}}, {"type": "Feature", "geometry": {"type": "Polygon", "coordinates": [[[-3.100012298259734, 53.38054280450339], [-3.1000076645611903, 53.380363065947606], [-3.1003082656834438, 53.38036029495496], [-3.1003036307694054, 53.380180556411474], [-3.099101231042761, 53.380191635769336], [-3.099105860895514, 53.380371374384964], [-3.0988052595740307, 53.38037414235057], [-3.0988098882112327, 53.380553880978496], [-3.100012298259734, 53.38054280450339]]]}, "properties": {"kind": "max_footprint", "threshold_pct": 4.0}}, {"type": "Feature", "geometry": {"type": "Polygon", "coordinates": [[[-3.103004380985458, 53.3799758451997], [-3.102999734783495, 53.379796106807376], [-3.102699137906198, 53.37979888455657], [-3.102703782842875, 53.37997862296697], [-3.103004380985458, 53.3799758451997]]]}, "properties": {"kind": "max_footprint", "threshold_pct": 4.0}}, {"type": "Feature", "geometry": {"type": "Polygon", "coordinates": [[[-3.100904830333743, 53.38017501219204], [-3.1008909182989157, 53.37963579663556], [-3.0999891302652753, 53.37964411166714], [-3.0999937637645156, 53.37982385024584], [-3.10029436109085, 53.37982107930734], [-3.1003036307694054, 53.380180556411474], [-3.100904830333743, 53.38017501219204]]]}, "properties": {"kind": "max_footprint", "threshold_pct": 4.0}}, {"type": "Feature", "geometry": {"type": "Polygon", "coordinates": [[[-3.102699137906198, 53.37979888455657], [-3.1026944930194693, 53.37961914614044], [-3.1020933016455943, 53.379624699332425], [-3.102097944001774, 53.37980443778471], [-3.102699137906198, 53.37979888455657]]]}, "properties": {"kind": "max_footprint", "threshold_pct": 4.0}}, {"type": "Feature", "geometry": {"type": "Polygon", "coordinates": [[[-3.1020933016455943, 53.379624699332425], [-3.1020886593393313, 53.379444960874395], [-3.1017880648427694, 53.3794477363172], [-3.1017834238516757, 53.379267997835385], [-3.102084017082989, 53.37926522241065], [-3.1020793748765656, 53.37908548394117], [-3.1017787829104857, 53.37908825934787], [-3.101774142019199, 53.378908520854566], [-3.1014735512684366, 53.37891129548644], [-3.101482830570456, 53.3792707725034], [-3.101182237239346, 53.37927354641468], [-3.101191514210418, 53.37963302344488], [-3.1020933016455943, 53.379624699332425]]]}, "properties": {"kind": "max_footprint", "threshold_pct": 4.0}}, {"type": "Feature", "geometry": {"type": "Polygon", "coordinates": [[[-3.1054091643263617, 53.37995359581864], [-3.1053998517279733, 53.37959411931807], [-3.1060010420016737, 53.3795885494779], [-3.1059917245425788, 53.379229073026956], [-3.1053905393298615, 53.37923464279457], [-3.1053812271320207, 53.37887516624818], [-3.105080636980992, 53.37887794996064], [-3.105075982222371, 53.3786982116607], [-3.1044748043005708, 53.37870377677925], [-3.1044841088070374, 53.37906325344586], [-3.1041835172406786, 53.379066034906295], [-3.1041788662276466, 53.37888629655775], [-3.1035776854753343, 53.378891857172256], [-3.103586982490519, 53.37925133393604], [-3.103286389508931, 53.37925411314443], [-3.103295684193558, 53.37961358992152], [-3.103596279705648, 53.379610810676944], [-3.10359163107309, 53.379431072309366], [-3.1038922252699352, 53.37942829232617], [-3.10389687516775, 53.37960803067564], [-3.1041974705798525, 53.3796052499176], [-3.1042021217929374, 53.379784988243216], [-3.1045027184202945, 53.379782206710324], [-3.1045073709486783, 53.379961945012134], [-3.1048079687912886, 53.37995916270438], [-3.104803314997621, 53.379779424420704], [-3.105103911524905, 53.37977664137433], [-3.1051085665838536, 53.37995637963991], [-3.1054091643263617, 53.37995359581864]], [[-3.105089946648394, 53.37923742654329], [-3.10448876113531, 53.37924299177057], [-3.1044841088070374, 53.37906325344586], [-3.105085291789667, 53.37905768825483], [-3.105089946648394, 53.37923742654329]]]}, "properties": {"kind": "max_footprint", "threshold_pct": 4.0}}, {"type": "Feature", "geometry": {"type": "Polygon", "coordinates": [[[-3.1071847669863204, 53.378858448082354], [-3.107180103371319, 53.37867870990942], [-3.1074806919064026, 53.378675920918106], [-3.107471362296497, 53.3783164445914], [-3.106569604131861, 53.378324809186225], [-3.106574265116233, 53.37850454740693], [-3.1059730902255236, 53.37851012005629], [-3.1059777487296474, 53.378689858307546], [-3.1068795147860873, 53.37868149814402], [-3.106884177135893, 53.37886123633511], [-3.1071847669863204, 53.378858448082354]]]}, "properties": {"kind": "max_footprint", "threshold_pct": 4.0}}, {"type": "Feature", "geometry": {"type": "Polygon", "coordinates": [[[-3.107799945273932, 53.37939208368215], [-3.107795278978016, 53.37921234556272], [-3.1083964633885617, 53.37920676368755], [-3.108391794612385, 53.37902702559877], [-3.1086923854771404, 53.37902423354427], [-3.1086877154859613, 53.378844495467916], [-3.1080865362366574, 53.378850078783834], [-3.1080818688260767, 53.378670340665394], [-3.108382457210637, 53.37866754940398], [-3.1083731200096962, 53.37830807318626], [-3.108673705813715, 53.378305281204504], [-3.108669036023394, 53.37812554310522], [-3.1080678668954587, 53.3781311262757], [-3.1080772014656834, 53.37849060254123], [-3.1077766142961134, 53.37849339302779], [-3.107781280391328, 53.37867313117012], [-3.1074806919064026, 53.378675920918106], [-3.107485356786598, 53.37885565907289], [-3.1071847669863204, 53.378858448082354], [-3.1071894306514674, 53.37903818624955], [-3.106888839535833, 53.37904097452047], [-3.1068935019859083, 53.379220712700096], [-3.1071940943667644, 53.37921792441102], [-3.1071987581322125, 53.379397662566774], [-3.107799945273932, 53.37939208368215]]]}, "properties": {"kind": "max_footprint", "threshold_pct": 4.0}}, {"type": "Feature", "geometry": {"type": "Polygon", "coordinates": [[[-3.1089696205120494, 53.378122750384954], [-3.1089602785517876, 53.3777632742056], [-3.108359114584784, 53.37776885881672], [-3.108363783009556, 53.37794859694564], [-3.1086643662832865, 53.37794580500022], [-3.108669036023394, 53.37812554310522], [-3.1089696205120494, 53.378122750384954]]]}, "properties": {"kind": "max_footprint", "threshold_pct": 4.0}}, {"type": "Feature", "geometry": {"type": "Polygon", "coordinates": [[[-3.1101579299177646, 53.377572357877675], [-3.1101532540028227, 53.377392619846475], [-3.109852674775608, 53.377395415520674], [-3.109857349425457, 53.3775751535701], [-3.1101579299177646, 53.377572357877675]]]}, "properties": {"kind": "max_footprint", "threshold_pct": 4.0}}, {"type": "Feature", "geometry": {"type": "Polygon", "coordinates": [[[-3.111054991382747, 53.37738422828378], [-3.1110503117228516, 53.37720449030149], [-3.111651467194413, 53.37719889217948], [-3.111646785054711, 53.37701915422789], [-3.110745055567072, 53.37702755022124], [-3.110749733911588, 53.37720728822749], [-3.1101485781381584, 53.37721288180951], [-3.1101532540028227, 53.377392619846475], [-3.111054991382747, 53.37738422828378]]]}, "properties": {"kind": "max_footprint", "threshold_pct": 4.0}}, {"type": "Feature", "geometry": {"type": "Polygon", "coordinates": [[[-3.1128444031838, 53.37682821109252], [-3.1128397160846553, 53.37664847320244], [-3.1122385686062386, 53.37665407726829], [-3.112243253175319, 53.37683381519485], [-3.1128444031838, 53.37682821109252]]]}, "properties": {"kind": "max_footprint", "threshold_pct": 4.0}}, {"type": "Feature", "geometry": {"type": "Polygon", "coordinates": [[[-3.109894748433862, 53.37901305775913], [-3.1098900733818713, 53.378833319755564], [-3.110491252028258, 53.37882772735914], [-3.1104865744961616, 53.37864798938624], [-3.1101859864632972, 53.3786507859446], [-3.110181310246671, 53.37847104794778], [-3.110481897014363, 53.37846825140764], [-3.11047721958286, 53.37828851342328], [-3.1113789757886305, 53.378280119317296], [-3.11137429461199, 53.3781003813819], [-3.111674878648116, 53.37809758185139], [-3.11167019625668, 53.37791784392847], [-3.112271361647615, 53.377912242633904], [-3.1122760465693085, 53.37809198052035], [-3.112877214288996, 53.37808637616255], [-3.1128725268370494, 53.377906638312616], [-3.11317310935617, 53.37790383501694], [-3.1131684206895143, 53.37772409717951], [-3.113469001893106, 53.37772129314542], [-3.1134643120117667, 53.377541555320526], [-3.1137648918998333, 53.37753875054801], [-3.11376020080384, 53.37735901273564], [-3.114361357898466, 53.377353400957155], [-3.1143566643227754, 53.3771736631756], [-3.1146572415293257, 53.37717085616964], [-3.114652546739048, 53.37699111840062], [-3.1149531226300637, 53.376988310656266], [-3.1149484266252254, 53.3768085728998], [-3.1155495757256833, 53.37680295517772], [-3.1155448772412893, 53.37662321745212], [-3.1164465967179664, 53.37661478524903], [-3.116441894489062, 53.37643504757258], [-3.1167424662818437, 53.37643223534326], [-3.116737762838505, 53.37625249767938], [-3.1173389037423456, 53.37624687098744], [-3.117329491947492, 53.375887395715765], [-3.117930627589044, 53.37588176607059], [-3.1179212109368066, 53.37552229084929], [-3.118221776151763, 53.375519474928446], [-3.1182123571721894, 53.37515999972089], [-3.117310668964961, 53.37516844510359], [-3.117320080355032, 53.37552792042114], [-3.1167189495708687, 53.37553354696655], [-3.1167142463803867, 53.375353809273996], [-3.116413682177371, 53.37535662139344], [-3.116418384102927, 53.375536359104316], [-3.115817253015386, 53.37554198111002], [-3.1158219524616144, 53.37572171885175], [-3.1149202516565397, 53.375730146240564], [-3.114934338913673, 53.37626935959598], [-3.1143331972013213, 53.376274974181776], [-3.114328503928425, 53.37609523636579], [-3.1137273645441925, 53.37610084788849], [-3.1137367460804715, 53.376460323587764], [-3.1134361737827034, 53.3764631282507], [-3.1134502426703183, 53.37700234181142], [-3.1131496665270366, 53.37700514577248], [-3.113159043507447, 53.37736462148745], [-3.1125578860093994, 53.377370227212616], [-3.11255320002413, 53.37719048932147], [-3.1119520448546814, 53.37719609198347], [-3.1119614118152854, 53.377555567832985], [-3.111660831624853, 53.37755836806545], [-3.111665513915593, 53.377738105999825], [-3.111064350853498, 53.37774370423121], [-3.1110596710929626, 53.37756396626036], [-3.110458510359794, 53.37756956142858], [-3.11046318759012, 53.37774929943585], [-3.1101626058829854, 53.377752095903155], [-3.1101672818984865, 53.37793183392291], [-3.1104678648707393, 53.37792903743739], [-3.110472542201654, 53.37810877543321], [-3.109270204950477, 53.37811995690798], [-3.1092748772710963, 53.37829969497088], [-3.1089742915675185, 53.37830248846605], [-3.108983633829142, 53.37866196461101], [-3.109284222063058, 53.378659171079484], [-3.109288894534402, 53.378838909125164], [-3.1095894839832647, 53.37883611481872], [-3.1095941577700548, 53.37901585284049], [-3.109894748433862, 53.37901305775913]]]}, "properties": {"kind": "max_footprint", "threshold_pct": 4.0}}, {"type": "Feature", "geometry": {"type": "Polygon", "coordinates": [[[-3.1197104540996983, 53.374966171430344], [-3.1197057384121, 53.374786433903985], [-3.1200062982634327, 53.37478361351691], [-3.1200015813616746, 53.374603876003185], [-3.118799346711639, 53.37461515293841], [-3.118804058553937, 53.3747948905256], [-3.119405178510064, 53.374789253534445], [-3.119409892932782, 53.37496899107917], [-3.1197104540996983, 53.374966171430344]]]}, "properties": {"kind": "max_footprint", "threshold_pct": 4.0}}, {"type": "Feature", "geometry": {"type": "Polygon", "coordinates": [[[-3.114877992611469, 53.37411250586458], [-3.114873297414439, 53.373932768016374], [-3.114572743027255, 53.37393557544991], [-3.1145774369594625, 53.374115313316416], [-3.114877992611469, 53.37411250586458]]]}, "properties": {"kind": "max_footprint", "threshold_pct": 4.0}}, {"type": "Feature", "geometry": {"type": "Polygon", "coordinates": [[[-3.122086587531102, 53.37386516264034], [-3.1220818620293587, 53.3736854252266], [-3.1217813101222767, 53.37368825079938], [-3.1217860343592294, 53.373867988231545], [-3.122086587531102, 53.37386516264034]]]}, "properties": {"kind": "max_footprint", "threshold_pct": 4.0}}, {"type": "Feature", "geometry": {"type": "Polygon", "coordinates": [[[-3.123885172404423, 53.37366845590206], [-3.1238804393648367, 53.37348871859307], [-3.1232793386394393, 53.373494378023985], [-3.1232840691494776, 53.3736741153698], [-3.123885172404423, 53.37366845590206]]]}, "properties": {"kind": "max_footprint", "threshold_pct": 4.0}}, {"type": "Feature", "geometry": {"type": "Polygon", "coordinates": [[[-3.115765562441629, 53.37356486557241], [-3.115756164812292, 53.37320538994554], [-3.1151550664086805, 53.37321100844915], [-3.1151597626685548, 53.37339074630203], [-3.1154603131603813, 53.37338793741021], [-3.1154650107355293, 53.37356767523906], [-3.115765562441629, 53.37356486557241]]]}, "properties": {"kind": "max_footprint", "threshold_pct": 4.0}}, {"type": "Feature", "geometry": {"type": "Polygon", "coordinates": [[[-3.119343895627174, 53.37245266493084], [-3.1193391819140377, 53.3722729273058], [-3.119038639668198, 53.372275745922714], [-3.1190433521166443, 53.3724554835661], [-3.119343895627174, 53.37245266493084]]]}, "properties": {"kind": "max_footprint", "threshold_pct": 4.0}}, {"type": "Feature", "geometry": {"type": "Polygon", "coordinates": [[[-3.116361964332765, 53.373379506195434], [-3.1163572630138274, 53.37319976841573], [-3.1178600076328578, 53.37318570135158], [-3.1178553000407248, 53.37300596365777], [-3.1175547524828406, 53.373008778565364], [-3.117550046206053, 53.37282904084747], [-3.1178505924992046, 53.37282622595819], [-3.117845885008296, 53.37264648825288], [-3.1184469749133057, 53.372640856241404], [-3.1184328451561067, 53.3721016432011], [-3.1187333862385884, 53.3720988261156], [-3.1187239641243303, 53.371739350763406], [-3.118423425571164, 53.37174216781223], [-3.1184281353383168, 53.37192190550952], [-3.117827055550787, 53.37192753737433], [-3.117841177568002, 53.37246675054185], [-3.1169395461250513, 53.372475192830116], [-3.1169442497712234, 53.37265493059613], [-3.116343159360293, 53.372660555042266], [-3.1163525617454364, 53.37302003063031], [-3.116052013934688, 53.37302284175519], [-3.116061413992499, 53.373382317356906], [-3.116361964332765, 53.373379506195434]]]}, "properties": {"kind": "max_footprint", "threshold_pct": 4.0}}, {"type": "Feature", "geometry": {"type": "Polygon", "coordinates": [[[-3.119024502626847, 53.371736532958046], [-3.119019790381058, 53.3715567952917], [-3.1187192531431767, 53.37155961307869], [-3.1187239641243303, 53.371739350763406], [-3.119024502626847, 53.371736532958046]]]}, "properties": {"kind": "max_footprint", "threshold_pct": 4.0}}, {"type": "Feature", "geometry": {"type": "Polygon", "coordinates": [[[-3.119894405472033, 53.38197593048382], [-3.1198896878064537, 53.38179619318121], [-3.120490906139008, 53.38179055021755], [-3.120486185993371, 53.38161081294594], [-3.121087401592106, 53.38160516699193], [-3.121082678966468, 53.381425429751346], [-3.1216838918313083, 53.38141978080701], [-3.121679166725725, 53.38124004359749], [-3.1219797718165725, 53.38123721800855], [-3.1219750454964514, 53.381057480811684], [-3.1228768566679457, 53.381048999559525], [-3.1228721266026462, 53.380869262412155], [-3.123172728959433, 53.380866433833], [-3.123167997679678, 53.38068669669829], [-3.1234685987202697, 53.38068386738081], [-3.123459133782792, 53.380324393131055], [-3.123759732241899, 53.38032156309369], [-3.1237549985842152, 53.3801418259786], [-3.124055595727143, 53.380138995202934], [-3.1240508608551005, 53.37995925810056], [-3.1243514566818495, 53.379956426586574], [-3.1243467205954722, 53.37977668949692], [-3.1246473151060483, 53.37977385724464], [-3.1246425778053637, 53.37959412016769], [-3.1249431709997637, 53.379591287177135], [-3.1249384324848, 53.37941155011289], [-3.1255396161902906, 53.37940588189854], [-3.12553487519587, 53.37922614486547], [-3.1258354657069476, 53.379223309641695], [-3.125825981340676, 53.37886383559523], [-3.1261265692703946, 53.37886099965169], [-3.1261170825777778, 53.3785015256192], [-3.12671825322357, 53.378495851535895], [-3.126708761674459, 53.37813637755434], [-3.1270093443905633, 53.37813353941461], [-3.1270045974274456, 53.37795380243372], [-3.1276057601763005, 53.3779481239212], [-3.1276010107340446, 53.377768386971546], [-3.1279015907667844, 53.37776554659877], [-3.1278968401105196, 53.377585809661866], [-3.128197418827103, 53.37758296855093], [-3.1281926669568567, 53.37740323162677], [-3.128793821706601, 53.37739754717195], [-3.128784313059233, 53.377038073380454], [-3.1290848878273505, 53.37703523005508], [-3.1290753768544364, 53.37667575627765], [-3.1293759490413984, 53.37667291223265], [-3.1293664357430475, 53.3763134384693], [-3.1296670053488946, 53.37631059370474], [-3.1296622475114715, 53.37613085683296], [-3.1299628158011976, 53.37612801133029], [-3.1299532977499402, 53.37576853760658], [-3.1302538634586137, 53.37576569138436], [-3.1302395829707756, 53.37522648081133], [-3.1305401448335446, 53.37522363388811], [-3.130535383508415, 53.37504389703749], [-3.1308359440551126, 53.375041049376215], [-3.1308311815163115, 53.374861312538386], [-3.131131740746937, 53.37485846413908], [-3.131122213293265, 53.374498990483296], [-3.131422769942983, 53.3744961413645], [-3.1314132401645547, 53.37413666772287], [-3.1317137942334106, 53.3741338178846], [-3.131689964360022, 53.373235133772766], [-3.1319905120537994, 53.37323228327077], [-3.1319666771379295, 53.37233359910813], [-3.13226721845696, 53.37233074794241], [-3.132262450362883, 53.372151011111214], [-3.1319619103085103, 53.37215386225838], [-3.1319476101277464, 53.37161465167465], [-3.131647073816017, 53.37161750200962], [-3.131637543147608, 53.3712580282213], [-3.13133700931384, 53.37126087776266], [-3.13132271748916, 53.37072166698144], [-3.1307216572553713, 53.37072736368342], [-3.13071213468646, 53.37036788972636], [-3.130411607021839, 53.37037073690556], [-3.1304068470786763, 53.37019099989988], [-3.1301063206273936, 53.3701938463041], [-3.130082528001536, 53.36929516109688], [-3.1297820078214555, 53.36929800665199], [-3.1297772507141866, 53.369118269574784], [-3.1294767317473973, 53.36912111435493], [-3.1294862434841977, 53.36948058854064], [-3.1291857219373984, 53.36948343260138], [-3.1291952313497835, 53.36984290680117], [-3.128594183044977, 53.369848592727394], [-3.1286036876038525, 53.37020806697825], [-3.1283031608458116, 53.370210908843674], [-3.1282984098053332, 53.37003117170264], [-3.1276973586650407, 53.37003685312716], [-3.127692610204621, 53.36985711594337], [-3.1273920858223847, 53.36985995550245], [-3.1273825915836357, 53.36950048108066], [-3.126781547723959, 53.36950615785553], [-3.126776803210043, 53.36932642059908], [-3.1264762824681394, 53.369329257833385], [-3.126457309980213, 53.36861030867619], [-3.1258562784588033, 53.36861598072776], [-3.125851537993074, 53.36843624338718], [-3.125551023420306, 53.36843907825986], [-3.125541545170466, 53.36807960352456], [-3.125241033075485, 53.36808243760394], [-3.1252457709105683, 53.36826217499291], [-3.124945257500294, 53.36826500833433], [-3.1249499941219363, 53.36844474573602], [-3.12434896461988, 53.368450410186504], [-3.124353698763664, 53.36863014761934], [-3.124053182671897, 53.36863297872839], [-3.124057915602171, 53.36881271617392], [-3.123456880737191, 53.36881837615962], [-3.1234616111895086, 53.36899811363625], [-3.12316109241631, 53.36900094251289], [-3.1231516340913563, 53.36864146751702], [-3.1225506014501034, 53.368647122927364], [-3.1225553280583416, 53.368826860464985], [-3.1219542926850137, 53.368832512886435], [-3.121949568605593, 53.368652775312], [-3.1216490521071516, 53.36865560036968], [-3.1216443293429164, 53.36847586277113], [-3.1213438140581014, 53.368478687054], [-3.121367422064889, 53.36937737508135], [-3.1207663786987316, 53.369383021561674], [-3.1207616595247587, 53.36920328393091], [-3.1204611390300245, 53.36920610601802], [-3.120470574899783, 53.36956558131055], [-3.1201700518254034, 53.369568402677956], [-3.1201794853690727, 53.369927877984296], [-3.119878959715005, 53.369930698632], [-3.1198836752983947, 53.37011043629493], [-3.1201842022169726, 53.37010761562885], [-3.120188919115583, 53.37028735326766], [-3.1195878626986797, 53.37029299388006], [-3.1196020061114758, 53.37083220687225], [-3.1190009419045173, 53.37083784456891], [-3.119019790381058, 53.3715567952917], [-3.1193203275682775, 53.37155397674822], [-3.119329754639802, 53.371913452038484], [-3.119630294305627, 53.37191063270176], [-3.119620864704819, 53.371551157448216], [-3.119921401790673, 53.371548337391715], [-3.1199166858016847, 53.37136859977468], [-3.1202172215722155, 53.37136577898004], [-3.120226656130148, 53.37172525417162], [-3.120827732577547, 53.37171961023934], [-3.1208230127439602, 53.371539872683186], [-3.121123549626919, 53.37153704960066], [-3.121118828579459, 53.371357312057164], [-3.1217198996638587, 53.37135166365939], [-3.121701005864923, 53.37063271357505], [-3.1226025969356486, 53.37062423552551], [-3.122607324102889, 53.370803973], [-3.123208387091734, 53.37079831714776], [-3.123198927749874, 53.3704388422667], [-3.123499456638931, 53.37043601324271], [-3.123504187548979, 53.37061575066769], [-3.1238047176517147, 53.370612920868794], [-3.1237999854771252, 53.37043318346225], [-3.1241005142644425, 53.3704303529253], [-3.1241052477035756, 53.37061009031342], [-3.124405777704546, 53.3706072590016], [-3.124410512459123, 53.37078699636553], [-3.1247110436737433, 53.370784164278774], [-3.1247157797437914, 53.37096390161855], [-3.1253168445493986, 53.370958235138694], [-3.1253263219005976, 53.37131770972723], [-3.1256268567561603, 53.37131487531565], [-3.1256410769589213, 53.371854087100004], [-3.1259416155573807, 53.37185125187658], [-3.1259463569915384, 53.37203098910808], [-3.126246896803665, 53.37202815310966], [-3.1262563823542444, 53.37238762751853], [-3.1265569246447114, 53.37238479072668], [-3.126561668761173, 53.37256452790401], [-3.1262611252060215, 53.37256736471436], [-3.126265868108793, 53.37274710190443], [-3.125664778316126, 53.37275277329246], [-3.125674259215769, 53.37311224772925], [-3.1253737117135345, 53.373115082325384], [-3.125378450975067, 53.37329481955363], [-3.1250779021571367, 53.37329765341167], [-3.125082640204867, 53.37347739065263], [-3.1241809896512103, 53.3734858877428], [-3.124185723955569, 53.37366562503335], [-3.123885172404423, 53.37366845590206], [-3.1238899054948983, 53.37384819320529], [-3.1229882467418197, 53.37385668132736], [-3.122983517445707, 53.37367694396884], [-3.122382413885633, 53.37368259889724], [-3.122391867469522, 53.374042073682176], [-3.1217907586469744, 53.37404772565794], [-3.1217860343592294, 53.373867988231545], [-3.119982714261787, 53.37388492589084], [-3.1199874309606876, 53.37406466342752], [-3.1208890950322252, 53.37405619794732], [-3.1208938155763053, 53.37423593542314], [-3.1211943714301498, 53.37423311206486], [-3.1212038152002584, 53.37459258696255], [-3.1209032568167334, 53.374595410357564], [-3.1209079775130824, 53.3747751478162], [-3.121509096759085, 53.374769500232766], [-3.12151854336358, 53.375128975059226], [-3.122119667465964, 53.37512332437584], [-3.122124393374191, 53.37530306174367], [-3.1224249566140707, 53.37530023524868], [-3.1224391384384154, 53.375839447262535], [-3.122739705422244, 53.375836619955685], [-3.1227728069797425, 53.37709478099161], [-3.1221716552513357, 53.37710043510638], [-3.122176381718554, 53.37728017241107], [-3.123078113030041, 53.3772716900487], [-3.1230828433432674, 53.37745142729243], [-3.123383421610449, 53.37744859830658], [-3.123388153239613, 53.37762833552615], [-3.1230875737073553, 53.37763116453042], [-3.1231017651048116, 53.37817037620998], [-3.1234023484323705, 53.37816754715042], [-3.123411812148607, 53.37852702153793], [-3.1228106403820806, 53.378532678974025], [-3.122815369786209, 53.378712416196], [-3.123115956960063, 53.37870958783788], [-3.123134880145894, 53.37942853659475], [-3.1222331032894917, 53.379437019619985], [-3.1222472848258667, 53.3799762312931], [-3.121946688643002, 53.37997905750996], [-3.12195141465819, 53.380158794741256], [-3.121650817159237, 53.38016162021978], [-3.1216413677101995, 53.37980214571464], [-3.1219419626786316, 53.37979932027292], [-3.1219372367650795, 53.37961958303015], [-3.1216366430618887, 53.379622408453464], [-3.1216319184643826, 53.37944267118658], [-3.121331325975615, 53.37944549583478], [-3.121326602694127, 53.37926575854373], [-3.121026011419785, 53.379268582416834], [-3.121044899789541, 53.37998753162014], [-3.1213454961248255, 53.37998470767348], [-3.1213549431449223, 53.38034418220393], [-3.1210543442790875, 53.38034700618737], [-3.1210496220089237, 53.38016726890663], [-3.120749024357592, 53.38017009211494], [-3.12076318752453, 53.380709303995125], [-3.1201619844777926, 53.380714948251764], [-3.1201667031043225, 53.38089468557045], [-3.119866100239509, 53.38089750658203], [-3.119875535114098, 53.381256981238906], [-3.119574929667862, 53.38125980153046], [-3.1195890785640716, 53.38179901352785], [-3.119288469270972, 53.381801833117706], [-3.1192931844057337, 53.38198157045705], [-3.119894405472033, 53.38197593048382]], [[-3.120517757292031, 53.371362957428914], [-3.1202172215722155, 53.37136577898004], [-3.120212504369325, 53.371186041375665], [-3.1205130388245346, 53.37118321984289], [-3.120517757292031, 53.371362957428914]], [[-3.1247063076546135, 53.37060442693327], [-3.124405777704546, 53.3706072590016], [-3.1244010430008724, 53.3704275216319], [-3.124701571686399, 53.37042468958202], [-3.1247063076546135, 53.37060442693327]], [[-3.1216821128784864, 53.3699137633989], [-3.1213815874781052, 53.369916587828904], [-3.121367422064889, 53.36937737508135], [-3.121667943671831, 53.369374550706524], [-3.1216821128784864, 53.3699137633989]]]}, "properties": {"kind": "max_footprint", "threshold_pct": 4.0}}, {"type": "Feature", "geometry": {"type": "Polygon", "coordinates": [[[-3.1249384324848, 53.37941155011289], [-3.1249336940207897, 53.37923181304291], [-3.1252342846338133, 53.379228979332545], [-3.1252295449555616, 53.37904924227526], [-3.1255301342524278, 53.37904640782665], [-3.1255253933599656, 53.378866670782095], [-3.125825981340676, 53.37886383559523], [-3.12581649717837, 53.37850436152581], [-3.1261170825777778, 53.3785015256192], [-3.1261075960891773, 53.378142051563756], [-3.126708761674459, 53.37813637755434], [-3.1266992703294663, 53.37777690354984], [-3.126999850515372, 53.37777406544707], [-3.12699510365434, 53.377594328454684], [-3.1272956825241254, 53.37759148961374], [-3.12729093444907, 53.37741175263412], [-3.127591512002737, 53.377408913055], [-3.127586762713684, 53.37722917608809], [-3.127887338951237, 53.377226335770835], [-3.1278825884482155, 53.377046598816705], [-3.128483738239996, 53.37704091594919], [-3.128474232327136, 53.376681442097706], [-3.1290753768544364, 53.37667575627765], [-3.12906111077856, 53.37613654556843], [-3.129361679170588, 53.37613370157901], [-3.1293521661791, 53.375774227781186], [-3.1296527319900997, 53.37577138307221], [-3.129643216673349, 53.37541190928847], [-3.1299437799033614, 53.37540906385991], [-3.1299342622614548, 53.37504959009027], [-3.130234822910524, 53.37504674394218], [-3.1302300629014543, 53.37486700706727], [-3.1305306222344784, 53.374864160181126], [-3.1305258610117366, 53.37468442331903], [-3.130826419028716, 53.37468157569484], [-3.1308216565923277, 53.37450183884553], [-3.131122213293265, 53.374498990483296], [-3.1311174496432574, 53.374319253646796], [-3.1314180050281526, 53.37431640454655], [-3.1313989458811387, 53.373597457217315], [-3.1316994961556497, 53.37359460743473], [-3.1316804327693553, 53.37287566008785], [-3.1319809779336936, 53.37287280962295], [-3.1319523768034183, 53.37179438854164], [-3.1316518392270716, 53.371797238895155], [-3.131642308456196, 53.37143776511833], [-3.131341773357835, 53.37144061467824], [-3.1313322453210626, 53.371081140841326], [-3.131031712700653, 53.371083989607655], [-3.1310269500236587, 53.37090425266202], [-3.1307264186166117, 53.370907100653326], [-3.1307168959453207, 53.37054762670777], [-3.1304163670161755, 53.37055047390551], [-3.1304068470786763, 53.37019099989988], [-3.1301063206273936, 53.3701938463041], [-3.1301015619999055, 53.37001410927414], [-3.129801036761963, 53.37001695490337], [-3.1297915221894206, 53.36965748078916], [-3.129490999429291, 53.36966032562488], [-3.1295005114728744, 53.37001979977613], [-3.128899460741313, 53.37002548725229], [-3.1289042143107983, 53.37020522435633], [-3.1286036876038525, 53.37020806697825], [-3.1286131923670952, 53.37056754120613], [-3.1283126630800075, 53.37057038310858], [-3.12830791193737, 53.37039064597899], [-3.1280073838637343, 53.37039348710648], [-3.12799788426072, 53.37003401279313], [-3.1276973586650407, 53.37003685312716], [-3.127692610204621, 53.36985711594337], [-3.1273920858223847, 53.36985995550245], [-3.1273873386774915, 53.36968021829442], [-3.1270868155086995, 53.369683057078575], [-3.127082069679308, 53.36950331984632], [-3.126781547723959, 53.36950615785553], [-3.126776803210043, 53.36932642059908], [-3.1264762824681394, 53.369329257833385], [-3.126462053025707, 53.3687900459741], [-3.124959467517988, 53.368804220522165], [-3.1249642042924006, 53.368983957906636], [-3.1246636857736165, 53.36898679056541], [-3.1246684213345195, 53.36916652796259], [-3.1243679015003942, 53.36916935988337], [-3.124377370246031, 53.36952883469737], [-3.1237763253672877, 53.36953449634338], [-3.1237952533534097, 53.37025344604995], [-3.1255984177265557, 53.370236451591936], [-3.125607897199257, 53.370595926189495], [-3.1250068375537636, 53.3706015941085], [-3.1250115748374463, 53.37078133143553], [-3.125312105950218, 53.370778497835815], [-3.1253168445493986, 53.370958235138694], [-3.1256173768757898, 53.37095540076404], [-3.125622116790496, 53.37113513804272], [-3.1259226503305064, 53.37113230289314], [-3.1259273915607624, 53.3713120401476], [-3.1262279263143897, 53.37130920422305], [-3.126232668860225, 53.37148894145332], [-3.1265332048274685, 53.37148610475381], [-3.1265426926013533, 53.37184557916018], [-3.126843231046842, 53.371842741667216], [-3.1268669576974846, 53.37274142749028], [-3.1265664129286423, 53.37274426507562], [-3.12657115714712, 53.37292400224149], [-3.1259700649270012, 53.37292967517953], [-3.1259748066670334, 53.373109412376586], [-3.125674259215769, 53.37311224772925], [-3.1256789997420413, 53.37329198493905], [-3.125378450975067, 53.37329481955363], [-3.1253926690653935, 53.37383403120391], [-3.1247915637899726, 53.37383969827416], [-3.124786826905141, 53.37365996102623], [-3.124486275455813, 53.373662793408066], [-3.124495746746824, 53.37402226793506], [-3.124195192716995, 53.37402509959724], [-3.124199927174064, 53.374204836870554], [-3.1238993718285184, 53.37420766779456], [-3.1239041050716647, 53.37438740508057], [-3.1236035484104003, 53.37439023526646], [-3.1235988164320827, 53.37421049796199], [-3.1232982609847686, 53.37421332737287], [-3.123321915060869, 53.37511201392986], [-3.1230213532384092, 53.375114842676254], [-3.1230260829413323, 53.37529457998886], [-3.123326646028689, 53.37529175122405], [-3.1233313770473767, 53.37547148851249], [-3.123631941348774, 53.375468658972636], [-3.1236366736832553, 53.375648396236926], [-3.1239372391986944, 53.37564556592205], [-3.123941972848993, 53.37582530316215], [-3.123641406068619, 53.37582813349545], [-3.123650870991999, 53.37618760799533], [-3.1233503016308233, 53.376190437608855], [-3.1233644956025595, 53.37672964937089], [-3.1236650687587093, 53.37672681970207], [-3.123669801449388, 53.376906556926166], [-3.123970375819666, 53.376903726482276], [-3.123975109826265, 53.37708346368221], [-3.124275685410673, 53.37708063246324], [-3.1242804207332178, 53.377260369638975], [-3.1239798438837663, 53.3772632008764], [-3.1239845779921698, 53.37744293806485], [-3.12428515610668, 53.377440106809], [-3.12428989153106, 53.377619843973264], [-3.124590470859724, 53.377617011942306], [-3.1245952076001067, 53.3777967490824], [-3.1248957881429225, 53.377793916276346], [-3.1249194789344674, 53.37869260179849], [-3.125220065751956, 53.37868976814349], [-3.125224805328277, 53.37886950521225], [-3.1249242172456233, 53.3788723388857], [-3.1249289556077313, 53.379052075967174], [-3.1246283662089485, 53.379054908902376], [-3.124637840555619, 53.379414383084985], [-3.1249384324848, 53.37941155011289]]]}, "properties": {"kind": "max_footprint", "threshold_pct": 7.0}}, {"type": "Feature", "geometry": {"type": "Polygon", "coordinates": [[[-3.1248626231744896, 53.37653575630426], [-3.124857885525627, 53.37635601914245], [-3.1245573151031003, 53.376358851800944], [-3.124562051486974, 53.376538588981205], [-3.1248626231744896, 53.37653575630426]]]}, "properties": {"kind": "max_footprint", "threshold_pct": 10.0}}, {"type": "Feature", "geometry": {"type": "Polygon", "coordinates": [[[-3.125712184853119, 53.37455014524683], [-3.125702703137952, 53.374190670901875], [-3.1251015929052204, 53.37419633955907], [-3.1251063312076695, 53.37437607677131], [-3.125406887614338, 53.374373242802555], [-3.125411627232572, 53.37455297999061], [-3.125712184853119, 53.37455014524683]]]}, "properties": {"kind": "max_footprint", "threshold_pct": 10.0}}, {"type": "Feature", "geometry": {"type": "Polygon", "coordinates": [[[-3.126379713075115, 53.37706079274414], [-3.12637496894829, 53.37688105569182], [-3.1266755428599615, 53.376878218438115], [-3.126670797519136, 53.376698481398535], [-3.1269713701147746, 53.376695643406684], [-3.1269666235599756, 53.376515906379844], [-3.12726719483958, 53.37651306764981], [-3.1272624470708354, 53.37633333063574], [-3.12816415680835, 53.37632480996131], [-3.128154653834242, 53.37596533602688], [-3.1287557883439887, 53.375959651868165], [-3.128746280514509, 53.375600177984815], [-3.1290468451628533, 53.375597334807544], [-3.129037335008024, 53.37523786093824], [-3.129337897075434, 53.37523501704142], [-3.1293331408098264, 53.37505528011667], [-3.1296337015612172, 53.37505243548176], [-3.129628944081881, 53.3748726985698], [-3.1302300629014543, 53.37486700706727], [-3.1302205430368506, 53.37450753330023], [-3.1308216565923277, 53.37450183884553], [-3.1308168942071424, 53.37432210199047], [-3.1311174496432574, 53.374319253646796], [-3.1311126860444665, 53.37413951680454], [-3.1314132401645547, 53.37413666772287], [-3.1313941812224577, 53.37341772037066], [-3.1316947302322165, 53.37341487060664], [-3.131670901383646, 53.37251618637992], [-3.131971444018599, 53.37251333595214], [-3.13195714353034, 53.37197412540286], [-3.1316566046893617, 53.37197697577496], [-3.131642308456196, 53.37143776511833], [-3.131341773357835, 53.37144061467824], [-3.13133700931384, 53.37126087776266], [-3.131036475428853, 53.37126372654755], [-3.131031712700653, 53.371083989607655], [-3.1307311800290396, 53.371086837617504], [-3.1307168959453207, 53.37054762670777], [-3.1304163670161755, 53.37055047390551], [-3.130411607021839, 53.37037073690556], [-3.1301110793060443, 53.37037358332831], [-3.1301063206273936, 53.3701938463041], [-3.129805794124951, 53.37019669195184], [-3.129801036761963, 53.37001695490337], [-3.129199986132653, 53.37002264389244], [-3.12920474096664, 53.37020238097796], [-3.1289042143107983, 53.37020522435633], [-3.1289137216030873, 53.37056469854719], [-3.1286131923670952, 53.37056754120613], [-3.1286179448253564, 53.37074727831145], [-3.128317414273725, 53.370750120232415], [-3.1283126630800075, 53.37057038310858], [-3.1280121337418407, 53.37057322425456], [-3.1280073838637343, 53.37039348710648], [-3.127706855739034, 53.37039632747752], [-3.1276973586650407, 53.37003685312716], [-3.127396833018313, 53.37003969270474], [-3.1273920858223847, 53.36985995550245], [-3.1270915613891117, 53.36986279430508], [-3.1270868155086995, 53.369683057078575], [-3.1267862922888843, 53.369685895106294], [-3.126781547723959, 53.36950615785553], [-3.1264810257176014, 53.36950899510832], [-3.1264762824681394, 53.369329257833385], [-3.1261757616752424, 53.36933209431125], [-3.1261710197412125, 53.36915235701208], [-3.1258705001617773, 53.36915519271504], [-3.1258752408313657, 53.36933493003268], [-3.125274198990728, 53.36934059920622], [-3.12527893718237, 53.36952033655502], [-3.1246778926090615, 53.36952600273969], [-3.1246826283227005, 53.36970574011965], [-3.1243821046951994, 53.36970857209576], [-3.124386839195265, 53.3698883094884], [-3.1249878889283282, 53.36988264474285], [-3.124992626008294, 53.370062382092875], [-3.125293152062937, 53.37005954856695], [-3.1252978904583433, 53.37023928589278], [-3.1255984177265557, 53.370236451591936], [-3.125593678066639, 53.37005671428458], [-3.1258942040193864, 53.370053879245745], [-3.1259036859192086, 53.37041335381783], [-3.126204214350018, 53.370410517985604], [-3.1262184413756837, 53.370949729745305], [-3.1265189735491568, 53.3709468931012], [-3.1265284610170303, 53.37130636754201], [-3.1268289956686686, 53.37130353010448], [-3.126843231046842, 53.371842741667216], [-3.1271437694413127, 53.371839903417744], [-3.127158009072611, 53.37237911487337], [-3.127458551210019, 53.37237627581193], [-3.1274727950947043, 53.37291548716042], [-3.126871703180674, 53.37292116463768], [-3.126876448714884, 53.373100901779324], [-3.1262753540673165, 53.373106576267354], [-3.1262943265963115, 53.37382552492436], [-3.1253926690653935, 53.37383403120391], [-3.12539740853075, 53.3740137684092], [-3.1259985161319337, 53.37400809827579], [-3.126003258177867, 53.37418783543843], [-3.1263038131667957, 53.37418499921839], [-3.126313299941279, 53.374544473489486], [-3.125712184853119, 53.37455014524683], [-3.125716925787164, 53.37472988241068], [-3.1251158079654062, 53.37473555117861], [-3.1251205464206966, 53.37491528837366], [-3.124819986168524, 53.374918121641166], [-3.1248152489781, 53.3747383844277], [-3.124214130850699, 53.3747440486561], [-3.124228334985495, 53.37528326039], [-3.1245288978692978, 53.37528042859876], [-3.1245478424881323, 53.37599937742317], [-3.124848410380722, 53.37599654480155], [-3.1248531479277046, 53.376176281974864], [-3.1251537170343155, 53.37617344857819], [-3.1251489782223736, 53.37599371142333], [-3.1254495460130705, 53.375990877288466], [-3.125468506626487, 53.376709825799644], [-3.1257690794261372, 53.376706990834336], [-3.1257785625686982, 53.37706646501856], [-3.126379713075115, 53.37706079274414]]]}, "properties": {"kind": "max_footprint", "threshold_pct": 10.0}}]}