{"type": "FeatureCollection", "features": [{"type": "Feature", "geometry": {"type": "Polygon", "coordinates": [[[-3.111877116421053, 53.37432028436189], [-3.1118677512731607, 53.373960808306], [-3.1115671963819076, 53.3739636081738], [-3.1115765590001256, 53.37432308426615], [-3.111877116421053, 53.37432028436189]]]}, "properties": {"kind": "max_footprint", "threshold_pct": 4.0}}, {"type": "Feature", "geometry": {"type": "Polygon", "coordinates": [[[-3.08842431964182, 53.37417692597729], [-3.088419735801224, 53.373997186533444], [-3.0881191782897486, 53.373999927369674], [-3.088123760865472, 53.374179666831346], [-3.08842431964182, 53.37417692597729]]]}, "properties": {"kind": "max_footprint", "threshold_pct": 4.0}}, {"type": "Feature", "geometry": {"type": "Polygon", "coordinates": [[[-3.107955867709078, 53.3738174093013], [-3.107946535748063, 53.37345793273776], [-3.107645983997987, 53.373460722715556], [-3.107655313429392, 53.373820199315446], [-3.107955867709078, 53.3738174093013]]]}, "properties": {"kind": "max_footprint", "threshold_pct": 4.0}}, {"type": "Feature", "geometry": {"type": "Polygon", "coordinates": [[[-3.0917212674669523, 53.37378724814702], [-3.091716669811676, 53.373607508888384], [-3.091115560884444, 53.37361300637765], [-3.091120156010046, 53.37379274567207], [-3.0917212674669523, 53.37378724814702]]]}, "properties": {"kind": "max_footprint", "threshold_pct": 4.0}}, {"type": "Feature", "geometry": {"type": "Polygon", "coordinates": [[[-3.100428092696008, 53.37334771646973], [-3.1004234584604156, 53.37316797772091], [-3.1001229079901758, 53.373170748748436], [-3.100127540960979, 53.37335048751528], [-3.100428092696008, 53.37334771646973]]]}, "properties": {"kind": "max_footprint", "threshold_pct": 4.0}}, {"type": "Feature", "geometry": {"type": "Polygon", "coordinates": [[[-3.0977231252886295, 53.37337262864337], [-3.0977185024361664, 53.373192889732344], [-3.097417951518108, 53.37319565395081], [-3.0974225731057743, 53.37337539287982], [-3.0977231252886295, 53.37337262864337]]]}, "properties": {"kind": "max_footprint", "threshold_pct": 4.0}}, {"type": "Feature", "geometry": {"type": "Polygon", "coordinates": [[[-3.0941164958177882, 53.373405749547196], [-3.0941118881429217, 53.3732260104205], [-3.093811336629483, 53.37322876556018], [-3.0938159430395444, 53.373408504704805], [-3.0941164958177882, 53.373405749547196]]]}, "properties": {"kind": "max_footprint", "threshold_pct": 4.0}}, {"type": "Feature", "geometry": {"type": "Polygon", "coordinates": [[[-3.1142674959726713, 53.37375864423636], [-3.1142628034061954, 53.37357890634011], [-3.1139622514476963, 53.373581712223974], [-3.1139434867453657, 53.372862760508525], [-3.1133423927951718, 53.37286836986045], [-3.113361147379392, 53.37358732172199], [-3.1136616994387567, 53.373584517351254], [-3.1136663894756382, 53.373764255284044], [-3.1142674959726713, 53.37375864423636]]]}, "properties": {"kind": "max_footprint", "threshold_pct": 4.0}}, {"type": "Feature", "geometry": {"type": "Polygon", "coordinates": [[[-3.102531953445309, 53.37332829796696], [-3.102522667317036, 53.372968820716515], [-3.1022221184606305, 53.37297159702186], [-3.1022314020593496, 53.37333107430846], [-3.102531953445309, 53.37332829796696]]]}, "properties": {"kind": "max_footprint", "threshold_pct": 4.0}}, {"type": "Feature", "geometry": {"type": "Polygon", "coordinates": [[[-3.1001229079901758, 53.373170748748436], [-3.100118275069185, 53.37299100997586], [-3.0998177258139097, 53.372993780228796], [-3.099822357470125, 53.373173519019396], [-3.1001229079901758, 53.373170748748436]]]}, "properties": {"kind": "max_footprint", "threshold_pct": 4.0}}, {"type": "Feature", "geometry": {"type": "Polygon", "coordinates": [[[-3.0874905838772344, 53.372926969668036], [-3.0874814245239057, 53.372567490587485], [-3.0871808769831635, 53.37257022901128], [-3.0871900338069467, 53.37292970812749], [-3.0874905838772344, 53.372926969668036]]]}, "properties": {"kind": "max_footprint", "threshold_pct": 4.0}}, {"type": "Feature", "geometry": {"type": "Polygon", "coordinates": [[[-3.111820928554334, 53.37216342768251], [-3.1118162465593255, 53.37198368958861], [-3.111515705580303, 53.37198648925588], [-3.111520386310631, 53.37216622736801], [-3.111820928554334, 53.37216342768251]]]}, "properties": {"kind": "max_footprint", "threshold_pct": 4.0}}, {"type": "Feature", "geometry": {"type": "Polygon", "coordinates": [[[-3.103105183104671, 53.372244311411166], [-3.103100537785684, 53.372064572790606], [-3.102799995352777, 53.37206735051865], [-3.102804639407061, 53.37224708915729], [-3.103105183104671, 53.372244311411166]]]}, "properties": {"kind": "max_footprint", "threshold_pct": 4.0}}, {"type": "Feature", "geometry": {"type": "Polygon", "coordinates": [[[-3.1154227343773733, 53.3719500345729], [-3.1154133401866453, 53.37159055880624], [-3.115112802341874, 53.37159336751515], [-3.1151221940033, 53.3719528433184], [-3.1154227343773733, 53.3719500345729]]]}, "properties": {"kind": "max_footprint", "threshold_pct": 4.0}}, {"type": "Feature", "geometry": {"type": "Polygon", "coordinates": [[[-3.114525806480805, 53.372138196469436], [-3.1145211131037063, 53.37195845853983], [-3.114821653578739, 53.37195565130738], [-3.114816958987443, 53.371775913390344], [-3.1145164197770674, 53.37177872060452], [-3.114511726500888, 53.371598982663464], [-3.1142111885047, 53.371601789102854], [-3.114215880516234, 53.3717815270622], [-3.1139153412049536, 53.37178433276334], [-3.1139247228500215, 53.37214380870134], [-3.114525806480805, 53.372138196469436]]]}, "properties": {"kind": "max_footprint", "threshold_pct": 4.0}}, {"type": "Feature", "geometry": {"type": "Polygon", "coordinates": [[[-3.1233124532778325, 53.374752539324284], [-3.123307722462612, 53.374572802012885], [-3.123908838365702, 53.37456714236086], [-3.1239041050716647, 53.37438740508057], [-3.124805774750053, 53.374378909983506], [-3.124801037712429, 53.374199172752796], [-3.1254021480470655, 53.374193505608744], [-3.12539740853075, 53.3740137684092], [-3.1259985161319337, 53.37400809827579], [-3.125993774136987, 53.373828361107435], [-3.1262943265963115, 53.37382552492436], [-3.126289583387568, 53.37364578776872], [-3.1271912366651637, 53.373637274735515], [-3.127186489713119, 53.373457537629584], [-3.1277875891134865, 53.37345185852833], [-3.127782839682978, 53.373272121453624], [-3.128684484606264, 53.37326359718312], [-3.128679731432614, 53.37308386015819], [-3.129280825263171, 53.37307817356549], [-3.1292713140103303, 53.37271869957243], [-3.129872402577519, 53.37271301002768], [-3.12986764449841, 53.37253327305958], [-3.1301681874405856, 53.37253042717094], [-3.130163428147958, 53.37235069021564], [-3.130463969774289, 53.37234784358903], [-3.130459209268168, 53.37216810664651], [-3.1307597495786545, 53.372165259281914], [-3.130745464573478, 53.371626048475555], [-3.130444928056894, 53.371628895784546], [-3.130440167755496, 53.37144915881905], [-3.1301396324523396, 53.37145200535301], [-3.130134873466715, 53.371272268363235], [-3.129834339376988, 53.37127511412217], [-3.12982958170711, 53.37109537710815], [-3.129228515903383, 53.37110106631948], [-3.1292237608137903, 53.37092132926266], [-3.128622697334712, 53.37092701541103], [-3.1286179448253564, 53.37074727831145], [-3.128016883671014, 53.370752961396896], [-3.1280121337418407, 53.37057322425456], [-3.1268100158786454, 53.370584581273796], [-3.1268052710586716, 53.37040484405178], [-3.1265047427298436, 53.37040768139692], [-3.1264999992254032, 53.37022794415069], [-3.1252978904583433, 53.37023928589278], [-3.125288413718474, 53.36987981123537], [-3.124386839195265, 53.3698883094884], [-3.124391573746233, 53.37006804687531], [-3.123790521280568, 53.370073708631914], [-3.1237857892586014, 53.36989397120816], [-3.1234852642139526, 53.36989680093335], [-3.123475802851602, 53.369537326031725], [-3.123175280285058, 53.369540154963616], [-3.1231800096763296, 53.36971989243572], [-3.122879485794465, 53.369722720629575], [-3.122884213972092, 53.36990245811435], [-3.122583688774905, 53.369905285570184], [-3.1225789618617683, 53.36972554806698], [-3.1210763414362845, 53.36973967390726], [-3.1210810620269607, 53.36991941150244], [-3.1219826382280886, 53.36991093821245], [-3.121987362663035, 53.3700906757467], [-3.121686836048926, 53.37009350095156], [-3.121696282542144, 53.37045297603963], [-3.121395753348202, 53.37045580052478], [-3.121400475406434, 53.37063553807861], [-3.121099944897177, 53.37063836182569], [-3.1211046657416146, 53.37081809939215], [-3.120804133917041, 53.37082092240115], [-3.120808853547658, 53.371000659980275], [-3.120207787217148, 53.37100630376552], [-3.120212504369325, 53.371186041375665], [-3.1199119698633977, 53.37118886215193], [-3.1199025381389305, 53.370829386889206], [-3.120203070115686, 53.37082656614967], [-3.120198353064939, 53.370646828528066], [-3.1189962299120335, 53.37065810687387], [-3.119005653947662, 53.37101758225821], [-3.1193061873410572, 53.37101476376976], [-3.119310900699457, 53.37119450143499], [-3.119611435306771, 53.371191682171705], [-3.119616149980451, 53.37137141981282], [-3.1199166858016847, 53.37136859977468], [-3.119921401790673, 53.371548337391715], [-3.1193203275682775, 53.37155397674822], [-3.119329754639802, 53.371913452038484], [-3.1190292149233003, 53.37191627061867], [-3.119019790381058, 53.3715567952917], [-3.1187192531431767, 53.37155961307869], [-3.1187239641243303, 53.371739350763406], [-3.118423425571164, 53.37174216781223], [-3.1184281353383168, 53.37192190550952], [-3.118127595469864, 53.371924721820186], [-3.1181370126267405, 53.37228419723428], [-3.1178364701783208, 53.37228701282509], [-3.117841177568002, 53.37246675054185], [-3.1175406338042784, 53.37246956539446], [-3.1175265155811007, 53.37193035217196], [-3.117827055550787, 53.37192753737433], [-3.117822348312936, 53.37174779964035], [-3.1181228869673623, 53.37174498410456], [-3.118113470114221, 53.37138550865604], [-3.1184140061887637, 53.3713826924004], [-3.1184045870089023, 53.37102321696562], [-3.117803519867612, 53.37102884864708], [-3.1178082269030316, 53.371208586403995], [-3.1175076919918725, 53.37121140112831], [-3.1175123978132886, 53.37139113889783], [-3.1172118615869246, 53.37139395288396], [-3.1172212708522733, 53.37175342844244], [-3.1169207320460615, 53.37175624170873], [-3.116934842529448, 53.372295455058364], [-3.1166342998786662, 53.37229826762307], [-3.116620193189284, 53.371759054218494], [-3.11631965428195, 53.371761865971756], [-3.1163290561616597, 53.37212134161715], [-3.1160285146744595, 53.37212415265051], [-3.1160379142269585, 53.37248362830959], [-3.1157373701598505, 53.372486438623014], [-3.115746767385035, 53.37284591429575], [-3.1160473139815794, 53.37284310394572], [-3.116056713938326, 53.37320257955892], [-3.1166578120387824, 53.37319695651601], [-3.1166531095056405, 53.373017218748906], [-3.1169536572152845, 53.373014406110926], [-3.1169630648616384, 53.373373881602795], [-3.1166625146224822, 53.37337669427739], [-3.1166766226769553, 53.373915907527106], [-3.116977176710484, 53.37391309479756], [-3.1169818807612497, 53.374092832517675], [-3.1172824360090168, 53.37409001901325], [-3.117287141375192, 53.37426975670932], [-3.117888254248598, 53.37426412739408], [-3.1178929621950493, 53.37444386504773], [-3.118494077395662, 53.3744382326695], [-3.118489366919527, 53.3742584950525], [-3.1181888106093782, 53.37426131160157], [-3.1181746832792894, 53.373722098661155], [-3.117874130712951, 53.37372491439862], [-3.117864715275608, 53.373365439039674], [-3.117564165188215, 53.373368253983934], [-3.1175594588102267, 53.37318851627751], [-3.1178600076328578, 53.37318570135158], [-3.1178553000407248, 53.37300596365777], [-3.1181558475479947, 53.37300314799363], [-3.118151138741741, 53.37282341031237], [-3.118451684933652, 53.37282059391003], [-3.1184469749133057, 53.372640856241404], [-3.119048064615757, 53.372635221203765], [-3.119052777165537, 53.372814958835704], [-3.1187522310749216, 53.37281777675114], [-3.118761653797011, 53.3731772520345], [-3.118461105126262, 53.37318006923005], [-3.1184799461191943, 53.373899019801314], [-3.118780499849057, 53.37389620253234], [-3.118785211488713, 53.374075940142475], [-3.1190857664327294, 53.374073122098594], [-3.119057489765985, 53.3729946964619], [-3.1196585843246596, 53.372989058324706], [-3.1196774453512495, 53.37370800862527], [-3.1199779976135984, 53.373705188348396], [-3.119982714261787, 53.37388492589084], [-3.1202832677382224, 53.37388210483902], [-3.1202927037163697, 53.37424157986994], [-3.121494927233224, 53.374230287950006], [-3.121504373533014, 53.37458976281093], [-3.122406048226523, 53.37458128581654], [-3.1224107752471704, 53.37476102318318], [-3.1233124532778325, 53.374752539324284]], [[-3.1217576896994097, 53.372789563552615], [-3.121457144065291, 53.3727923882769], [-3.1214524213978008, 53.372612650791936], [-3.1217529657672083, 53.37260982608606], [-3.1217576896994097, 53.372789563552615]], [[-3.1202502434125496, 53.37262394205012], [-3.119949698789397, 53.372626762973326], [-3.1199449824961807, 53.37244702539075], [-3.120245525854629, 53.37244420448588], [-3.1202502434125496, 53.37262394205012]], [[-3.117545339979867, 53.372649303123836], [-3.1172447949008375, 53.37265211723824], [-3.117240089989956, 53.37247237949056], [-3.1175406338042784, 53.37246956539446], [-3.117545339979867, 53.372649303123836]], [[-3.122048784939719, 53.37242726316974], [-3.121748241885797, 53.37243008861375], [-3.121734070546289, 53.37189087616239], [-3.1214335312355876, 53.3718937007947], [-3.121428808821968, 53.371713963281046], [-3.122029884863301, 53.37170831329672], [-3.1220346098062053, 53.37188805077357], [-3.12233514901532, 53.371885224628244], [-3.1223446015828533, 53.37224469952796], [-3.1220440598444132, 53.372247525710094], [-3.122048784939719, 53.37242726316974]], [[-3.1190433521166443, 53.3724554835661], [-3.1187428085554494, 53.37245830144483], [-3.118738097371692, 53.372278563783084], [-3.119038639668198, 53.372275745922714], [-3.1190433521166443, 53.3724554835661]], [[-3.1220251599711957, 53.37152857581411], [-3.1217246232405502, 53.37153140116613], [-3.1217198996638587, 53.37135166365939], [-3.122020435129889, 53.371348838325765], [-3.1220251599711957, 53.37152857581411]], [[-3.12261205132095, 53.37098371046875], [-3.1220109855996676, 53.37098936333187], [-3.122006260910752, 53.370809625826304], [-3.122607324102889, 53.370803973], [-3.12261205132095, 53.37098371046875]]]}, "properties": {"kind": "max_footprint", "threshold_pct": 4.0}}, {"type": "Feature", "geometry": {"type": "Polygon", "coordinates": [[[-3.1208796540963255, 53.37369672297843], [-3.120870213363438, 53.37333724798659], [-3.1202691141514465, 53.373342892249624], [-3.120278549825239, 53.37370236731496], [-3.1208796540963255, 53.37369672297843]]]}, "properties": {"kind": "max_footprint", "threshold_pct": 7.0}}, {"type": "Feature", "geometry": {"type": "Polygon", "coordinates": [[[-3.124505218241504, 53.3743817424391], [-3.124495746746824, 53.37402226793506], [-3.1256979623568277, 53.37401093372078], [-3.1256932216266753, 53.37383119653397], [-3.125993774136987, 53.373828361107435], [-3.125989032193022, 53.37364862393332], [-3.1268906856236516, 53.373640113169806], [-3.1268859399363724, 53.37346037604541], [-3.127487039438828, 53.37345469845724], [-3.12748229127307, 53.37327496136404], [-3.128083388041822, 53.37326928078665], [-3.1280786373976426, 53.37308954372472], [-3.128679731432614, 53.37308386015819], [-3.1286749783100682, 53.372904123127505], [-3.1292760696111857, 53.37289843657182], [-3.1292713140103303, 53.37271869957243], [-3.1295718583194962, 53.37271585517833], [-3.1295671015050797, 53.372536118191704], [-3.1301681874405856, 53.37253042717094], [-3.130163428147958, 53.37235069021564], [-3.130463969774289, 53.37234784358903], [-3.130459209268168, 53.37216810664651], [-3.1307597495786545, 53.372165259281914], [-3.130750226190676, 53.37180578541675], [-3.1304496884094712, 53.37180863274426], [-3.130444928056894, 53.371628895784546], [-3.1301443914891296, 53.37163174233702], [-3.1301396324523396, 53.37145200535301], [-3.1298390970980194, 53.37145485113046], [-3.12982958170711, 53.37109537710815], [-3.1289279829248273, 53.37110390979042], [-3.128923229099806, 53.370924172715085], [-3.128322165518523, 53.370929857350504], [-3.128317414273725, 53.370750120232415], [-3.1277163530172354, 53.370755801804904], [-3.1277116043526076, 53.370576064644084], [-3.1268100158786454, 53.370584581273796], [-3.1268052710586716, 53.37040484405178], [-3.1265047427298436, 53.37040768139692], [-3.1264999992254032, 53.37022794415069], [-3.1252978904583433, 53.37023928589278], [-3.125302628904691, 53.37041902321286], [-3.1250021003210113, 53.37042185677568], [-3.124992626008294, 53.370062382092875], [-3.124391573746233, 53.37006804687531], [-3.1243963083481026, 53.37024778425648], [-3.1237952533534097, 53.37025344604995], [-3.1238047176517147, 53.370612920868794], [-3.1241052477035756, 53.37061009031342], [-3.1241099811935973, 53.37078982769581], [-3.1238094498771827, 53.37079265826961], [-3.1238141821535264, 53.370972395664694], [-3.1235136495216653, 53.370975225500416], [-3.1235183805843043, 53.3711549629082], [-3.1232178466369955, 53.37115779200588], [-3.123222576485901, 53.37133752942631], [-3.1229220412231418, 53.37134035778592], [-3.122926769858288, 53.37152009521904], [-3.1226262332800787, 53.371522922840576], [-3.122621505909545, 53.371343185389044], [-3.1223209705451214, 53.37134601223565], [-3.122330422807776, 53.3717054871698], [-3.1226309607014375, 53.37170266028636], [-3.122645143270476, 53.372241872589306], [-3.1223446015828533, 53.37224469952796], [-3.1223493279428403, 53.37242443696921], [-3.122048784939719, 53.37242726316974], [-3.122062960530452, 53.37296647551426], [-3.122363507327701, 53.37296364925851], [-3.1223682338909553, 53.37314338667681], [-3.1226687819021213, 53.37314055964611], [-3.1226545985706444, 53.372601347429246], [-3.1229551427368136, 53.37259851969724], [-3.1229456849072714, 53.37223904489414], [-3.1235467680283233, 53.37223338723422], [-3.1235609624370584, 53.37277259931977], [-3.123861507715362, 53.372769769299744], [-3.1238662405514015, 53.3729495066317], [-3.1235656940083785, 53.37295233667014], [-3.1235846208023883, 53.37367128601421], [-3.1232840691494776, 53.3736741153698], [-3.1232887997103793, 53.373853852709914], [-3.1229882467418197, 53.37385668132736], [-3.122992976088781, 53.37403641868014], [-3.1232935303221407, 53.37403359004425], [-3.1232982609847686, 53.37421332737287], [-3.124199927174064, 53.374204836870554], [-3.1242046616820374, 53.37438457413814], [-3.124505218241504, 53.3743817424391]], [[-3.1247773532882657, 53.373300486513166], [-3.124476804368466, 53.373303318858106], [-3.1244720689011647, 53.37312358157451], [-3.1247726165562204, 53.37312074924803], [-3.1247773532882657, 53.373300486513166]], [[-3.1244720689011647, 53.37312358157451], [-3.124171521195196, 53.37312641314449], [-3.124162052942781, 53.37276693852321], [-3.123861507715362, 53.372769769299744], [-3.123837844298427, 53.37187108255396], [-3.1241383832024585, 53.37186825186958], [-3.124114714734511, 53.37096956507246], [-3.1250163121720616, 53.37096106875687], [-3.125021049557609, 53.371140806072454], [-3.1253215831995256, 53.37113797243582], [-3.1253263219005976, 53.37131770972723], [-3.125025786994087, 53.371320543382275], [-3.1250305244815006, 53.37150028068638], [-3.1247299882594497, 53.37150311360341], [-3.1247347245331762, 53.3716828509202], [-3.1244341869955834, 53.37168568309918], [-3.1244578628047392, 53.372584369689314], [-3.1247584066656438, 53.372581537418135], [-3.124767879875101, 53.37294101197714], [-3.124467333484777, 53.37294384428519], [-3.1244720689011647, 53.37312358157451]]]}, "properties": {"kind": "max_footprint", "threshold_pct": 7.0}}, {"type": "Feature", "geometry": {"type": "Polygon", "coordinates": [[[-3.124199927174064, 53.374204836870554], [-3.124190458310831, 53.37384536231816], [-3.1247915637899726, 53.37383969827416], [-3.124786826905141, 53.37365996102623], [-3.124486275455813, 53.373662793408066], [-3.124481539886682, 53.37348305613597], [-3.123579889027575, 53.373491548686815], [-3.1235940845046417, 53.37403076065182], [-3.123894638636264, 53.3740279305028], [-3.1238993718285184, 53.37420766779456], [-3.124199927174064, 53.374204836870554]]]}, "properties": {"kind": "max_footprint", "threshold_pct": 10.0}}, {"type": "Feature", "geometry": {"type": "Polygon", "coordinates": [[[-3.125335799455584, 53.371677184292764], [-3.125331060652617, 53.371497447012864], [-3.1250305244815006, 53.37150028068638], [-3.1250352620198485, 53.37168001798474], [-3.125335799455584, 53.371677184292764]]]}, "properties": {"kind": "max_footprint", "threshold_pct": 10.0}}, {"type": "Feature", "geometry": {"type": "Polygon", "coordinates": [[[-3.1256932216266753, 53.37383119653397], [-3.125688480947495, 53.373651459341396], [-3.126289583387568, 53.37364578776872], [-3.126284840229821, 53.373466050607355], [-3.127186489713119, 53.373457537629584], [-3.127181742812111, 53.37327780051788], [-3.127782839682978, 53.373272121453624], [-3.1277780903035333, 53.37309238437319], [-3.1283791844406728, 53.37308670231972], [-3.128374432582848, 53.372906965270516], [-3.1292760696111857, 53.37289843657182], [-3.1292713140103303, 53.37271869957243], [-3.1295718583194962, 53.37271585517833], [-3.1295671015050797, 53.372536118191704], [-3.1301681874405856, 53.37253042717094], [-3.130163428147958, 53.37235069021564], [-3.130463969774289, 53.37234784358903], [-3.1304544488132295, 53.37198836969826], [-3.130754987859067, 53.3719855223522], [-3.130750226190676, 53.37180578541675], [-3.1304496884094712, 53.37180863274426], [-3.130444928056894, 53.371628895784546], [-3.1301443914891296, 53.37163174233702], [-3.1301396324523396, 53.37145200535301], [-3.1298390970980194, 53.37145485113046], [-3.12982958170711, 53.37109537710815], [-3.1289279829248273, 53.37110390979042], [-3.128923229099806, 53.370924172715085], [-3.128322165518523, 53.370929857350504], [-3.128317414273725, 53.370750120232415], [-3.1274158223124027, 53.37075864145645], [-3.127411074912322, 53.37057890427712], [-3.1265094862852827, 53.37058741863743], [-3.1265047427298436, 53.37040768139692], [-3.125603157437429, 53.3704161888936], [-3.1256268567561603, 53.37131487531565], [-3.1253263219005976, 53.37131770972723], [-3.125331060652617, 53.371497447012864], [-3.125631596772787, 53.37149461258284], [-3.12565055734891, 53.37221356159421], [-3.125951098476673, 53.37221072633385], [-3.1259463569915384, 53.37203098910808], [-3.126246896803665, 53.37202815310966], [-3.126251639553459, 53.37220789031697], [-3.126552180579252, 53.37220505354357], [-3.1265569246447114, 53.37238479072668], [-3.1262563823542444, 53.37238762751853], [-3.1262611252060215, 53.37256736471436], [-3.125960581599878, 53.37257020076816], [-3.1259653232379487, 53.37274993797671], [-3.125664778316126, 53.37275277329246], [-3.125669518740464, 53.372932510513735], [-3.125368972502959, 53.372935345091406], [-3.1253737117135345, 53.373115082325384], [-3.1250731641603484, 53.37311791616497], [-3.125082640204867, 53.37347739065263], [-3.1247820900712386, 53.373480223772575], [-3.124786826905141, 53.37365996102623], [-3.1250873783035398, 53.373657127887846], [-3.1250921164531555, 53.373836865117326], [-3.1256932216266753, 53.37383119653397]], [[-3.126523717257593, 53.37112663032448], [-3.126223183819543, 53.37112946698705], [-3.1262136989828098, 53.37076999249781], [-3.12651422989172, 53.37076715587219], [-3.126523717257593, 53.37112663032448]]]}, "properties": {"kind": "max_footprint", "threshold_pct": 10.0}}]}