{"type": "FeatureCollection", "features": [{"type": "Feature", "geometry": {"type": "Polygon", "coordinates": [[[-3.1219703192271546, 53.38087774360908], [-3.1219655930086807, 53.38069800640071], [-3.121664991713843, 53.38070083193446], [-3.1216697166669936, 53.38088056916119], [-3.1219703192271546, 53.38087774360908]]]}, "properties": {"kind": "max_footprint", "threshold_pct": 4.0}}, {"type": "Feature", "geometry": {"type": "Polygon", "coordinates": [[[-3.1086923854771404, 53.37902423354427], [-3.1086877154859613, 53.378844495467916], [-3.10838712588641, 53.37884728750423], [-3.108391794612385, 53.37902702559877], [-3.1086923854771404, 53.37902423354427]]]}, "properties": {"kind": "max_footprint", "threshold_pct": 4.0}}, {"type": "Feature", "geometry": {"type": "Polygon", "coordinates": [[[-3.10838712588641, 53.37884728750423], [-3.108377788585066, 53.378487811297994], [-3.1080772014656834, 53.37849060254123], [-3.1080865362366574, 53.378850078783834], [-3.10838712588641, 53.37884728750423]]]}, "properties": {"kind": "max_footprint", "threshold_pct": 4.0}}, {"type": "Feature", "geometry": {"type": "Polygon", "coordinates": [[[-3.1247205158647584, 53.37114363895257], [-3.1247157797437914, 53.37096390161855], [-3.124415247264603, 53.37096673372375], [-3.1244199821209904, 53.371146471076216], [-3.1247205158647584, 53.37114363895257]]]}, "properties": {"kind": "max_footprint", "threshold_pct": 4.0}}, {"type": "Feature", "geometry": {"type": "Polygon", "coordinates": [[[-3.1219779138439336, 53.369731200672476], [-3.121973189510571, 53.369551463126726], [-3.121672666689939, 53.369554288276376], [-3.121677389758824, 53.3697340258405], [-3.1219779138439336, 53.369731200672476]]]}, "properties": {"kind": "max_footprint", "threshold_pct": 4.0}}, {"type": "Feature", "geometry": {"type": "Polygon", "coordinates": [[[-3.1297820078214555, 53.36929800665199], [-3.1297724936580615, 53.36893853249184], [-3.129471975955691, 53.36894137725346], [-3.129481487590233, 53.36930085145066], [-3.1297820078214555, 53.36929800665199]]]}, "properties": {"kind": "max_footprint", "threshold_pct": 4.0}}, {"type": "Feature", "geometry": {"type": "Polygon", "coordinates": [[[-3.1222661942526977, 53.38069518011026], [-3.122261466819739, 53.380515442914565], [-3.122862666624636, 53.380509788100184], [-3.1228579367119256, 53.38033005093559], [-3.1231585352727964, 53.380327222411694], [-3.123153804145669, 53.38014748525978], [-3.1234544013903855, 53.380144655997555], [-3.1234496690488682, 53.37996491885834], [-3.1240508608551005, 53.37995925810056], [-3.1240461260339702, 53.37977952099247], [-3.1243467205954722, 53.37977668949692], [-3.124337248575499, 53.37941721530037], [-3.1252390243630304, 53.37940871638408], [-3.1252295449555616, 53.37904924227526], [-3.1258307234983147, 53.37904357262132], [-3.1258117551737032, 53.3783246244825], [-3.1261123393079764, 53.37832178859434], [-3.1261075960891773, 53.378142051563756], [-3.1264081789073255, 53.37813921493738], [-3.1264034344744216, 53.377959477919525], [-3.126704015976448, 53.377956640554956], [-3.1266992703294663, 53.37777690354984], [-3.126999850515372, 53.37777406544707], [-3.12699510365434, 53.377594328454684], [-3.1275962613428576, 53.37758865001613], [-3.127586762713684, 53.37722917608809], [-3.1281879151377083, 53.377223494696885], [-3.128183163369652, 53.37704375776128], [-3.128483738239996, 53.37704091594919], [-3.128474232327136, 53.376681442097706], [-3.1287748046163455, 53.376678599565984], [-3.1287700504715805, 53.376498862650145], [-3.12907062144468, 53.376496019380305], [-3.1290658660860546, 53.376316282477234], [-3.1296670053488946, 53.37631059370474], [-3.1296622475114715, 53.37613085683296], [-3.1299628158011976, 53.37612801133029], [-3.1299532977499402, 53.37576853760658], [-3.1302538634586137, 53.37576569138436], [-3.130244343082206, 53.37540621767475], [-3.131146032311598, 53.37539767457967], [-3.131131740746937, 53.37485846413908], [-3.1314322999263426, 53.374855614983176], [-3.1314084753521856, 53.37395693089343], [-3.1317090281562465, 53.37395408107372], [-3.131675667050881, 53.37269592323675], [-3.1319762109505205, 53.37269307279041], [-3.1319523768034183, 53.37179438854164], [-3.1316518392270716, 53.371797238895155], [-3.131642308456196, 53.37143776511833], [-3.131341773357835, 53.37144061467824], [-3.1313322453210626, 53.371081140841326], [-3.131031712700653, 53.371083989607655], [-3.1310269500236587, 53.37090425266202], [-3.1304258871583723, 53.370909947888165], [-3.1304163670161755, 53.37055047390551], [-3.1301158380358536, 53.37055332034679], [-3.1301015619999055, 53.37001410927414], [-3.129801036761963, 53.37001695490337], [-3.1297915221894206, 53.36965748078916], [-3.129490999429291, 53.36966032562488], [-3.1295052675713624, 53.37019953684313], [-3.12920474096664, 53.37020238097796], [-3.1292094958517467, 53.370382118057755], [-3.1289089679313893, 53.370384961454626], [-3.1289137216030873, 53.37056469854719], [-3.1280121337418407, 53.37057322425456], [-3.1280073838637343, 53.37039348710648], [-3.1274063275632797, 53.37039916709206], [-3.1274015802652775, 53.370219429901255], [-3.127101053303006, 53.37022226874087], [-3.1270868155086995, 53.369683057078575], [-3.1267862922888843, 53.369685895106294], [-3.126781547723959, 53.36950615785553], [-3.1264810257176014, 53.36950899510832], [-3.1264715392696694, 53.369149520552696], [-3.1261710197412125, 53.36915235701208], [-3.1261662778581623, 53.368972619707186], [-3.125865759543156, 53.3689754553917], [-3.125861018975497, 53.36879571806259], [-3.12556050187394, 53.3687985529722], [-3.125551023420306, 53.36843907825986], [-3.1249499941219363, 53.36844474573602], [-3.1249547307945016, 53.36862448313197], [-3.124353698763664, 53.36863014761934], [-3.1243584329583443, 53.36880988504642], [-3.124057915602171, 53.36881271617392], [-3.124062648583329, 53.3689924536137], [-3.1228605735922663, 53.36900377063309], [-3.122865301566571, 53.36918350814083], [-3.1222642612371403, 53.36918916214874], [-3.1222689867333737, 53.36936889968756], [-3.1219684652279986, 53.36937172557526], [-3.121973189510571, 53.369551463126726], [-3.122874757667669, 53.36954298313906], [-3.122879485794465, 53.369722720629575], [-3.1231800096763296, 53.36971989243572], [-3.123184739118446, 53.36989962990207], [-3.1234852642139526, 53.36989680093335], [-3.1234899949714197, 53.37007653837555], [-3.124992626008294, 53.370062382092875], [-3.1250115748374463, 53.37078133143553], [-3.125312105950218, 53.370778497835815], [-3.1253168445493986, 53.370958235138694], [-3.1250163121720616, 53.37096106875687], [-3.125025786994087, 53.371320543382275], [-3.1259273915607624, 53.3713120401476], [-3.1259321328419927, 53.37149177739632], [-3.126232668860225, 53.37148894145332], [-3.126251639553459, 53.37220789031697], [-3.126552180579252, 53.37220505354357], [-3.1265664129286423, 53.37274426507562], [-3.126265868108793, 53.37274710190443], [-3.126270611062557, 53.37292683908877], [-3.1259700649270012, 53.37292967517953], [-3.1259748066670334, 53.373109412376586], [-3.1253737117135345, 53.373115082325384], [-3.1253926690653935, 53.37383403120391], [-3.1247915637899726, 53.37383969827416], [-3.1247963007257344, 53.37401943551635], [-3.1232935303221407, 53.37403359004425], [-3.1233029916982584, 53.37439306469576], [-3.122701878121395, 53.3743987212846], [-3.122706606356063, 53.374578458638574], [-3.122406048226523, 53.37458128581654], [-3.1223965943376983, 53.37422181106604], [-3.1217954829855152, 53.3742274630786], [-3.121800207374852, 53.37440720049352], [-3.1214996503577277, 53.37441002538335], [-3.121504373533014, 53.37458976281093], [-3.121804931814986, 53.37458693790272], [-3.121809656305915, 53.374766675306155], [-3.1221102158019485, 53.37476384962295], [-3.122119667465964, 53.37512332437584], [-3.122420229440943, 53.37512049789924], [-3.1224344111128044, 53.375659709930304], [-3.122734976831694, 53.37565688264188], [-3.122739705422244, 53.375836619955685], [-3.1230402723552304, 53.37583379189223], [-3.1230450022615748, 53.376013529181876], [-3.123345570408656, 53.37601070034337], [-3.1233503016308233, 53.376190437608855], [-3.123650870991999, 53.37618760799533], [-3.1236603361189195, 53.37654708247223], [-3.123359764227775, 53.37654991212261], [-3.1233644956025595, 53.37672964937089], [-3.1227633491376547, 53.37673530643861], [-3.1227680780332747, 53.37691504371797], [-3.123068652556178, 53.37691221554402], [-3.1230828433432674, 53.37745142729243], [-3.123383421610449, 53.37744859830658], [-3.123397616650572, 53.37798780994808], [-3.12399878062281, 53.377982149595766], [-3.1240129837116086, 53.37852136107504], [-3.123712397955555, 53.378524191684825], [-3.1237171311551486, 53.378703928851536], [-3.123416544083047, 53.37870675872305], [-3.1234212760683695, 53.378886495902464], [-3.123721864405641, 53.37888366601252], [-3.1237265977070274, 53.37906340316775], [-3.123426008104574, 53.37906623307611], [-3.1234307401916634, 53.37924597024404], [-3.1231301492731305, 53.379248799414135], [-3.123139611069528, 53.37960827376959], [-3.1228390175696896, 53.379611102219826], [-3.1228437472789596, 53.379790839407384], [-3.122543152463024, 53.379793667119294], [-3.1225478809579004, 53.37997340431951], [-3.1228484770390885, 53.3799705765892], [-3.1228532068500763, 53.380150313765256], [-3.122552609503623, 53.380153141513986], [-3.122557338100193, 53.38033287870273], [-3.121956140724199, 53.38033853196682], [-3.1219655930086807, 53.38069800640071], [-3.1222661942526977, 53.38069518011026]]]}, "properties": {"kind": "max_footprint", "threshold_pct": 4.0}}, {"type": "Feature", "geometry": {"type": "Polygon", "coordinates": [[[-3.124905264306695, 53.37815339050241], [-3.1249005261993363, 53.37797365339225], [-3.124599944391423, 53.37797648621677], [-3.1246046812336727, 53.37815622334538], [-3.124905264306695, 53.37815339050241]]]}, "properties": {"kind": "max_footprint", "threshold_pct": 7.0}}, {"type": "Feature", "geometry": {"type": "Polygon", "coordinates": [[[-3.126223183819543, 53.37112946698705], [-3.1262184413756837, 53.370949729745305], [-3.1259179091512226, 53.37095256563291], [-3.1259226503305064, 53.37113230289314], [-3.126223183819543, 53.37112946698705]]]}, "properties": {"kind": "max_footprint", "threshold_pct": 7.0}}, {"type": "Feature", "geometry": {"type": "Polygon", "coordinates": [[[-3.1258070132200264, 53.37814488743345], [-3.1257975294656366, 53.3777854133181], [-3.126098109804585, 53.37778257748535], [-3.1260886237239967, 53.37742310338399], [-3.1263892014817976, 53.37742026683151], [-3.126379713075115, 53.37706079274414], [-3.126680288251812, 53.37705795547194], [-3.1266755428599615, 53.376878218438115], [-3.1281784116526894, 53.37686402081988], [-3.1281689083720385, 53.376504546919904], [-3.1284694794473618, 53.37650170516334], [-3.128464726618693, 53.37632196822325], [-3.128765296377932, 53.376319125728564], [-3.128760542335403, 53.376139388801235], [-3.12906111077856, 53.37613654556843], [-3.1290563555221955, 53.37595680865388], [-3.1293569226492726, 53.37595396468297], [-3.1293474097600704, 53.37559449087368], [-3.129948538801067, 53.37558880073612], [-3.1299437799033614, 53.37540906385991], [-3.130244343082206, 53.37540621767475], [-3.130234822910524, 53.37504674394218], [-3.130535383508415, 53.37504389703749], [-3.1305306222344784, 53.374864160181126], [-3.131131740746937, 53.37485846413908], [-3.1311269769944907, 53.37467872731406], [-3.1314275349090472, 53.37467587817671], [-3.131422769942983, 53.3744961413645], [-3.131122213293265, 53.374498990483296], [-3.1311174496432574, 53.374319253646796], [-3.1314180050281526, 53.37431640454655], [-3.1314037105910475, 53.37377719405825], [-3.131704262130327, 53.373774344257114], [-3.131647073816017, 53.37161750200962], [-3.131346537453053, 53.37162035158809], [-3.13133700931384, 53.37126087776266], [-3.131036475428853, 53.37126372654755], [-3.1310269500236587, 53.37090425266202], [-3.1304258871583723, 53.370909947888165], [-3.1304163670161755, 53.37055047390551], [-3.1301158380358536, 53.37055332034679], [-3.1301063206273936, 53.3701938463041], [-3.1295052675713624, 53.37019953684313], [-3.1295147799217395, 53.37055901095994], [-3.1283126630800075, 53.37057038310858], [-3.128317414273725, 53.370750120232415], [-3.128016883671014, 53.370752961396896], [-3.1280121337418407, 53.37057322425456], [-3.1277116043526076, 53.370576064644084], [-3.127706855739034, 53.37039632747752], [-3.1274063275632797, 53.37039916709206], [-3.1274015802652775, 53.370219429901255], [-3.127101053303006, 53.37022226874087], [-3.1270915613891117, 53.36986279430508], [-3.126791036904816, 53.36986563235127], [-3.1267862922888843, 53.369685895106294], [-3.12648576901806, 53.36968873237753], [-3.1264810257176014, 53.36950899510832], [-3.1258799815519196, 53.369514667344546], [-3.1258752408313657, 53.36933493003268], [-3.125574719936524, 53.36933776499768], [-3.125607897199257, 53.370595926189495], [-3.126208956640922, 53.370590255244586], [-3.1262184413756837, 53.370949729745305], [-3.1265189735491568, 53.3709468931012], [-3.126523717257593, 53.37112663032448], [-3.126223183819543, 53.37112946698705], [-3.1262279263143897, 53.37130920422305], [-3.1265284610170303, 53.37130636754201], [-3.1265426926013533, 53.37184557916018], [-3.126843231046842, 53.371842741667216], [-3.126852721554043, 53.37220221601367], [-3.127153262477813, 53.37219937772723], [-3.127158009072611, 53.37237911487337], [-3.127458551210019, 53.37237627581193], [-3.1274680470820932, 53.372735750050005], [-3.1268669576974846, 53.37274142749028], [-3.126871703180674, 53.37292116463768], [-3.12657115714712, 53.37292400224149], [-3.126599623529176, 53.37400242511613], [-3.126299069856055, 53.37400526207425], [-3.1263038131667957, 53.37418499921839], [-3.126003258177867, 53.37418783543843], [-3.126008000274787, 53.374367572595304], [-3.126909668883024, 53.37435906161009], [-3.1269144148254338, 53.37453879870582], [-3.1260127424226933, 53.37454730974645], [-3.1260174846215856, 53.374727046891834], [-3.125716925787164, 53.37472988241068], [-3.125712184853119, 53.37455014524683], [-3.125411627232572, 53.37455297999061], [-3.1254211066219204, 53.37491245434953], [-3.1251205464206966, 53.37491528837366], [-3.1251158079654062, 53.37473555117861], [-3.12451468993986, 53.37474121692019], [-3.124524161841897, 53.37510069137831], [-3.123923038553172, 53.37510635416728], [-3.1239183051064554, 53.374926616904226], [-3.123617744650626, 53.37492944714537], [-3.123627209065177, 53.37528892170263], [-3.1239277720507834, 53.3752860914246], [-3.1239325055992904, 53.3754658286762], [-3.12423306979891, 53.37546299762314], [-3.1242378046632355, 53.37564273485055], [-3.1248389354395743, 53.37563707043772], [-3.124848410380722, 53.37599654480155], [-3.1251489782223736, 53.37599371142333], [-3.1251537170343155, 53.37617344857819], [-3.1248531479277046, 53.376176281974864], [-3.124857885525627, 53.37635601914245], [-3.124256744629647, 53.3763616837028], [-3.12428989153106, 53.377619843973264], [-3.124891050137456, 53.377614179154676], [-3.1248957881429225, 53.377793916276346], [-3.1254969490757007, 53.37778824839418], [-3.1255064302998874, 53.37814772254645], [-3.1258070132200264, 53.37814488743345]], [[-3.124876836426727, 53.37707496775531], [-3.1245762609441656, 53.37707780048759], [-3.124571524407506, 53.37689806332453], [-3.1248720986250373, 53.37689523061071], [-3.124876836426727, 53.37707496775531]]]}, "properties": {"kind": "max_footprint", "threshold_pct": 7.0}}, {"type": "Feature", "geometry": {"type": "Polygon", "coordinates": [[[-3.131131740746937, 53.37485846413908], [-3.1311269769944907, 53.37467872731406], [-3.130826419028716, 53.37468157569484], [-3.1308311815163115, 53.374861312538386], [-3.131131740746937, 53.37485846413908]]]}, "properties": {"kind": "max_footprint", "threshold_pct": 10.0}}, {"type": "Feature", "geometry": {"type": "Polygon", "coordinates": [[[-3.1272624470708354, 53.37633333063574], [-3.1272576993531405, 53.3761535936159], [-3.127858836699285, 53.376147913959905], [-3.127849336357249, 53.37578843997699], [-3.1284504684393077, 53.37578275736852], [-3.128440963241892, 53.37542328343665], [-3.1287415266764405, 53.37542044103451], [-3.1287367728894857, 53.37524070407848], [-3.1296384590917072, 53.37523217238798], [-3.1296337015612172, 53.37505243548176], [-3.130234822910524, 53.37504674394218], [-3.130225302943563, 53.374687270186634], [-3.130826419028716, 53.37468157569484], [-3.1308168942071424, 53.37432210199047], [-3.1311174496432574, 53.374319253646796], [-3.1311079224968945, 53.373959779956564], [-3.1314084753521856, 53.37395693089343], [-3.1313989458811387, 53.373597457217315], [-3.1316994961556497, 53.37359460743473], [-3.131647073816017, 53.37161750200962], [-3.131346537453053, 53.37162035158809], [-3.131341773357835, 53.37144061467824], [-3.131041238208259, 53.37144346348169], [-3.131036475428853, 53.37126372654755], [-3.1307359414926603, 53.37126657457593], [-3.1307264186166117, 53.370907100653326], [-3.1304258871583723, 53.370909947888165], [-3.1304211270616857, 53.3707302108997], [-3.1301205968168246, 53.3707330573595], [-3.1301158380358536, 53.37055332034679], [-3.1286131923670952, 53.37056754120613], [-3.1286179448253564, 53.37074727831145], [-3.128016883671014, 53.370752961396896], [-3.1280121337418407, 53.37057322425456], [-3.127411074912322, 53.37057890427712], [-3.1274063275632797, 53.37039916709206], [-3.127105799336489, 53.37040200595015], [-3.127101053303006, 53.37022226874087], [-3.1268005262897103, 53.37022510682401], [-3.1268337407437103, 53.37148326729779], [-3.127134276608937, 53.3714804290853], [-3.1271437694413127, 53.371839903417744], [-3.1274443077847534, 53.37183706441178], [-3.1274538033505515, 53.37219653868429], [-3.127754344172243, 53.37219369888483], [-3.1277590932963792, 53.37237343599397], [-3.128059635331679, 53.37237059541951], [-3.1280691362625097, 53.37273006958359], [-3.1277685916978335, 53.37273291019507], [-3.1277733409751525, 53.37291264728699], [-3.1274727950947043, 53.37291548716042], [-3.12748229127307, 53.37327496136404], [-3.128083388041822, 53.37326928078665], [-3.1280881387370796, 53.37344901784287], [-3.128388688309595, 53.37344617640087], [-3.128398192382885, 53.373805650459055], [-3.1277970881276977, 53.37381133266051], [-3.1278018377114023, 53.373991069718], [-3.127200730722369, 53.373996748930196], [-3.1272197194492612, 53.374715697250615], [-3.1269191608188724, 53.37471853579581], [-3.1269239068633405, 53.37489827288004], [-3.1266233469170603, 53.37490111068711], [-3.126628091747683, 53.3750808477841], [-3.126327530485513, 53.37508368485305], [-3.1263559929510922, 53.37616210742521], [-3.1266565618028, 53.376159270245395], [-3.1266613069905564, 53.37633900730218], [-3.1272624470708354, 53.37633333063574]]]}, "properties": {"kind": "max_footprint", "threshold_pct": 10.0}}]}